{
  "type": "FeatureCollection",
  "features": [
    {
      "type": "Feature",
      "properties": {
        "scenario": "HARD - Harlem River bend, tiny target",
        "shape": "round",
        "target_miles": 1.5,
        "distance_m": 2475.28261191394,
        "candidate_index": 0
      },
      "geometry": {
        "type": "LineString",
        "coordinates": [
          [
            -73.9198331,
            40.8721096
          ],
          [
            -73.919927,
            40.872137
          ],
          [
            -73.9200102,
            40.8721735
          ],
          [
            -73.9200449,
            40.8721925
          ],
          [
            -73.9200947,
            40.8722993
          ],
          [
            -73.920219,
            40.8723677
          ],
          [
            -73.9203768,
            40.8724588
          ],
          [
            -73.9204744,
            40.872478
          ],
          [
            -73.9207329,
            40.8724921
          ],
          [
            -73.9210323,
            40.8724731
          ],
          [
            -73.9211095,
            40.8724461
          ],
          [
            -73.9212427,
            40.8724551
          ],
          [
            -73.9212856,
            40.8724591
          ],
          [
            -73.9213795,
            40.8724875
          ],
          [
            -73.9214814,
            40.8725524
          ],
          [
            -73.9216262,
            40.8726559
          ],
          [
            -73.9217255,
            40.8727106
          ],
          [
            -73.9218435,
            40.872737
          ],
          [
            -73.92193,
            40.8727457
          ],
          [
            -73.9220042,
            40.8727086
          ],
          [
            -73.9221893,
            40.8726262
          ],
          [
            -73.9224475,
            40.87258
          ],
          [
            -73.9226738,
            40.8725682
          ],
          [
            -73.9228377,
            40.8726057
          ],
          [
            -73.9230073,
            40.8726461
          ],
          [
            -73.9231734,
            40.8727181
          ],
          [
            -73.9233671,
            40.8728204
          ],
          [
            -73.923528,
            40.8729556
          ],
          [
            -73.9236125,
            40.8730975
          ],
          [
            -73.9236681,
            40.8732598
          ],
          [
            -73.9238157,
            40.8732942
          ],
          [
            -73.9239343,
            40.873335
          ],
          [
            -73.9240853,
            40.8733471
          ],
          [
            -73.9242529,
            40.8732289
          ],
          [
            -73.9244107,
            40.8730788
          ],
          [
            -73.9244902,
            40.8729552
          ],
          [
            -73.9245471,
            40.872703
          ],
          [
            -73.9246176,
            40.8724968
          ],
          [
            -73.9246798,
            40.8722723
          ],
          [
            -73.9248283,
            40.8718474
          ],
          [
            -73.9249229,
            40.8716795
          ],
          [
            -73.9250842,
            40.8715193
          ],
          [
            -73.9252538,
            40.8713656
          ],
          [
            -73.9254573,
            40.8712312
          ],
          [
            -73.9256949,
            40.8710517
          ],
          [
            -73.9258891,
            40.8709236
          ],
          [
            -73.9260648,
            40.8707458
          ],
          [
            -73.9262382,
            40.870551
          ],
          [
            -73.9264407,
            40.8703038
          ],
          [
            -73.9265847,
            40.8701268
          ],
          [
            -73.9267508,
            40.8699156
          ],
          [
            -73.9268595,
            40.8697668
          ],
          [
            -73.9269935,
            40.8696412
          ],
          [
            -73.9272051,
            40.86957
          ],
          [
            -73.927338,
            40.8696674
          ],
          [
            -73.9273375,
            40.869899
          ],
          [
            -73.927537,
            40.8700437
          ],
          [
            -73.9280122,
            40.8701955
          ],
          [
            -73.9283631,
            40.8702837
          ],
          [
            -73.9286259,
            40.8702425
          ],
          [
            -73.9288402,
            40.8703006
          ],
          [
            -73.9288772,
            40.8704265
          ],
          [
            -73.9290869,
            40.8702916
          ],
          [
            -73.9293763,
            40.8699011
          ],
          [
            -73.9293889,
            40.8696835
          ],
          [
            -73.9293794,
            40.8691246
          ],
          [
            -73.9294805,
            40.8689604
          ],
          [
            -73.9294856,
            40.8687526
          ],
          [
            -73.92944,
            40.8686124
          ],
          [
            -73.9293367,
            40.8685433
          ],
          [
            -73.9291151,
            40.8684731
          ],
          [
            -73.9289101,
            40.8683789
          ],
          [
            -73.9287855,
            40.8682494
          ],
          [
            -73.9286941,
            40.8681337
          ],
          [
            -73.9285124,
            40.8680192
          ],
          [
            -73.9281535,
            40.8679415
          ],
          [
            -73.9279187,
            40.8679051
          ],
          [
            -73.9277894,
            40.8678925
          ],
          [
            -73.9276068,
            40.8679202
          ],
          [
            -73.9274002,
            40.8679738
          ],
          [
            -73.927269,
            40.8679963
          ],
          [
            -73.9271512,
            40.867997
          ],
          [
            -73.927107,
            40.8679598
          ],
          [
            -73.9270813,
            40.8679446
          ],
          [
            -73.9270519,
            40.8679097
          ],
          [
            -73.9269852,
            40.8679563
          ],
          [
            -73.9269228,
            40.868006
          ],
          [
            -73.9267994,
            40.8681044
          ],
          [
            -73.9265748,
            40.8682644
          ],
          [
            -73.9262387,
            40.8684686
          ],
          [
            -73.926062,
            40.8685353
          ],
          [
            -73.9258919,
            40.8685873
          ],
          [
            -73.9257121,
            40.8686284
          ],
          [
            -73.925508,
            40.868673
          ],
          [
            -73.9251354,
            40.8687545
          ],
          [
            -73.9248688,
            40.8688104
          ],
          [
            -73.9245707,
            40.8688673
          ],
          [
            -73.9245514,
            40.868871
          ],
          [
            -73.9242605,
            40.868948
          ],
          [
            -73.924115,
            40.8689775
          ],
          [
            -73.9240171,
            40.868991
          ],
          [
            -73.9239522,
            40.8689939
          ],
          [
            -73.9238758,
            40.868989
          ],
          [
            -73.9237954,
            40.8689781
          ],
          [
            -73.9237394,
            40.8689623
          ],
          [
            -73.9236945,
            40.86894
          ],
          [
            -73.9236086,
            40.8688872
          ],
          [
            -73.9235533,
            40.8688398
          ],
          [
            -73.9235074,
            40.8687911
          ],
          [
            -73.9234916,
            40.8687711
          ],
          [
            -73.923435,
            40.8687912
          ],
          [
            -73.923415,
            40.8687982
          ],
          [
            -73.9227381,
            40.8690349
          ],
          [
            -73.922298,
            40.8691958
          ],
          [
            -73.9222675,
            40.8692069
          ],
          [
            -73.9221994,
            40.8692351
          ],
          [
            -73.9221334,
            40.8692624
          ],
          [
            -73.9221081,
            40.8692728
          ],
          [
            -73.9218789,
            40.8693667
          ],
          [
            -73.9217048,
            40.8694643
          ],
          [
            -73.9210314,
            40.8699086
          ],
          [
            -73.9209417,
            40.8699676
          ],
          [
            -73.9209917,
            40.8700174
          ],
          [
            -73.9209395,
            40.8700489
          ],
          [
            -73.9208363,
            40.8701301
          ],
          [
            -73.9208189,
            40.8702072
          ],
          [
            -73.9207669,
            40.8702208
          ],
          [
            -73.9203738,
            40.8704732
          ],
          [
            -73.9201483,
            40.8706279
          ],
          [
            -73.920014,
            40.8707298
          ],
          [
            -73.9199413,
            40.8708086
          ],
          [
            -73.9198737,
            40.870944
          ],
          [
            -73.9198516,
            40.8712057
          ],
          [
            -73.9199058,
            40.8713903
          ],
          [
            -73.9199886,
            40.8715659
          ],
          [
            -73.9200291,
            40.8717372
          ],
          [
            -73.920055,
            40.8719092
          ],
          [
            -73.9200262,
            40.8719908
          ],
          [
            -73.9199511,
            40.8720478
          ],
          [
            -73.9198895,
            40.8720863
          ],
          [
            -73.9198331,
            40.8721096
          ]
        ]
      }
    },
    {
      "type": "Feature",
      "properties": {
        "scenario": "HARD - Harlem River bend, tiny target",
        "shape": "round",
        "target_miles": 1.5,
        "distance_m": 2448.8964015319807,
        "candidate_index": 1
      },
      "geometry": {
        "type": "LineString",
        "coordinates": [
          [
            -73.9198331,
            40.8721096
          ],
          [
            -73.9197393,
            40.8721137
          ],
          [
            -73.9197327,
            40.8721369
          ],
          [
            -73.9197175,
            40.872154
          ],
          [
            -73.9195174,
            40.8723049
          ],
          [
            -73.9192259,
            40.8725179
          ],
          [
            -73.9190578,
            40.8726312
          ],
          [
            -73.9187585,
            40.8728554
          ],
          [
            -73.9186184,
            40.872952
          ],
          [
            -73.9185845,
            40.8729817
          ],
          [
            -73.9185776,
            40.8729951
          ],
          [
            -73.9185815,
            40.8730059
          ],
          [
            -73.9185948,
            40.8730148
          ],
          [
            -73.9187359,
            40.8730486
          ],
          [
            -73.9186039,
            40.8730674
          ],
          [
            -73.918459,
            40.873022
          ],
          [
            -73.9176909,
            40.8727089
          ],
          [
            -73.9173697,
            40.872578
          ],
          [
            -73.9172941,
            40.8725472
          ],
          [
            -73.917176,
            40.872499
          ],
          [
            -73.9171033,
            40.872468
          ],
          [
            -73.9171457,
            40.8724133
          ],
          [
            -73.9171606,
            40.8723941
          ],
          [
            -73.9164551,
            40.8721191
          ],
          [
            -73.9164439,
            40.8721095
          ],
          [
            -73.9164328,
            40.8720983
          ],
          [
            -73.9164239,
            40.8720892
          ],
          [
            -73.9163549,
            40.87206
          ],
          [
            -73.9163178,
            40.8720442
          ],
          [
            -73.9162984,
            40.872036
          ],
          [
            -73.9151958,
            40.8715672
          ],
          [
            -73.915181,
            40.8715601
          ],
          [
            -73.9151353,
            40.8715387
          ],
          [
            -73.9150808,
            40.8715131
          ],
          [
            -73.9150624,
            40.8715055
          ],
          [
            -73.914348,
            40.8712096
          ],
          [
            -73.9143294,
            40.8712019
          ],
          [
            -73.9142122,
            40.8711394
          ],
          [
            -73.9141537,
            40.8711082
          ],
          [
            -73.9141044,
            40.8710904
          ],
          [
            -73.914047,
            40.8710696
          ],
          [
            -73.9139744,
            40.8710433
          ],
          [
            -73.9139498,
            40.8710333
          ],
          [
            -73.9142494,
            40.8706241
          ],
          [
            -73.9145381,
            40.8702313
          ],
          [
            -73.9145458,
            40.8702209
          ],
          [
            -73.9145867,
            40.8701801
          ],
          [
            -73.9146116,
            40.8701553
          ],
          [
            -73.9146212,
            40.8701421
          ],
          [
            -73.9130014,
            40.8694337
          ],
          [
            -73.9133756,
            40.8689205
          ],
          [
            -73.9133465,
            40.8689081
          ],
          [
            -73.9132754,
            40.8688781
          ],
          [
            -73.9132031,
            40.8688476
          ],
          [
            -73.9131696,
            40.8688334
          ],
          [
            -73.9127785,
            40.8693799
          ],
          [
            -73.9127577,
            40.8694063
          ],
          [
            -73.9127243,
            40.8694515
          ],
          [
            -73.9127171,
            40.8694612
          ],
          [
            -73.9114585,
            40.8689333
          ],
          [
            -73.9127171,
            40.8694612
          ],
          [
            -73.9127243,
            40.8694515
          ],
          [
            -73.9127577,
            40.8694063
          ],
          [
            -73.9127785,
            40.8693799
          ],
          [
            -73.9131696,
            40.8688334
          ],
          [
            -73.9132031,
            40.8688476
          ],
          [
            -73.9132754,
            40.8688781
          ],
          [
            -73.9133465,
            40.8689081
          ],
          [
            -73.9133756,
            40.8689205
          ],
          [
            -73.9150068,
            40.8696138
          ],
          [
            -73.9150228,
            40.8696206
          ],
          [
            -73.9151092,
            40.8696527
          ],
          [
            -73.9152436,
            40.8697063
          ],
          [
            -73.9152665,
            40.8697162
          ],
          [
            -73.9156371,
            40.8698763
          ],
          [
            -73.9156685,
            40.8698902
          ],
          [
            -73.9157391,
            40.8699486
          ],
          [
            -73.9158491,
            40.8698643
          ],
          [
            -73.915931,
            40.8698087
          ],
          [
            -73.9160085,
            40.8698756
          ],
          [
            -73.9160287,
            40.8698911
          ],
          [
            -73.9163134,
            40.8697203
          ],
          [
            -73.9163926,
            40.8696732
          ],
          [
            -73.9164257,
            40.8696999
          ],
          [
            -73.9164998,
            40.8697597
          ],
          [
            -73.9168592,
            40.8700497
          ],
          [
            -73.9169525,
            40.8701006
          ],
          [
            -73.9174412,
            40.8698233
          ],
          [
            -73.9180324,
            40.8695612
          ],
          [
            -73.9181743,
            40.8695007
          ],
          [
            -73.9181823,
            40.8695444
          ],
          [
            -73.9181585,
            40.869548
          ],
          [
            -73.9181231,
            40.8695652
          ],
          [
            -73.9181058,
            40.869581
          ],
          [
            -73.9180929,
            40.8696018
          ],
          [
            -73.9180882,
            40.8696332
          ],
          [
            -73.9180095,
            40.8696441
          ],
          [
            -73.9179151,
            40.869674
          ],
          [
            -73.9174284,
            40.8698978
          ],
          [
            -73.9170165,
            40.8701354
          ],
          [
            -73.9170746,
            40.8701863
          ],
          [
            -73.9170993,
            40.8701719
          ],
          [
            -73.917123,
            40.8701536
          ],
          [
            -73.9176224,
            40.8705796
          ],
          [
            -73.9179299,
            40.8708371
          ],
          [
            -73.9179494,
            40.8708534
          ],
          [
            -73.9179778,
            40.8708808
          ],
          [
            -73.9180209,
            40.8709219
          ],
          [
            -73.9180408,
            40.8709392
          ],
          [
            -73.9185556,
            40.8713796
          ],
          [
            -73.9185775,
            40.8713984
          ],
          [
            -73.9186173,
            40.8714402
          ],
          [
            -73.9186863,
            40.871491
          ],
          [
            -73.9187063,
            40.8715082
          ],
          [
            -73.9192431,
            40.8711312
          ],
          [
            -73.9192505,
            40.8711268
          ],
          [
            -73.9192656,
            40.8711179
          ],
          [
            -73.919287,
            40.871103
          ],
          [
            -73.9193163,
            40.8710826
          ],
          [
            -73.9193466,
            40.8710619
          ],
          [
            -73.9193528,
            40.8710687
          ],
          [
            -73.9193737,
            40.8711263
          ],
          [
            -73.9197096,
            40.87198
          ],
          [
            -73.9197401,
            40.8720715
          ],
          [
            -73.9197393,
            40.8721137
          ],
          [
            -73.9198331,
            40.8721096
          ]
        ]
      }
    },
    {
      "type": "Feature",
      "properties": {
        "scenario": "HARD - Harlem River bend, tiny target",
        "shape": "round",
        "target_miles": 1.5,
        "distance_m": 2464.1610722820446,
        "candidate_index": 2
      },
      "geometry": {
        "type": "LineString",
        "coordinates": [
          [
            -73.9198331,
            40.8721096
          ],
          [
            -73.9197393,
            40.8721137
          ],
          [
            -73.9197401,
            40.8720715
          ],
          [
            -73.9197096,
            40.87198
          ],
          [
            -73.9193737,
            40.8711263
          ],
          [
            -73.9193528,
            40.8710687
          ],
          [
            -73.9193466,
            40.8710619
          ],
          [
            -73.9193315,
            40.8710454
          ],
          [
            -73.9192577,
            40.8709736
          ],
          [
            -73.9192331,
            40.8709484
          ],
          [
            -73.9192169,
            40.8709303
          ],
          [
            -73.9193129,
            40.870864
          ],
          [
            -73.9192883,
            40.8708204
          ],
          [
            -73.9192805,
            40.8707586
          ],
          [
            -73.9192751,
            40.8706479
          ],
          [
            -73.9193094,
            40.8705327
          ],
          [
            -73.9193556,
            40.8703875
          ],
          [
            -73.9193675,
            40.8703232
          ],
          [
            -73.9194055,
            40.870291
          ],
          [
            -73.9194865,
            40.8702311
          ],
          [
            -73.9195331,
            40.8701879
          ],
          [
            -73.9195374,
            40.8701386
          ],
          [
            -73.9195333,
            40.8701129
          ],
          [
            -73.9196609,
            40.8700901
          ],
          [
            -73.9197417,
            40.8700623
          ],
          [
            -73.9198383,
            40.8700042
          ],
          [
            -73.919947,
            40.8699009
          ],
          [
            -73.9199809,
            40.8698406
          ],
          [
            -73.9200108,
            40.8697592
          ],
          [
            -73.9200208,
            40.8696597
          ],
          [
            -73.9200048,
            40.8695142
          ],
          [
            -73.9200008,
            40.8693951
          ],
          [
            -73.9200128,
            40.869322
          ],
          [
            -73.9200756,
            40.8691878
          ],
          [
            -73.9201683,
            40.8691336
          ],
          [
            -73.9202631,
            40.8691005
          ],
          [
            -73.920249,
            40.8690787
          ],
          [
            -73.9202202,
            40.8690369
          ],
          [
            -73.9201972,
            40.8690018
          ],
          [
            -73.9201863,
            40.8689855
          ],
          [
            -73.9200009,
            40.8687066
          ],
          [
            -73.9197188,
            40.8682446
          ],
          [
            -73.9197021,
            40.8682209
          ],
          [
            -73.9196431,
            40.8681472
          ],
          [
            -73.9195976,
            40.8680885
          ],
          [
            -73.9195744,
            40.8680461
          ],
          [
            -73.9195392,
            40.8679933
          ],
          [
            -73.9191726,
            40.8673924
          ],
          [
            -73.9191581,
            40.8673687
          ],
          [
            -73.9191197,
            40.8673118
          ],
          [
            -73.919093,
            40.8672671
          ],
          [
            -73.9190761,
            40.8672406
          ],
          [
            -73.9185745,
            40.866456
          ],
          [
            -73.9185599,
            40.8664333
          ],
          [
            -73.9185048,
            40.8663477
          ],
          [
            -73.9184621,
            40.8662814
          ],
          [
            -73.9184462,
            40.8662567
          ],
          [
            -73.91816,
            40.8657658
          ],
          [
            -73.9182025,
            40.8657071
          ],
          [
            -73.9182343,
            40.865652
          ],
          [
            -73.9182575,
            40.8656204
          ],
          [
            -73.9185695,
            40.8651952
          ],
          [
            -73.9186636,
            40.8651629
          ],
          [
            -73.9186664,
            40.8651424
          ],
          [
            -73.9187141,
            40.8650703
          ],
          [
            -73.9187536,
            40.8649681
          ],
          [
            -73.9187607,
            40.8649469
          ],
          [
            -73.918771,
            40.8649165
          ],
          [
            -73.9189976,
            40.8646256
          ],
          [
            -73.9190069,
            40.8646137
          ],
          [
            -73.919069,
            40.8645354
          ],
          [
            -73.9191602,
            40.864406
          ],
          [
            -73.9191767,
            40.86438
          ],
          [
            -73.9194063,
            40.8640193
          ],
          [
            -73.9194966,
            40.8639107
          ],
          [
            -73.9194763,
            40.8639027
          ],
          [
            -73.9193764,
            40.8638633
          ],
          [
            -73.9194167,
            40.8638064
          ],
          [
            -73.9194592,
            40.8637537
          ],
          [
            -73.9194052,
            40.86373
          ],
          [
            -73.9193571,
            40.8637005
          ],
          [
            -73.9193328,
            40.8636904
          ],
          [
            -73.9190337,
            40.8635647
          ],
          [
            -73.9182811,
            40.8632451
          ],
          [
            -73.9184323,
            40.8630356
          ],
          [
            -73.9182811,
            40.8632451
          ],
          [
            -73.9182364,
            40.8633068
          ],
          [
            -73.9184349,
            40.863389
          ],
          [
            -73.9183896,
            40.8634556
          ],
          [
            -73.9192423,
            40.8638108
          ],
          [
            -73.9188619,
            40.8643183
          ],
          [
            -73.9188359,
            40.8643533
          ],
          [
            -73.9187877,
            40.8644157
          ],
          [
            -73.9187289,
            40.8644879
          ],
          [
            -73.9187168,
            40.8645046
          ],
          [
            -73.9187363,
            40.8645127
          ],
          [
            -73.9188737,
            40.8645686
          ],
          [
            -73.9189817,
            40.8646182
          ],
          [
            -73.9189976,
            40.8646256
          ],
          [
            -73.9191615,
            40.8647008
          ],
          [
            -73.9192149,
            40.8647831
          ],
          [
            -73.9192294,
            40.8648053
          ],
          [
            -73.9192689,
            40.8648698
          ],
          [
            -73.9192934,
            40.8649112
          ],
          [
            -73.919308,
            40.8649339
          ],
          [
            -73.9198269,
            40.8657468
          ],
          [
            -73.919841,
            40.8657688
          ],
          [
            -73.9198883,
            40.8658368
          ],
          [
            -73.9199494,
            40.8659247
          ],
          [
            -73.9199611,
            40.8659432
          ],
          [
            -73.9204556,
            40.8667281
          ],
          [
            -73.920479,
            40.8667573
          ],
          [
            -73.9205014,
            40.8667999
          ],
          [
            -73.920542,
            40.8668572
          ],
          [
            -73.9205552,
            40.8668842
          ],
          [
            -73.9210433,
            40.8676432
          ],
          [
            -73.9210631,
            40.8676686
          ],
          [
            -73.9211172,
            40.8677392
          ],
          [
            -73.9211673,
            40.8678115
          ],
          [
            -73.921183,
            40.8678399
          ],
          [
            -73.9215964,
            40.8684861
          ],
          [
            -73.9216109,
            40.8685129
          ],
          [
            -73.9216338,
            40.8685385
          ],
          [
            -73.9216611,
            40.8685804
          ],
          [
            -73.9216719,
            40.8685916
          ],
          [
            -73.9220085,
            40.8691137
          ],
          [
            -73.9220223,
            40.8691351
          ],
          [
            -73.9220558,
            40.8691905
          ],
          [
            -73.922089,
            40.8692453
          ],
          [
            -73.9221081,
            40.8692728
          ],
          [
            -73.9218789,
            40.8693667
          ],
          [
            -73.9217048,
            40.8694643
          ],
          [
            -73.9210314,
            40.8699086
          ],
          [
            -73.9209417,
            40.8699676
          ],
          [
            -73.9209917,
            40.8700174
          ],
          [
            -73.9209395,
            40.8700489
          ],
          [
            -73.9208363,
            40.8701301
          ],
          [
            -73.9208189,
            40.8702072
          ],
          [
            -73.9207669,
            40.8702208
          ],
          [
            -73.9203738,
            40.8704732
          ],
          [
            -73.9201483,
            40.8706279
          ],
          [
            -73.920014,
            40.8707298
          ],
          [
            -73.9199413,
            40.8708086
          ],
          [
            -73.9198737,
            40.870944
          ],
          [
            -73.9198516,
            40.8712057
          ],
          [
            -73.9199058,
            40.8713903
          ],
          [
            -73.9199886,
            40.8715659
          ],
          [
            -73.9200291,
            40.8717372
          ],
          [
            -73.920055,
            40.8719092
          ],
          [
            -73.9200262,
            40.8719908
          ],
          [
            -73.9199511,
            40.8720478
          ],
          [
            -73.9198895,
            40.8720863
          ],
          [
            -73.9198331,
            40.8721096
          ]
        ]
      }
    },
    {
      "type": "Feature",
      "properties": {
        "scenario": "HARD - Harlem River bend, tiny target",
        "shape": "round",
        "target_miles": 1.5,
        "distance_m": 2957.1133981998523,
        "candidate_index": 3
      },
      "geometry": {
        "type": "LineString",
        "coordinates": [
          [
            -73.9198331,
            40.8721096
          ],
          [
            -73.9197393,
            40.8721137
          ],
          [
            -73.9197327,
            40.8721369
          ],
          [
            -73.9197175,
            40.872154
          ],
          [
            -73.9195174,
            40.8723049
          ],
          [
            -73.9192259,
            40.8725179
          ],
          [
            -73.9190578,
            40.8726312
          ],
          [
            -73.9187585,
            40.8728554
          ],
          [
            -73.9186184,
            40.872952
          ],
          [
            -73.9185845,
            40.8729817
          ],
          [
            -73.9185776,
            40.8729951
          ],
          [
            -73.9185815,
            40.8730059
          ],
          [
            -73.9185948,
            40.8730148
          ],
          [
            -73.9187359,
            40.8730486
          ],
          [
            -73.9186039,
            40.8730674
          ],
          [
            -73.918459,
            40.873022
          ],
          [
            -73.9176909,
            40.8727089
          ],
          [
            -73.9173697,
            40.872578
          ],
          [
            -73.9172941,
            40.8725472
          ],
          [
            -73.9172362,
            40.872597
          ],
          [
            -73.9172153,
            40.872615
          ],
          [
            -73.9171868,
            40.8726028
          ],
          [
            -73.9170453,
            40.8725427
          ],
          [
            -73.9163599,
            40.8722514
          ],
          [
            -73.915252,
            40.8717755
          ],
          [
            -73.9147714,
            40.8715828
          ],
          [
            -73.9141567,
            40.8713312
          ],
          [
            -73.9139231,
            40.8715189
          ],
          [
            -73.912848,
            40.8723804
          ],
          [
            -73.9119497,
            40.8731241
          ],
          [
            -73.9117384,
            40.8732943
          ],
          [
            -73.9116269,
            40.8733842
          ],
          [
            -73.9108912,
            40.8739769
          ],
          [
            -73.9105511,
            40.8742509
          ],
          [
            -73.9104873,
            40.8742973
          ],
          [
            -73.9104341,
            40.874336
          ],
          [
            -73.9101097,
            40.8744936
          ],
          [
            -73.9099323,
            40.8746351
          ],
          [
            -73.909891,
            40.8746035
          ],
          [
            -73.9097424,
            40.8744789
          ],
          [
            -73.909675,
            40.8744224
          ],
          [
            -73.9096605,
            40.8744103
          ],
          [
            -73.9097958,
            40.8743048
          ],
          [
            -73.9099242,
            40.8742136
          ],
          [
            -73.9099455,
            40.8742036
          ],
          [
            -73.9099814,
            40.8741942
          ],
          [
            -73.9101046,
            40.8741676
          ],
          [
            -73.9101944,
            40.874132
          ],
          [
            -73.9103079,
            40.8740743
          ],
          [
            -73.9103588,
            40.8740433
          ],
          [
            -73.9104298,
            40.8739866
          ],
          [
            -73.9106989,
            40.8737716
          ],
          [
            -73.9109623,
            40.8735697
          ],
          [
            -73.9112512,
            40.8733423
          ],
          [
            -73.9115065,
            40.8731451
          ],
          [
            -73.9115841,
            40.8730869
          ],
          [
            -73.9116571,
            40.8730229
          ],
          [
            -73.9117002,
            40.8729828
          ],
          [
            -73.9117079,
            40.8729607
          ],
          [
            -73.9116972,
            40.8729311
          ],
          [
            -73.9115785,
            40.8728413
          ],
          [
            -73.9113998,
            40.8726668
          ],
          [
            -73.9112568,
            40.872493
          ],
          [
            -73.9110678,
            40.8722067
          ],
          [
            -73.9109752,
            40.8720461
          ],
          [
            -73.9109674,
            40.8719373
          ],
          [
            -73.9109776,
            40.8718896
          ],
          [
            -73.9110842,
            40.871754
          ],
          [
            -73.9111221,
            40.8716881
          ],
          [
            -73.9111676,
            40.8716088
          ],
          [
            -73.9113558,
            40.8713424
          ],
          [
            -73.911549,
            40.871076
          ],
          [
            -73.9117461,
            40.8708041
          ],
          [
            -73.9123733,
            40.8699269
          ],
          [
            -73.9127171,
            40.8694612
          ],
          [
            -73.9127243,
            40.8694515
          ],
          [
            -73.9127577,
            40.8694063
          ],
          [
            -73.9127785,
            40.8693799
          ],
          [
            -73.9131696,
            40.8688334
          ],
          [
            -73.9132031,
            40.8688476
          ],
          [
            -73.9132754,
            40.8688781
          ],
          [
            -73.9133465,
            40.8689081
          ],
          [
            -73.9133756,
            40.8689205
          ],
          [
            -73.9130014,
            40.8694337
          ],
          [
            -73.9146212,
            40.8701421
          ],
          [
            -73.9146116,
            40.8701553
          ],
          [
            -73.9145867,
            40.8701801
          ],
          [
            -73.9145458,
            40.8702209
          ],
          [
            -73.9145381,
            40.8702313
          ],
          [
            -73.9142494,
            40.8706241
          ],
          [
            -73.9139498,
            40.8710333
          ],
          [
            -73.9139744,
            40.8710433
          ],
          [
            -73.914047,
            40.8710696
          ],
          [
            -73.9141044,
            40.8710904
          ],
          [
            -73.9141537,
            40.8711082
          ],
          [
            -73.9142122,
            40.8711394
          ],
          [
            -73.9143294,
            40.8712019
          ],
          [
            -73.914348,
            40.8712096
          ],
          [
            -73.9150624,
            40.8715055
          ],
          [
            -73.9150808,
            40.8715131
          ],
          [
            -73.9151353,
            40.8715387
          ],
          [
            -73.915181,
            40.8715601
          ],
          [
            -73.9151958,
            40.8715672
          ],
          [
            -73.9162984,
            40.872036
          ],
          [
            -73.9163178,
            40.8720442
          ],
          [
            -73.9163549,
            40.87206
          ],
          [
            -73.9164239,
            40.8720892
          ],
          [
            -73.9164328,
            40.8720983
          ],
          [
            -73.9164439,
            40.8721095
          ],
          [
            -73.9164551,
            40.8721191
          ],
          [
            -73.9171606,
            40.8723941
          ],
          [
            -73.9171794,
            40.8724032
          ],
          [
            -73.9172559,
            40.8724403
          ],
          [
            -73.917344,
            40.8724831
          ],
          [
            -73.9173597,
            40.8724907
          ],
          [
            -73.9185886,
            40.8715957
          ],
          [
            -73.9186083,
            40.8715813
          ],
          [
            -73.9186461,
            40.8715498
          ],
          [
            -73.9186826,
            40.8715248
          ],
          [
            -73.9187063,
            40.8715082
          ],
          [
            -73.9192431,
            40.8711312
          ],
          [
            -73.9192505,
            40.8711268
          ],
          [
            -73.9192656,
            40.8711179
          ],
          [
            -73.919287,
            40.871103
          ],
          [
            -73.9193163,
            40.8710826
          ],
          [
            -73.9193466,
            40.8710619
          ],
          [
            -73.9193528,
            40.8710687
          ],
          [
            -73.9193737,
            40.8711263
          ],
          [
            -73.9197096,
            40.87198
          ],
          [
            -73.9197401,
            40.8720715
          ],
          [
            -73.9197393,
            40.8721137
          ],
          [
            -73.9198331,
            40.8721096
          ]
        ]
      }
    },
    {
      "type": "Feature",
      "properties": {
        "scenario": "HARD - Harlem River bend, tiny target",
        "shape": "round",
        "target_miles": 1.5,
        "distance_m": 2551.328397218234,
        "candidate_index": 4
      },
      "geometry": {
        "type": "LineString",
        "coordinates": [
          [
            -73.9198331,
            40.8721096
          ],
          [
            -73.919927,
            40.872137
          ],
          [
            -73.9200102,
            40.8721735
          ],
          [
            -73.9200449,
            40.8721925
          ],
          [
            -73.9200947,
            40.8722993
          ],
          [
            -73.920219,
            40.8723677
          ],
          [
            -73.9203768,
            40.8724588
          ],
          [
            -73.9204744,
            40.872478
          ],
          [
            -73.9207329,
            40.8724921
          ],
          [
            -73.9210323,
            40.8724731
          ],
          [
            -73.9211095,
            40.8724461
          ],
          [
            -73.9212427,
            40.8724551
          ],
          [
            -73.9212856,
            40.8724591
          ],
          [
            -73.9213795,
            40.8724875
          ],
          [
            -73.9214814,
            40.8725524
          ],
          [
            -73.9216262,
            40.8726559
          ],
          [
            -73.9217255,
            40.8727106
          ],
          [
            -73.9218435,
            40.872737
          ],
          [
            -73.92193,
            40.8727457
          ],
          [
            -73.9220042,
            40.8727086
          ],
          [
            -73.9221893,
            40.8726262
          ],
          [
            -73.9224475,
            40.87258
          ],
          [
            -73.9226738,
            40.8725682
          ],
          [
            -73.9228377,
            40.8726057
          ],
          [
            -73.9230073,
            40.8726461
          ],
          [
            -73.9231734,
            40.8727181
          ],
          [
            -73.9233671,
            40.8728204
          ],
          [
            -73.923528,
            40.8729556
          ],
          [
            -73.9236125,
            40.8730975
          ],
          [
            -73.9236681,
            40.8732598
          ],
          [
            -73.9238157,
            40.8732942
          ],
          [
            -73.9239343,
            40.873335
          ],
          [
            -73.9240853,
            40.8733471
          ],
          [
            -73.9242529,
            40.8732289
          ],
          [
            -73.9244107,
            40.8730788
          ],
          [
            -73.9242667,
            40.8733572
          ],
          [
            -73.9241994,
            40.8735811
          ],
          [
            -73.9241523,
            40.8737948
          ],
          [
            -73.9239908,
            40.8740644
          ],
          [
            -73.9238024,
            40.8742985
          ],
          [
            -73.9236948,
            40.8745682
          ],
          [
            -73.9236831,
            40.8747011
          ],
          [
            -73.9236746,
            40.8747971
          ],
          [
            -73.9235265,
            40.8750922
          ],
          [
            -73.9234929,
            40.8752652
          ],
          [
            -73.9236409,
            40.8753415
          ],
          [
            -73.923863,
            40.8752652
          ],
          [
            -73.9241137,
            40.8752667
          ],
          [
            -73.9243719,
            40.8749067
          ],
          [
            -73.9245686,
            40.8747305
          ],
          [
            -73.9246204,
            40.8746643
          ],
          [
            -73.9248648,
            40.8744783
          ],
          [
            -73.9250563,
            40.8743825
          ],
          [
            -73.9251921,
            40.8745235
          ],
          [
            -73.9254259,
            40.8744434
          ],
          [
            -73.9256307,
            40.8742874
          ],
          [
            -73.9257411,
            40.874486
          ],
          [
            -73.9258977,
            40.8746469
          ],
          [
            -73.9259807,
            40.8747085
          ],
          [
            -73.9259452,
            40.8747198
          ],
          [
            -73.9257948,
            40.8747754
          ],
          [
            -73.9257282,
            40.8747849
          ],
          [
            -73.9255342,
            40.8747841
          ],
          [
            -73.9253252,
            40.8748327
          ],
          [
            -73.9252693,
            40.8748295
          ],
          [
            -73.9252118,
            40.8749007
          ],
          [
            -73.925089,
            40.8750384
          ],
          [
            -73.9250143,
            40.8752006
          ],
          [
            -73.9249122,
            40.875308
          ],
          [
            -73.9247108,
            40.8754331
          ],
          [
            -73.9243676,
            40.8755349
          ],
          [
            -73.9241137,
            40.8752667
          ],
          [
            -73.9241254,
            40.8754239
          ],
          [
            -73.924137,
            40.875581
          ],
          [
            -73.9240027,
            40.8757461
          ],
          [
            -73.9238004,
            40.8758164
          ],
          [
            -73.9235971,
            40.8758406
          ],
          [
            -73.9233915,
            40.8757515
          ],
          [
            -73.9233136,
            40.8757554
          ],
          [
            -73.9232851,
            40.8757568
          ],
          [
            -73.9231807,
            40.8758305
          ],
          [
            -73.9231091,
            40.8759198
          ],
          [
            -73.923106,
            40.8760515
          ],
          [
            -73.9231806,
            40.8762522
          ],
          [
            -73.9231731,
            40.8764487
          ],
          [
            -73.9231537,
            40.8765641
          ],
          [
            -73.9231852,
            40.8766473
          ],
          [
            -73.9233394,
            40.8767736
          ],
          [
            -73.9234209,
            40.8768891
          ],
          [
            -73.9230609,
            40.8767506
          ],
          [
            -73.9227724,
            40.8765844
          ],
          [
            -73.9226796,
            40.876483
          ],
          [
            -73.922648,
            40.8763771
          ],
          [
            -73.9226632,
            40.8761097
          ],
          [
            -73.9226529,
            40.8760302
          ],
          [
            -73.9225973,
            40.8759207
          ],
          [
            -73.9225908,
            40.8758337
          ],
          [
            -73.9226261,
            40.8757447
          ],
          [
            -73.9227265,
            40.8756066
          ],
          [
            -73.9228401,
            40.8753291
          ],
          [
            -73.922917,
            40.8751126
          ],
          [
            -73.9230577,
            40.8748976
          ],
          [
            -73.9232388,
            40.8747099
          ],
          [
            -73.9233431,
            40.874434
          ],
          [
            -73.9236002,
            40.8741865
          ],
          [
            -73.9238258,
            40.8739368
          ],
          [
            -73.9239203,
            40.8738239
          ],
          [
            -73.9239827,
            40.8736862
          ],
          [
            -73.9239447,
            40.8735372
          ],
          [
            -73.923818,
            40.8733934
          ],
          [
            -73.9236716,
            40.8733048
          ],
          [
            -73.9236524,
            40.8734819
          ],
          [
            -73.9235877,
            40.8736866
          ],
          [
            -73.9234746,
            40.8738914
          ],
          [
            -73.9233209,
            40.874027
          ],
          [
            -73.9231837,
            40.8740994
          ],
          [
            -73.9228873,
            40.8742374
          ],
          [
            -73.9227174,
            40.8742949
          ],
          [
            -73.9225688,
            40.8740909
          ],
          [
            -73.9224578,
            40.8739222
          ],
          [
            -73.9222936,
            40.8737132
          ],
          [
            -73.9221475,
            40.8735686
          ],
          [
            -73.9219607,
            40.8734158
          ],
          [
            -73.9217628,
            40.8732522
          ],
          [
            -73.9215383,
            40.873097
          ],
          [
            -73.9214139,
            40.8730414
          ],
          [
            -73.9211876,
            40.8729703
          ],
          [
            -73.9210058,
            40.8729078
          ],
          [
            -73.9207936,
            40.8729028
          ],
          [
            -73.920568,
            40.8729157
          ],
          [
            -73.9203518,
            40.8729544
          ],
          [
            -73.9202217,
            40.8729967
          ],
          [
            -73.9201242,
            40.8729357
          ],
          [
            -73.9200947,
            40.8728546
          ],
          [
            -73.9200813,
            40.8727552
          ],
          [
            -73.9201182,
            40.8726453
          ],
          [
            -73.9201364,
            40.872554
          ],
          [
            -73.920144,
            40.8724654
          ],
          [
            -73.9201246,
            40.8723782
          ],
          [
            -73.9200947,
            40.8722993
          ],
          [
            -73.9200449,
            40.8721925
          ],
          [
            -73.9200356,
            40.8721628
          ],
          [
            -73.9200246,
            40.8720416
          ],
          [
            -73.9200262,
            40.8719908
          ],
          [
            -73.9199511,
            40.8720478
          ],
          [
            -73.9198895,
            40.8720863
          ],
          [
            -73.9198331,
            40.8721096
          ]
        ]
      }
    }
  ]
}
