{
  "type": "FeatureCollection",
  "features": [
    {
      "type": "Feature",
      "properties": {
        "scenario": "Inwood - Dyckman St | 2.5mi | mix | hilly | no-amenity",
        "shape": "mix",
        "target_miles": 2.5,
        "distance_m": 4066.1288835276227,
        "candidate_index": 0
      },
      "geometry": {
        "type": "LineString",
        "coordinates": [
          [
            -73.9280238,
            40.8654429
          ],
          [
            -73.9279083,
            40.865329
          ],
          [
            -73.9278865,
            40.8653403
          ],
          [
            -73.9278578,
            40.8653587
          ],
          [
            -73.92782,
            40.8653796
          ],
          [
            -73.9278078,
            40.8653879
          ],
          [
            -73.9277915,
            40.865368
          ],
          [
            -73.9277762,
            40.8653645
          ],
          [
            -73.9277609,
            40.8653672
          ],
          [
            -73.9275983,
            40.8654515
          ],
          [
            -73.9275773,
            40.8654449
          ],
          [
            -73.9274931,
            40.8654184
          ],
          [
            -73.9273929,
            40.8653895
          ],
          [
            -73.927372,
            40.865372
          ],
          [
            -73.9268655,
            40.864648
          ],
          [
            -73.9268128,
            40.8645673
          ],
          [
            -73.9267176,
            40.8644215
          ],
          [
            -73.9262083,
            40.8636349
          ],
          [
            -73.9261921,
            40.8636074
          ],
          [
            -73.9261393,
            40.8635276
          ],
          [
            -73.9260979,
            40.863465
          ],
          [
            -73.9260808,
            40.8634369
          ],
          [
            -73.9255604,
            40.8626202
          ],
          [
            -73.9254704,
            40.8624798
          ],
          [
            -73.9249447,
            40.8616597
          ],
          [
            -73.9249412,
            40.8616298
          ],
          [
            -73.9249378,
            40.8615727
          ],
          [
            -73.9249363,
            40.8615471
          ],
          [
            -73.9249344,
            40.8615207
          ],
          [
            -73.924931,
            40.861478
          ],
          [
            -73.9249291,
            40.8614537
          ],
          [
            -73.924938,
            40.8614092
          ],
          [
            -73.9249005,
            40.8613945
          ],
          [
            -73.924876,
            40.8613886
          ],
          [
            -73.924819,
            40.8613748
          ],
          [
            -73.9247987,
            40.8613719
          ],
          [
            -73.9248223,
            40.8610731
          ],
          [
            -73.9248412,
            40.8609092
          ],
          [
            -73.9248634,
            40.8607897
          ],
          [
            -73.924877,
            40.8607334
          ],
          [
            -73.9249152,
            40.8606141
          ],
          [
            -73.9249552,
            40.860498
          ],
          [
            -73.9250062,
            40.860381
          ],
          [
            -73.9250712,
            40.8602662
          ],
          [
            -73.9251252,
            40.8601763
          ],
          [
            -73.9252453,
            40.8600051
          ],
          [
            -73.9253643,
            40.8598467
          ],
          [
            -73.9254856,
            40.8597168
          ],
          [
            -73.9256064,
            40.8596058
          ],
          [
            -73.9256971,
            40.8595354
          ],
          [
            -73.9258285,
            40.8594385
          ],
          [
            -73.9259136,
            40.8593858
          ],
          [
            -73.9261946,
            40.8592235
          ],
          [
            -73.9264447,
            40.859084
          ],
          [
            -73.926558,
            40.8590059
          ],
          [
            -73.926662,
            40.8589095
          ],
          [
            -73.9267606,
            40.8587741
          ],
          [
            -73.9268021,
            40.858659
          ],
          [
            -73.9268766,
            40.8584445
          ],
          [
            -73.9269295,
            40.8582726
          ],
          [
            -73.9269684,
            40.858162
          ],
          [
            -73.9270113,
            40.8580829
          ],
          [
            -73.9271387,
            40.857878
          ],
          [
            -73.9272534,
            40.8577311
          ],
          [
            -73.9274306,
            40.857576
          ],
          [
            -73.9275592,
            40.8574838
          ],
          [
            -73.9277285,
            40.8573773
          ],
          [
            -73.9279082,
            40.8572763
          ],
          [
            -73.9280616,
            40.8571334
          ],
          [
            -73.9280787,
            40.8571175
          ],
          [
            -73.9281489,
            40.8570094
          ],
          [
            -73.9281532,
            40.8570029
          ],
          [
            -73.928182,
            40.8569585
          ],
          [
            -73.9281333,
            40.8568705
          ],
          [
            -73.9280631,
            40.856806
          ],
          [
            -73.9280294,
            40.8567914
          ],
          [
            -73.9270234,
            40.8563565
          ],
          [
            -73.9269348,
            40.8563198
          ],
          [
            -73.9269462,
            40.8563009
          ],
          [
            -73.9269654,
            40.8562721
          ],
          [
            -73.926863,
            40.85623
          ],
          [
            -73.9269053,
            40.8561713
          ],
          [
            -73.9270811,
            40.8559276
          ],
          [
            -73.9271832,
            40.8557862
          ],
          [
            -73.927319,
            40.855598
          ],
          [
            -73.9275475,
            40.855294
          ],
          [
            -73.9276019,
            40.8552171
          ],
          [
            -73.9276761,
            40.8551173
          ],
          [
            -73.927781,
            40.854976
          ],
          [
            -73.9278682,
            40.8548552
          ],
          [
            -73.9279904,
            40.854686
          ],
          [
            -73.9280789,
            40.8545635
          ],
          [
            -73.9281966,
            40.8544004
          ],
          [
            -73.928254,
            40.854321
          ],
          [
            -73.9283069,
            40.8542489
          ],
          [
            -73.9282524,
            40.8542261
          ],
          [
            -73.9282117,
            40.854209
          ],
          [
            -73.9269888,
            40.8536925
          ],
          [
            -73.9273245,
            40.8532293
          ],
          [
            -73.9273001,
            40.8532192
          ],
          [
            -73.9271993,
            40.8531735
          ],
          [
            -73.9271109,
            40.8531334
          ],
          [
            -73.9270736,
            40.8531185
          ],
          [
            -73.9271573,
            40.8530035
          ],
          [
            -73.9275262,
            40.8524968
          ],
          [
            -73.9275408,
            40.8524766
          ],
          [
            -73.9275672,
            40.8524402
          ],
          [
            -73.9275967,
            40.8523995
          ],
          [
            -73.9276131,
            40.8523768
          ],
          [
            -73.9271709,
            40.8521783
          ],
          [
            -73.9270972,
            40.8520758
          ],
          [
            -73.9270891,
            40.8520241
          ],
          [
            -73.9271055,
            40.8518507
          ],
          [
            -73.9271084,
            40.8518221
          ],
          [
            -73.9271347,
            40.8515574
          ],
          [
            -73.9271565,
            40.8515254
          ],
          [
            -73.9271567,
            40.8515087
          ],
          [
            -73.9271696,
            40.8514468
          ],
          [
            -73.9271826,
            40.8513959
          ],
          [
            -73.9271888,
            40.8513699
          ],
          [
            -73.9280784,
            40.8517466
          ],
          [
            -73.9281064,
            40.8517584
          ],
          [
            -73.9282064,
            40.8518003
          ],
          [
            -73.9283082,
            40.8518428
          ],
          [
            -73.9283303,
            40.8518522
          ],
          [
            -73.9295587,
            40.8523709
          ],
          [
            -73.9295881,
            40.8523824
          ],
          [
            -73.9296527,
            40.8524078
          ],
          [
            -73.9297254,
            40.8524365
          ],
          [
            -73.9297573,
            40.852449
          ],
          [
            -73.9309159,
            40.8529423
          ],
          [
            -73.9309596,
            40.8529601
          ],
          [
            -73.9310452,
            40.8529951
          ],
          [
            -73.9311399,
            40.8530338
          ],
          [
            -73.9311784,
            40.8530494
          ],
          [
            -73.9321871,
            40.8534709
          ],
          [
            -73.9322262,
            40.8534873
          ],
          [
            -73.9322807,
            40.8535095
          ],
          [
            -73.932363,
            40.8535457
          ],
          [
            -73.9323894,
            40.8535573
          ],
          [
            -73.9325179,
            40.8536136
          ],
          [
            -73.9329915,
            40.8538125
          ],
          [
            -73.9336039,
            40.8540632
          ],
          [
            -73.9335901,
            40.8540894
          ],
          [
            -73.9335694,
            40.8541399
          ],
          [
            -73.9335425,
            40.8542054
          ],
          [
            -73.933535,
            40.8542282
          ],
          [
            -73.9331975,
            40.8552585
          ],
          [
            -73.9331577,
            40.8553802
          ],
          [
            -73.9330944,
            40.8555739
          ],
          [
            -73.9329582,
            40.8558338
          ],
          [
            -73.9326357,
            40.8564349
          ],
          [
            -73.9325431,
            40.8566138
          ],
          [
            -73.9325332,
            40.8566331
          ],
          [
            -73.9325079,
            40.8566829
          ],
          [
            -73.9324817,
            40.8567346
          ],
          [
            -73.9324746,
            40.856748
          ],
          [
            -73.9319511,
            40.857737
          ],
          [
            -73.9318851,
            40.8578668
          ],
          [
            -73.9317223,
            40.8581768
          ],
          [
            -73.9317106,
            40.8581989
          ],
          [
            -73.9316921,
            40.8582329
          ],
          [
            -73.9316699,
            40.8582739
          ],
          [
            -73.9316614,
            40.8582896
          ],
          [
            -73.9316852,
            40.8583004
          ],
          [
            -73.9317893,
            40.8583324
          ],
          [
            -73.9318928,
            40.8583642
          ],
          [
            -73.9319273,
            40.8583743
          ],
          [
            -73.9318895,
            40.8584453
          ],
          [
            -73.9317951,
            40.8586271
          ],
          [
            -73.9317079,
            40.8587949
          ],
          [
            -73.9316307,
            40.8589521
          ],
          [
            -73.9315491,
            40.8591652
          ],
          [
            -73.9314804,
            40.8593207
          ],
          [
            -73.9314707,
            40.8593476
          ],
          [
            -73.931462,
            40.8593709
          ],
          [
            -73.9314426,
            40.8594224
          ],
          [
            -73.9314371,
            40.8594432
          ],
          [
            -73.9314183,
            40.8594799
          ],
          [
            -73.9309345,
            40.8606448
          ],
          [
            -73.9309312,
            40.8606528
          ],
          [
            -73.9308732,
            40.8607521
          ],
          [
            -73.9308693,
            40.8607589
          ],
          [
            -73.9307581,
            40.8609542
          ],
          [
            -73.9305358,
            40.8613221
          ],
          [
            -73.9303764,
            40.861593
          ],
          [
            -73.9302856,
            40.8617399
          ],
          [
            -73.9301695,
            40.8620422
          ],
          [
            -73.9301141,
            40.8622388
          ],
          [
            -73.9300902,
            40.8625349
          ],
          [
            -73.9301101,
            40.8626789
          ],
          [
            -73.930163,
            40.863064
          ],
          [
            -73.9301892,
            40.8632989
          ],
          [
            -73.930185,
            40.8633245
          ],
          [
            -73.9301802,
            40.8633541
          ],
          [
            -73.9301114,
            40.8635412
          ],
          [
            -73.9299818,
            40.8637992
          ],
          [
            -73.9296576,
            40.8641904
          ],
          [
            -73.9294606,
            40.8643815
          ],
          [
            -73.929233,
            40.864569
          ],
          [
            -73.9291886,
            40.8646031
          ],
          [
            -73.9292205,
            40.8646322
          ],
          [
            -73.9292595,
            40.8646484
          ],
          [
            -73.9293432,
            40.8646484
          ],
          [
            -73.9293416,
            40.8647
          ],
          [
            -73.9293811,
            40.8647707
          ],
          [
            -73.9293878,
            40.8648143
          ],
          [
            -73.9293905,
            40.8648488
          ],
          [
            -73.929383,
            40.8649179
          ],
          [
            -73.9292755,
            40.8649926
          ],
          [
            -73.929184,
            40.8649712
          ],
          [
            -73.9291087,
            40.8649648
          ],
          [
            -73.9289434,
            40.8650521
          ],
          [
            -73.9287155,
            40.8651726
          ],
          [
            -73.9286634,
            40.8651991
          ],
          [
            -73.9286767,
            40.8652672
          ],
          [
            -73.9286125,
            40.865279
          ],
          [
            -73.9283945,
            40.8653194
          ],
          [
            -73.9282997,
            40.8653369
          ],
          [
            -73.9281593,
            40.8653787
          ],
          [
            -73.9280238,
            40.8654429
          ]
        ]
      }
    },
    {
      "type": "Feature",
      "properties": {
        "scenario": "Inwood - Dyckman St | 2.5mi | mix | hilly | no-amenity",
        "shape": "mix",
        "target_miles": 2.5,
        "distance_m": 3934.5683581017815,
        "candidate_index": 1
      },
      "geometry": {
        "type": "LineString",
        "coordinates": [
          [
            -73.9280238,
            40.8654429
          ],
          [
            -73.9280888,
            40.8655071
          ],
          [
            -73.9283347,
            40.8655281
          ],
          [
            -73.9283284,
            40.8655583
          ],
          [
            -73.9283189,
            40.8655976
          ],
          [
            -73.9283069,
            40.86565
          ],
          [
            -73.9282952,
            40.8657181
          ],
          [
            -73.9282873,
            40.8657364
          ],
          [
            -73.9281772,
            40.8658909
          ],
          [
            -73.9280376,
            40.8660797
          ],
          [
            -73.9280512,
            40.866098
          ],
          [
            -73.9280871,
            40.8661158
          ],
          [
            -73.9280465,
            40.8661784
          ],
          [
            -73.9281331,
            40.8662486
          ],
          [
            -73.9281016,
            40.8663101
          ],
          [
            -73.9280768,
            40.86634
          ],
          [
            -73.9285919,
            40.8667608
          ],
          [
            -73.9286155,
            40.86678
          ],
          [
            -73.9286403,
            40.8668
          ],
          [
            -73.9286779,
            40.8668303
          ],
          [
            -73.9286975,
            40.8668466
          ],
          [
            -73.928511,
            40.8669853
          ],
          [
            -73.9279835,
            40.8673399
          ],
          [
            -73.9281653,
            40.867493
          ],
          [
            -73.9282357,
            40.8675172
          ],
          [
            -73.9285293,
            40.8675893
          ],
          [
            -73.9288144,
            40.8676872
          ],
          [
            -73.9288881,
            40.8677362
          ],
          [
            -73.9289185,
            40.8678257
          ],
          [
            -73.9289304,
            40.8679373
          ],
          [
            -73.9288652,
            40.868108
          ],
          [
            -73.9287855,
            40.8682494
          ],
          [
            -73.9289101,
            40.8683789
          ],
          [
            -73.9291151,
            40.8684731
          ],
          [
            -73.9293367,
            40.8685433
          ],
          [
            -73.92944,
            40.8686124
          ],
          [
            -73.9294856,
            40.8687526
          ],
          [
            -73.9294805,
            40.8689604
          ],
          [
            -73.9293794,
            40.8691246
          ],
          [
            -73.9293889,
            40.8696835
          ],
          [
            -73.9293763,
            40.8699011
          ],
          [
            -73.9293213,
            40.8702828
          ],
          [
            -73.9292564,
            40.8705996
          ],
          [
            -73.9291976,
            40.8706868
          ],
          [
            -73.9292531,
            40.8707792
          ],
          [
            -73.9293029,
            40.8708906
          ],
          [
            -73.9293434,
            40.8709444
          ],
          [
            -73.9293216,
            40.8710525
          ],
          [
            -73.9292767,
            40.8711243
          ],
          [
            -73.9292635,
            40.8711453
          ],
          [
            -73.9294347,
            40.8712121
          ],
          [
            -73.9293684,
            40.8714675
          ],
          [
            -73.9292644,
            40.8718959
          ],
          [
            -73.9291874,
            40.8721315
          ],
          [
            -73.9290232,
            40.8725309
          ],
          [
            -73.9286839,
            40.8730121
          ],
          [
            -73.9285077,
            40.873477
          ],
          [
            -73.9282281,
            40.873806
          ],
          [
            -73.9282064,
            40.8738274
          ],
          [
            -73.9281607,
            40.8738726
          ],
          [
            -73.9281541,
            40.8738791
          ],
          [
            -73.9281391,
            40.873894
          ],
          [
            -73.9282926,
            40.8739658
          ],
          [
            -73.9284077,
            40.8739897
          ],
          [
            -73.9284989,
            40.8739796
          ],
          [
            -73.9285546,
            40.873951
          ],
          [
            -73.9287391,
            40.8737997
          ],
          [
            -73.9288028,
            40.8737472
          ],
          [
            -73.928981,
            40.8737186
          ],
          [
            -73.9290236,
            40.8737324
          ],
          [
            -73.9290296,
            40.8737351
          ],
          [
            -73.9293489,
            40.8738475
          ],
          [
            -73.9293605,
            40.8738516
          ],
          [
            -73.9293749,
            40.8738566
          ],
          [
            -73.9293791,
            40.8738581
          ],
          [
            -73.9294131,
            40.8738006
          ],
          [
            -73.9294529,
            40.8738144
          ],
          [
            -73.9294192,
            40.87387
          ],
          [
            -73.929482,
            40.8738932
          ],
          [
            -73.9296758,
            40.8739715
          ],
          [
            -73.92963,
            40.8740583
          ],
          [
            -73.9294031,
            40.8744599
          ],
          [
            -73.9296787,
            40.8745563
          ],
          [
            -73.9300013,
            40.8740975
          ],
          [
            -73.9296758,
            40.8739715
          ],
          [
            -73.929673,
            40.8739398
          ],
          [
            -73.9296447,
            40.8738938
          ],
          [
            -73.9296104,
            40.8738354
          ],
          [
            -73.929587,
            40.8737755
          ],
          [
            -73.929482,
            40.8738932
          ],
          [
            -73.9294192,
            40.87387
          ],
          [
            -73.9294529,
            40.8738144
          ],
          [
            -73.9294131,
            40.8738006
          ],
          [
            -73.9293791,
            40.8738581
          ],
          [
            -73.9293749,
            40.8738566
          ],
          [
            -73.9293605,
            40.8738516
          ],
          [
            -73.9293489,
            40.8738475
          ],
          [
            -73.9290296,
            40.8737351
          ],
          [
            -73.9290236,
            40.8737324
          ],
          [
            -73.928981,
            40.8737186
          ],
          [
            -73.9288028,
            40.8737472
          ],
          [
            -73.9287391,
            40.8737997
          ],
          [
            -73.9285546,
            40.873951
          ],
          [
            -73.9284693,
            40.8741114
          ],
          [
            -73.9284222,
            40.8742
          ],
          [
            -73.9281806,
            40.874609
          ],
          [
            -73.9280278,
            40.8748157
          ],
          [
            -73.9278064,
            40.8749919
          ],
          [
            -73.9276958,
            40.8751855
          ],
          [
            -73.9275215,
            40.8755508
          ],
          [
            -73.9275399,
            40.8757133
          ],
          [
            -73.9274573,
            40.875928
          ],
          [
            -73.9272992,
            40.8761668
          ],
          [
            -73.92711,
            40.8763917
          ],
          [
            -73.9268802,
            40.8765911
          ],
          [
            -73.9266084,
            40.8766821
          ],
          [
            -73.9264478,
            40.8767342
          ],
          [
            -73.9262011,
            40.8767205
          ],
          [
            -73.9257436,
            40.8766951
          ],
          [
            -73.9254276,
            40.8767171
          ],
          [
            -73.9253,
            40.8767434
          ],
          [
            -73.9251234,
            40.8768572
          ],
          [
            -73.9249458,
            40.8769807
          ],
          [
            -73.924734,
            40.8770495
          ],
          [
            -73.9245524,
            40.8770661
          ],
          [
            -73.9240007,
            40.8770163
          ],
          [
            -73.9237398,
            40.8769826
          ],
          [
            -73.9234209,
            40.8768891
          ],
          [
            -73.9230609,
            40.8767506
          ],
          [
            -73.9227724,
            40.8765844
          ],
          [
            -73.9226796,
            40.876483
          ],
          [
            -73.922648,
            40.8763771
          ],
          [
            -73.9226632,
            40.8761097
          ],
          [
            -73.9226529,
            40.8760302
          ],
          [
            -73.9225973,
            40.8759207
          ],
          [
            -73.9225908,
            40.8758337
          ],
          [
            -73.9226261,
            40.8757447
          ],
          [
            -73.9227265,
            40.8756066
          ],
          [
            -73.9228401,
            40.8753291
          ],
          [
            -73.922917,
            40.8751126
          ],
          [
            -73.9230577,
            40.8748976
          ],
          [
            -73.9232388,
            40.8747099
          ],
          [
            -73.9233431,
            40.874434
          ],
          [
            -73.9236002,
            40.8741865
          ],
          [
            -73.9238258,
            40.8739368
          ],
          [
            -73.9239203,
            40.8738239
          ],
          [
            -73.9239827,
            40.8736862
          ],
          [
            -73.9239447,
            40.8735372
          ],
          [
            -73.9240853,
            40.8733471
          ],
          [
            -73.9242529,
            40.8732289
          ],
          [
            -73.9244107,
            40.8730788
          ],
          [
            -73.9244902,
            40.8729552
          ],
          [
            -73.9245471,
            40.872703
          ],
          [
            -73.9246176,
            40.8724968
          ],
          [
            -73.9246798,
            40.8722723
          ],
          [
            -73.9246293,
            40.8721186
          ],
          [
            -73.9245725,
            40.8720249
          ],
          [
            -73.9244531,
            40.8719103
          ],
          [
            -73.9241773,
            40.8717893
          ],
          [
            -73.9239864,
            40.8716779
          ],
          [
            -73.9238684,
            40.8715808
          ],
          [
            -73.9239273,
            40.8713966
          ],
          [
            -73.9240966,
            40.8711568
          ],
          [
            -73.9242706,
            40.8710417
          ],
          [
            -73.9244333,
            40.870918
          ],
          [
            -73.9245024,
            40.8708193
          ],
          [
            -73.9245688,
            40.8707012
          ],
          [
            -73.9246422,
            40.8704548
          ],
          [
            -73.924673,
            40.8702621
          ],
          [
            -73.924659,
            40.8701237
          ],
          [
            -73.9245947,
            40.8699549
          ],
          [
            -73.9245554,
            40.8698567
          ],
          [
            -73.9245281,
            40.8697589
          ],
          [
            -73.9244079,
            40.8696719
          ],
          [
            -73.9246225,
            40.8694198
          ],
          [
            -73.9248662,
            40.8693376
          ],
          [
            -73.9250555,
            40.8692515
          ],
          [
            -73.9252262,
            40.8691985
          ],
          [
            -73.9254133,
            40.8691211
          ],
          [
            -73.9255896,
            40.8689692
          ],
          [
            -73.9257367,
            40.868823
          ],
          [
            -73.9258885,
            40.8687351
          ],
          [
            -73.9261561,
            40.8686463
          ],
          [
            -73.9261876,
            40.8686064
          ],
          [
            -73.9261799,
            40.8685838
          ],
          [
            -73.9264885,
            40.868458
          ],
          [
            -73.9267065,
            40.8683097
          ],
          [
            -73.9269804,
            40.8680721
          ],
          [
            -73.9269848,
            40.8680687
          ],
          [
            -73.927107,
            40.8679598
          ],
          [
            -73.9270813,
            40.8679446
          ],
          [
            -73.9270519,
            40.8679097
          ],
          [
            -73.9270315,
            40.8678855
          ],
          [
            -73.9270187,
            40.8678724
          ],
          [
            -73.9275614,
            40.867487
          ],
          [
            -73.9285919,
            40.8667608
          ],
          [
            -73.9286145,
            40.8667449
          ],
          [
            -73.9286747,
            40.8667035
          ],
          [
            -73.9285509,
            40.8666
          ],
          [
            -73.9282274,
            40.8663296
          ],
          [
            -73.9283034,
            40.8662751
          ],
          [
            -73.9283356,
            40.866252
          ],
          [
            -73.9283316,
            40.8661864
          ],
          [
            -73.9283227,
            40.8660384
          ],
          [
            -73.9283204,
            40.8659997
          ],
          [
            -73.9283745,
            40.8659429
          ],
          [
            -73.9283575,
            40.8659348
          ],
          [
            -73.9282623,
            40.8658894
          ],
          [
            -73.9283721,
            40.8657492
          ],
          [
            -73.9283857,
            40.8657318
          ],
          [
            -73.9284054,
            40.865631
          ],
          [
            -73.9283189,
            40.8655976
          ],
          [
            -73.928253,
            40.8655722
          ],
          [
            -73.9280646,
            40.8655549
          ],
          [
            -73.9279887,
            40.8655123
          ],
          [
            -73.9278954,
            40.865403
          ],
          [
            -73.9278578,
            40.8653587
          ],
          [
            -73.9278865,
            40.8653403
          ],
          [
            -73.9279083,
            40.865329
          ],
          [
            -73.9280238,
            40.8654429
          ]
        ]
      }
    },
    {
      "type": "Feature",
      "properties": {
        "scenario": "Inwood - Dyckman St | 2.5mi | mix | hilly | no-amenity",
        "shape": "mix",
        "target_miles": 2.5,
        "distance_m": 4018.2423201901333,
        "candidate_index": 2
      },
      "geometry": {
        "type": "LineString",
        "coordinates": [
          [
            -73.9280238,
            40.8654429
          ],
          [
            -73.9281593,
            40.8653787
          ],
          [
            -73.9282997,
            40.8653369
          ],
          [
            -73.9283945,
            40.8653194
          ],
          [
            -73.9286125,
            40.865279
          ],
          [
            -73.9286767,
            40.8652672
          ],
          [
            -73.9286125,
            40.865279
          ],
          [
            -73.9283945,
            40.8653194
          ],
          [
            -73.9282997,
            40.8653369
          ],
          [
            -73.9281593,
            40.8653787
          ],
          [
            -73.9280238,
            40.8654429
          ],
          [
            -73.9280888,
            40.8655071
          ],
          [
            -73.9283347,
            40.8655281
          ],
          [
            -73.9283284,
            40.8655583
          ],
          [
            -73.9283189,
            40.8655976
          ],
          [
            -73.9283069,
            40.86565
          ],
          [
            -73.9282952,
            40.8657181
          ],
          [
            -73.9282873,
            40.8657364
          ],
          [
            -73.9281772,
            40.8658909
          ],
          [
            -73.9280376,
            40.8660797
          ],
          [
            -73.9280512,
            40.866098
          ],
          [
            -73.9280871,
            40.8661158
          ],
          [
            -73.9280465,
            40.8661784
          ],
          [
            -73.9281331,
            40.8662486
          ],
          [
            -73.9281016,
            40.8663101
          ],
          [
            -73.9280768,
            40.86634
          ],
          [
            -73.9285919,
            40.8667608
          ],
          [
            -73.9286155,
            40.86678
          ],
          [
            -73.9286403,
            40.8668
          ],
          [
            -73.9286779,
            40.8668303
          ],
          [
            -73.9286975,
            40.8668466
          ],
          [
            -73.928511,
            40.8669853
          ],
          [
            -73.9279835,
            40.8673399
          ],
          [
            -73.9281653,
            40.867493
          ],
          [
            -73.9282357,
            40.8675172
          ],
          [
            -73.9285293,
            40.8675893
          ],
          [
            -73.9288144,
            40.8676872
          ],
          [
            -73.9288881,
            40.8677362
          ],
          [
            -73.9289185,
            40.8678257
          ],
          [
            -73.9289304,
            40.8679373
          ],
          [
            -73.9288652,
            40.868108
          ],
          [
            -73.9287855,
            40.8682494
          ],
          [
            -73.9289101,
            40.8683789
          ],
          [
            -73.9291151,
            40.8684731
          ],
          [
            -73.9293367,
            40.8685433
          ],
          [
            -73.92944,
            40.8686124
          ],
          [
            -73.9294856,
            40.8687526
          ],
          [
            -73.9294805,
            40.8689604
          ],
          [
            -73.9293794,
            40.8691246
          ],
          [
            -73.9293889,
            40.8696835
          ],
          [
            -73.9293763,
            40.8699011
          ],
          [
            -73.9293213,
            40.8702828
          ],
          [
            -73.9292564,
            40.8705996
          ],
          [
            -73.9291976,
            40.8706868
          ],
          [
            -73.9292531,
            40.8707792
          ],
          [
            -73.9293029,
            40.8708906
          ],
          [
            -73.9293434,
            40.8709444
          ],
          [
            -73.9293216,
            40.8710525
          ],
          [
            -73.9292767,
            40.8711243
          ],
          [
            -73.9292635,
            40.8711453
          ],
          [
            -73.9294347,
            40.8712121
          ],
          [
            -73.9293684,
            40.8714675
          ],
          [
            -73.9292644,
            40.8718959
          ],
          [
            -73.9291874,
            40.8721315
          ],
          [
            -73.9290232,
            40.8725309
          ],
          [
            -73.9286839,
            40.8730121
          ],
          [
            -73.9285077,
            40.873477
          ],
          [
            -73.9282281,
            40.873806
          ],
          [
            -73.9282064,
            40.8738274
          ],
          [
            -73.9281607,
            40.8738726
          ],
          [
            -73.9281541,
            40.8738791
          ],
          [
            -73.9281391,
            40.873894
          ],
          [
            -73.9282926,
            40.8739658
          ],
          [
            -73.9284077,
            40.8739897
          ],
          [
            -73.9284989,
            40.8739796
          ],
          [
            -73.9285546,
            40.873951
          ],
          [
            -73.9287391,
            40.8737997
          ],
          [
            -73.9288028,
            40.8737472
          ],
          [
            -73.928981,
            40.8737186
          ],
          [
            -73.9290236,
            40.8737324
          ],
          [
            -73.9290296,
            40.8737351
          ],
          [
            -73.9293489,
            40.8738475
          ],
          [
            -73.9293605,
            40.8738516
          ],
          [
            -73.9293749,
            40.8738566
          ],
          [
            -73.9293791,
            40.8738581
          ],
          [
            -73.9294131,
            40.8738006
          ],
          [
            -73.9294529,
            40.8738144
          ],
          [
            -73.9294192,
            40.87387
          ],
          [
            -73.929482,
            40.8738932
          ],
          [
            -73.929587,
            40.8737755
          ],
          [
            -73.9296719,
            40.8737114
          ],
          [
            -73.9297399,
            40.8736733
          ],
          [
            -73.9298122,
            40.8736406
          ],
          [
            -73.9298955,
            40.8736049
          ],
          [
            -73.9299259,
            40.8735975
          ],
          [
            -73.9299825,
            40.8735838
          ],
          [
            -73.9300708,
            40.8735721
          ],
          [
            -73.9301487,
            40.8735692
          ],
          [
            -73.9302272,
            40.8735698
          ],
          [
            -73.9303204,
            40.8735868
          ],
          [
            -73.9300563,
            40.8740255
          ],
          [
            -73.9300013,
            40.8740975
          ],
          [
            -73.9296758,
            40.8739715
          ],
          [
            -73.929482,
            40.8738932
          ],
          [
            -73.9294192,
            40.87387
          ],
          [
            -73.9294529,
            40.8738144
          ],
          [
            -73.9294131,
            40.8738006
          ],
          [
            -73.9293791,
            40.8738581
          ],
          [
            -73.9293749,
            40.8738566
          ],
          [
            -73.9293605,
            40.8738516
          ],
          [
            -73.9293489,
            40.8738475
          ],
          [
            -73.9290296,
            40.8737351
          ],
          [
            -73.9290236,
            40.8737324
          ],
          [
            -73.928981,
            40.8737186
          ],
          [
            -73.9288028,
            40.8737472
          ],
          [
            -73.9287391,
            40.8737997
          ],
          [
            -73.9285546,
            40.873951
          ],
          [
            -73.9284693,
            40.8741114
          ],
          [
            -73.9284222,
            40.8742
          ],
          [
            -73.9281806,
            40.874609
          ],
          [
            -73.9280278,
            40.8748157
          ],
          [
            -73.9278064,
            40.8749919
          ],
          [
            -73.9276958,
            40.8751855
          ],
          [
            -73.9275215,
            40.8755508
          ],
          [
            -73.9275399,
            40.8757133
          ],
          [
            -73.9274573,
            40.875928
          ],
          [
            -73.9272992,
            40.8761668
          ],
          [
            -73.92711,
            40.8763917
          ],
          [
            -73.9268802,
            40.8765911
          ],
          [
            -73.9266084,
            40.8766821
          ],
          [
            -73.9264478,
            40.8767342
          ],
          [
            -73.9262011,
            40.8767205
          ],
          [
            -73.9257436,
            40.8766951
          ],
          [
            -73.9254276,
            40.8767171
          ],
          [
            -73.9253,
            40.8767434
          ],
          [
            -73.9251234,
            40.8768572
          ],
          [
            -73.9249458,
            40.8769807
          ],
          [
            -73.924734,
            40.8770495
          ],
          [
            -73.9245524,
            40.8770661
          ],
          [
            -73.9240007,
            40.8770163
          ],
          [
            -73.9237398,
            40.8769826
          ],
          [
            -73.9234209,
            40.8768891
          ],
          [
            -73.9230609,
            40.8767506
          ],
          [
            -73.9227724,
            40.8765844
          ],
          [
            -73.9226796,
            40.876483
          ],
          [
            -73.922648,
            40.8763771
          ],
          [
            -73.9226632,
            40.8761097
          ],
          [
            -73.9226529,
            40.8760302
          ],
          [
            -73.9225973,
            40.8759207
          ],
          [
            -73.9225908,
            40.8758337
          ],
          [
            -73.9226261,
            40.8757447
          ],
          [
            -73.9227265,
            40.8756066
          ],
          [
            -73.9228401,
            40.8753291
          ],
          [
            -73.922917,
            40.8751126
          ],
          [
            -73.9230577,
            40.8748976
          ],
          [
            -73.9232388,
            40.8747099
          ],
          [
            -73.9233431,
            40.874434
          ],
          [
            -73.9236002,
            40.8741865
          ],
          [
            -73.9238258,
            40.8739368
          ],
          [
            -73.9239203,
            40.8738239
          ],
          [
            -73.9239827,
            40.8736862
          ],
          [
            -73.9239447,
            40.8735372
          ],
          [
            -73.9240853,
            40.8733471
          ],
          [
            -73.9242529,
            40.8732289
          ],
          [
            -73.9244107,
            40.8730788
          ],
          [
            -73.9244902,
            40.8729552
          ],
          [
            -73.9245471,
            40.872703
          ],
          [
            -73.9246176,
            40.8724968
          ],
          [
            -73.9246798,
            40.8722723
          ],
          [
            -73.9246293,
            40.8721186
          ],
          [
            -73.9245725,
            40.8720249
          ],
          [
            -73.9244531,
            40.8719103
          ],
          [
            -73.9241773,
            40.8717893
          ],
          [
            -73.9239864,
            40.8716779
          ],
          [
            -73.9238684,
            40.8715808
          ],
          [
            -73.9239273,
            40.8713966
          ],
          [
            -73.9240966,
            40.8711568
          ],
          [
            -73.9242706,
            40.8710417
          ],
          [
            -73.9244333,
            40.870918
          ],
          [
            -73.9245024,
            40.8708193
          ],
          [
            -73.9245688,
            40.8707012
          ],
          [
            -73.9246422,
            40.8704548
          ],
          [
            -73.924673,
            40.8702621
          ],
          [
            -73.924659,
            40.8701237
          ],
          [
            -73.9245947,
            40.8699549
          ],
          [
            -73.9245554,
            40.8698567
          ],
          [
            -73.9245281,
            40.8697589
          ],
          [
            -73.9244079,
            40.8696719
          ],
          [
            -73.9246225,
            40.8694198
          ],
          [
            -73.9248662,
            40.8693376
          ],
          [
            -73.9250555,
            40.8692515
          ],
          [
            -73.9252262,
            40.8691985
          ],
          [
            -73.9254133,
            40.8691211
          ],
          [
            -73.9255896,
            40.8689692
          ],
          [
            -73.9257367,
            40.868823
          ],
          [
            -73.9258885,
            40.8687351
          ],
          [
            -73.9261561,
            40.8686463
          ],
          [
            -73.9261876,
            40.8686064
          ],
          [
            -73.9261799,
            40.8685838
          ],
          [
            -73.9264885,
            40.868458
          ],
          [
            -73.9267065,
            40.8683097
          ],
          [
            -73.9269804,
            40.8680721
          ],
          [
            -73.9269848,
            40.8680687
          ],
          [
            -73.927107,
            40.8679598
          ],
          [
            -73.9270813,
            40.8679446
          ],
          [
            -73.9270519,
            40.8679097
          ],
          [
            -73.9270315,
            40.8678855
          ],
          [
            -73.9270187,
            40.8678724
          ],
          [
            -73.9275614,
            40.867487
          ],
          [
            -73.9285919,
            40.8667608
          ],
          [
            -73.9286145,
            40.8667449
          ],
          [
            -73.9286747,
            40.8667035
          ],
          [
            -73.9285509,
            40.8666
          ],
          [
            -73.9282274,
            40.8663296
          ],
          [
            -73.9283034,
            40.8662751
          ],
          [
            -73.9283356,
            40.866252
          ],
          [
            -73.9283316,
            40.8661864
          ],
          [
            -73.9283227,
            40.8660384
          ],
          [
            -73.9283204,
            40.8659997
          ],
          [
            -73.9283745,
            40.8659429
          ],
          [
            -73.9283575,
            40.8659348
          ],
          [
            -73.9282623,
            40.8658894
          ],
          [
            -73.9283721,
            40.8657492
          ],
          [
            -73.9283857,
            40.8657318
          ],
          [
            -73.9284054,
            40.865631
          ],
          [
            -73.9283189,
            40.8655976
          ],
          [
            -73.928253,
            40.8655722
          ],
          [
            -73.9280646,
            40.8655549
          ],
          [
            -73.9279887,
            40.8655123
          ],
          [
            -73.9278954,
            40.865403
          ],
          [
            -73.9278578,
            40.8653587
          ],
          [
            -73.9278865,
            40.8653403
          ],
          [
            -73.9279083,
            40.865329
          ],
          [
            -73.9280238,
            40.8654429
          ]
        ]
      }
    },
    {
      "type": "Feature",
      "properties": {
        "scenario": "Inwood - Dyckman St | 2.5mi | mix | hilly | no-amenity",
        "shape": "mix",
        "target_miles": 2.5,
        "distance_m": 4028.436379172136,
        "candidate_index": 3
      },
      "geometry": {
        "type": "LineString",
        "coordinates": [
          [
            -73.9280238,
            40.8654429
          ],
          [
            -73.9279083,
            40.865329
          ],
          [
            -73.9281272,
            40.8652149
          ],
          [
            -73.9282884,
            40.8651302
          ],
          [
            -73.9287266,
            40.8648997
          ],
          [
            -73.9289299,
            40.8647849
          ],
          [
            -73.9290352,
            40.8647226
          ],
          [
            -73.9290243,
            40.8647087
          ],
          [
            -73.9289665,
            40.8646215
          ],
          [
            -73.9289166,
            40.8645463
          ],
          [
            -73.9288996,
            40.8645236
          ],
          [
            -73.9290762,
            40.8643694
          ],
          [
            -73.9293105,
            40.8641676
          ],
          [
            -73.9295992,
            40.8638737
          ],
          [
            -73.9297413,
            40.8636925
          ],
          [
            -73.9298366,
            40.863487
          ],
          [
            -73.9298469,
            40.8634625
          ],
          [
            -73.9298727,
            40.8634053
          ],
          [
            -73.9298941,
            40.8633579
          ],
          [
            -73.9298995,
            40.863334
          ],
          [
            -73.9298887,
            40.8631523
          ],
          [
            -73.9298751,
            40.8629806
          ],
          [
            -73.9298887,
            40.8631523
          ],
          [
            -73.9298995,
            40.863334
          ],
          [
            -73.9298941,
            40.8633579
          ],
          [
            -73.9298727,
            40.8634053
          ],
          [
            -73.9298469,
            40.8634625
          ],
          [
            -73.9298366,
            40.863487
          ],
          [
            -73.9297413,
            40.8636925
          ],
          [
            -73.9295992,
            40.8638737
          ],
          [
            -73.9293105,
            40.8641676
          ],
          [
            -73.9290762,
            40.8643694
          ],
          [
            -73.9288996,
            40.8645236
          ],
          [
            -73.9289166,
            40.8645463
          ],
          [
            -73.9289665,
            40.8646215
          ],
          [
            -73.9290243,
            40.8647087
          ],
          [
            -73.9290352,
            40.8647226
          ],
          [
            -73.9289299,
            40.8647849
          ],
          [
            -73.9287266,
            40.8648997
          ],
          [
            -73.9282884,
            40.8651302
          ],
          [
            -73.9281272,
            40.8652149
          ],
          [
            -73.9279083,
            40.865329
          ],
          [
            -73.9280238,
            40.8654429
          ],
          [
            -73.9280888,
            40.8655071
          ],
          [
            -73.9283347,
            40.8655281
          ],
          [
            -73.9283284,
            40.8655583
          ],
          [
            -73.9283189,
            40.8655976
          ],
          [
            -73.9283069,
            40.86565
          ],
          [
            -73.9282952,
            40.8657181
          ],
          [
            -73.9282873,
            40.8657364
          ],
          [
            -73.9281772,
            40.8658909
          ],
          [
            -73.9280376,
            40.8660797
          ],
          [
            -73.9280512,
            40.866098
          ],
          [
            -73.9280871,
            40.8661158
          ],
          [
            -73.9280465,
            40.8661784
          ],
          [
            -73.9281331,
            40.8662486
          ],
          [
            -73.9281016,
            40.8663101
          ],
          [
            -73.9280768,
            40.86634
          ],
          [
            -73.9265592,
            40.8674029
          ],
          [
            -73.9270187,
            40.8678724
          ],
          [
            -73.9270315,
            40.8678855
          ],
          [
            -73.9270519,
            40.8679097
          ],
          [
            -73.9270813,
            40.8679446
          ],
          [
            -73.927107,
            40.8679598
          ],
          [
            -73.9269848,
            40.8680687
          ],
          [
            -73.9269804,
            40.8680721
          ],
          [
            -73.9267065,
            40.8683097
          ],
          [
            -73.9264885,
            40.868458
          ],
          [
            -73.9261799,
            40.8685838
          ],
          [
            -73.9261876,
            40.8686064
          ],
          [
            -73.9261561,
            40.8686463
          ],
          [
            -73.9258885,
            40.8687351
          ],
          [
            -73.9257367,
            40.868823
          ],
          [
            -73.9255896,
            40.8689692
          ],
          [
            -73.9254133,
            40.8691211
          ],
          [
            -73.9252262,
            40.8691985
          ],
          [
            -73.9250555,
            40.8692515
          ],
          [
            -73.9248662,
            40.8693376
          ],
          [
            -73.9246225,
            40.8694198
          ],
          [
            -73.9244079,
            40.8696719
          ],
          [
            -73.9245281,
            40.8697589
          ],
          [
            -73.9245554,
            40.8698567
          ],
          [
            -73.9245947,
            40.8699549
          ],
          [
            -73.924659,
            40.8701237
          ],
          [
            -73.924673,
            40.8702621
          ],
          [
            -73.9246422,
            40.8704548
          ],
          [
            -73.9245688,
            40.8707012
          ],
          [
            -73.9245024,
            40.8708193
          ],
          [
            -73.9244333,
            40.870918
          ],
          [
            -73.9242706,
            40.8710417
          ],
          [
            -73.9240966,
            40.8711568
          ],
          [
            -73.9239273,
            40.8713966
          ],
          [
            -73.9238684,
            40.8715808
          ],
          [
            -73.9239864,
            40.8716779
          ],
          [
            -73.9241773,
            40.8717893
          ],
          [
            -73.9244531,
            40.8719103
          ],
          [
            -73.9245725,
            40.8720249
          ],
          [
            -73.9246293,
            40.8721186
          ],
          [
            -73.9246798,
            40.8722723
          ],
          [
            -73.9246176,
            40.8724968
          ],
          [
            -73.9245471,
            40.872703
          ],
          [
            -73.9244902,
            40.8729552
          ],
          [
            -73.9244107,
            40.8730788
          ],
          [
            -73.9242529,
            40.8732289
          ],
          [
            -73.9240853,
            40.8733471
          ],
          [
            -73.9239447,
            40.8735372
          ],
          [
            -73.9239827,
            40.8736862
          ],
          [
            -73.9239203,
            40.8738239
          ],
          [
            -73.9238258,
            40.8739368
          ],
          [
            -73.9236002,
            40.8741865
          ],
          [
            -73.9233431,
            40.874434
          ],
          [
            -73.9232388,
            40.8747099
          ],
          [
            -73.9230577,
            40.8748976
          ],
          [
            -73.922917,
            40.8751126
          ],
          [
            -73.9228401,
            40.8753291
          ],
          [
            -73.9227265,
            40.8756066
          ],
          [
            -73.9226261,
            40.8757447
          ],
          [
            -73.9225908,
            40.8758337
          ],
          [
            -73.9225973,
            40.8759207
          ],
          [
            -73.9226529,
            40.8760302
          ],
          [
            -73.9226632,
            40.8761097
          ],
          [
            -73.922648,
            40.8763771
          ],
          [
            -73.9226796,
            40.876483
          ],
          [
            -73.9227724,
            40.8765844
          ],
          [
            -73.9230609,
            40.8767506
          ],
          [
            -73.9234209,
            40.8768891
          ],
          [
            -73.9233394,
            40.8767736
          ],
          [
            -73.9231852,
            40.8766473
          ],
          [
            -73.9231537,
            40.8765641
          ],
          [
            -73.9231731,
            40.8764487
          ],
          [
            -73.9231806,
            40.8762522
          ],
          [
            -73.923106,
            40.8760515
          ],
          [
            -73.9231091,
            40.8759198
          ],
          [
            -73.9231807,
            40.8758305
          ],
          [
            -73.9232851,
            40.8757568
          ],
          [
            -73.9233136,
            40.8757554
          ],
          [
            -73.9233915,
            40.8757515
          ],
          [
            -73.9235971,
            40.8758406
          ],
          [
            -73.9238004,
            40.8758164
          ],
          [
            -73.9240027,
            40.8757461
          ],
          [
            -73.924137,
            40.875581
          ],
          [
            -73.9241254,
            40.8754239
          ],
          [
            -73.9241137,
            40.8752667
          ],
          [
            -73.9243719,
            40.8749067
          ],
          [
            -73.9245686,
            40.8747305
          ],
          [
            -73.9246204,
            40.8746643
          ],
          [
            -73.9248648,
            40.8744783
          ],
          [
            -73.9250563,
            40.8743825
          ],
          [
            -73.9251441,
            40.8741789
          ],
          [
            -73.9252328,
            40.8739898
          ],
          [
            -73.9252617,
            40.8739066
          ],
          [
            -73.9253229,
            40.8737959
          ],
          [
            -73.925426,
            40.8735764
          ],
          [
            -73.9254383,
            40.873541
          ],
          [
            -73.9255571,
            40.8732669
          ],
          [
            -73.9256858,
            40.872977
          ],
          [
            -73.9257644,
            40.8728242
          ],
          [
            -73.9258311,
            40.8727105
          ],
          [
            -73.9259791,
            40.8724802
          ],
          [
            -73.9260996,
            40.8723228
          ],
          [
            -73.9262394,
            40.8720937
          ],
          [
            -73.9263393,
            40.871925
          ],
          [
            -73.926504,
            40.8718029
          ],
          [
            -73.9266252,
            40.8716188
          ],
          [
            -73.9268283,
            40.871451
          ],
          [
            -73.9269094,
            40.8713977
          ],
          [
            -73.9270006,
            40.8713137
          ],
          [
            -73.9271019,
            40.8711494
          ],
          [
            -73.9271729,
            40.8710149
          ],
          [
            -73.9272237,
            40.8708315
          ],
          [
            -73.9272747,
            40.8705016
          ],
          [
            -73.9273063,
            40.8701076
          ],
          [
            -73.9273375,
            40.869899
          ],
          [
            -73.927338,
            40.8696674
          ],
          [
            -73.9272051,
            40.86957
          ],
          [
            -73.9273398,
            40.8695139
          ],
          [
            -73.9274766,
            40.8694775
          ],
          [
            -73.927591,
            40.8693793
          ],
          [
            -73.9277121,
            40.8691956
          ],
          [
            -73.9276414,
            40.8689762
          ],
          [
            -73.9276385,
            40.8687685
          ],
          [
            -73.9276978,
            40.8686314
          ],
          [
            -73.9277525,
            40.8685361
          ],
          [
            -73.9278757,
            40.8684735
          ],
          [
            -73.9281322,
            40.8684738
          ],
          [
            -73.9283665,
            40.8683713
          ],
          [
            -73.9286801,
            40.868314
          ],
          [
            -73.9287855,
            40.8682494
          ],
          [
            -73.9288652,
            40.868108
          ],
          [
            -73.9289304,
            40.8679373
          ],
          [
            -73.9289185,
            40.8678257
          ],
          [
            -73.9288881,
            40.8677362
          ],
          [
            -73.9288144,
            40.8676872
          ],
          [
            -73.9285293,
            40.8675893
          ],
          [
            -73.9282357,
            40.8675172
          ],
          [
            -73.9281653,
            40.867493
          ],
          [
            -73.9279835,
            40.8673399
          ],
          [
            -73.928511,
            40.8669853
          ],
          [
            -73.9286975,
            40.8668466
          ],
          [
            -73.9286779,
            40.8668303
          ],
          [
            -73.9286403,
            40.8668
          ],
          [
            -73.928722,
            40.866743
          ],
          [
            -73.9286747,
            40.8667035
          ],
          [
            -73.9285509,
            40.8666
          ],
          [
            -73.9282274,
            40.8663296
          ],
          [
            -73.9283034,
            40.8662751
          ],
          [
            -73.9283356,
            40.866252
          ],
          [
            -73.9283316,
            40.8661864
          ],
          [
            -73.9283227,
            40.8660384
          ],
          [
            -73.9283204,
            40.8659997
          ],
          [
            -73.9283745,
            40.8659429
          ],
          [
            -73.9283575,
            40.8659348
          ],
          [
            -73.9282623,
            40.8658894
          ],
          [
            -73.9283721,
            40.8657492
          ],
          [
            -73.9283857,
            40.8657318
          ],
          [
            -73.9284054,
            40.865631
          ],
          [
            -73.9283189,
            40.8655976
          ],
          [
            -73.928253,
            40.8655722
          ],
          [
            -73.9280646,
            40.8655549
          ],
          [
            -73.9279887,
            40.8655123
          ],
          [
            -73.9278954,
            40.865403
          ],
          [
            -73.9278578,
            40.8653587
          ],
          [
            -73.9278865,
            40.8653403
          ],
          [
            -73.9279083,
            40.865329
          ],
          [
            -73.9280238,
            40.8654429
          ]
        ]
      }
    },
    {
      "type": "Feature",
      "properties": {
        "scenario": "Inwood - Dyckman St | 2.5mi | mix | hilly | no-amenity",
        "shape": "mix",
        "target_miles": 2.5,
        "distance_m": 4147.181754549769,
        "candidate_index": 4
      },
      "geometry": {
        "type": "LineString",
        "coordinates": [
          [
            -73.9280238,
            40.8654429
          ],
          [
            -73.9279083,
            40.865329
          ],
          [
            -73.9278865,
            40.8653403
          ],
          [
            -73.9278578,
            40.8653587
          ],
          [
            -73.92782,
            40.8653796
          ],
          [
            -73.9278078,
            40.8653879
          ],
          [
            -73.9277915,
            40.865368
          ],
          [
            -73.9277762,
            40.8653645
          ],
          [
            -73.9277609,
            40.8653672
          ],
          [
            -73.9275983,
            40.8654515
          ],
          [
            -73.9275639,
            40.8654692
          ],
          [
            -73.9275597,
            40.8654748
          ],
          [
            -73.9275678,
            40.8654788
          ],
          [
            -73.9275755,
            40.8654801
          ],
          [
            -73.9275671,
            40.8654875
          ],
          [
            -73.9275315,
            40.8655059
          ],
          [
            -73.927465,
            40.865545
          ],
          [
            -73.9274337,
            40.8655634
          ],
          [
            -73.9274042,
            40.8655807
          ],
          [
            -73.927335,
            40.8656213
          ],
          [
            -73.9272887,
            40.8656532
          ],
          [
            -73.9272575,
            40.8656669
          ],
          [
            -73.9260489,
            40.8660937
          ],
          [
            -73.9260229,
            40.8661017
          ],
          [
            -73.9259639,
            40.8661238
          ],
          [
            -73.9259165,
            40.8661365
          ],
          [
            -73.9258843,
            40.8661493
          ],
          [
            -73.9251842,
            40.8664002
          ],
          [
            -73.9251374,
            40.8664146
          ],
          [
            -73.9250706,
            40.8664388
          ],
          [
            -73.9250089,
            40.8664611
          ],
          [
            -73.9249749,
            40.8664767
          ],
          [
            -73.9232783,
            40.8670838
          ],
          [
            -73.9232532,
            40.8670914
          ],
          [
            -73.923175,
            40.8671184
          ],
          [
            -73.9231054,
            40.8671424
          ],
          [
            -73.9230755,
            40.8671543
          ],
          [
            -73.9230655,
            40.8671579
          ],
          [
            -73.9225048,
            40.8673599
          ],
          [
            -73.9224866,
            40.8673665
          ],
          [
            -73.9221477,
            40.8674891
          ],
          [
            -73.9213809,
            40.8677703
          ],
          [
            -73.9213493,
            40.8677803
          ],
          [
            -73.921279,
            40.8678061
          ],
          [
            -73.9212163,
            40.8678258
          ],
          [
            -73.921183,
            40.8678399
          ],
          [
            -73.9208766,
            40.8679499
          ],
          [
            -73.9202559,
            40.868105
          ],
          [
            -73.9199304,
            40.8681899
          ],
          [
            -73.9198938,
            40.868198
          ],
          [
            -73.9198194,
            40.8682186
          ],
          [
            -73.9197517,
            40.8682353
          ],
          [
            -73.9197188,
            40.8682446
          ],
          [
            -73.9191619,
            40.8683891
          ],
          [
            -73.9188404,
            40.8685004
          ],
          [
            -73.9186615,
            40.8685709
          ],
          [
            -73.9184864,
            40.8686398
          ],
          [
            -73.9184808,
            40.8686422
          ],
          [
            -73.917736,
            40.8689638
          ],
          [
            -73.9176193,
            40.8690142
          ],
          [
            -73.9175624,
            40.8690444
          ],
          [
            -73.9174735,
            40.8690918
          ],
          [
            -73.9171987,
            40.869238
          ],
          [
            -73.9167358,
            40.869469
          ],
          [
            -73.9163926,
            40.8696732
          ],
          [
            -73.9163134,
            40.8697203
          ],
          [
            -73.9160287,
            40.8698911
          ],
          [
            -73.9158469,
            40.8700345
          ],
          [
            -73.9154671,
            40.8703269
          ],
          [
            -73.9149634,
            40.870715
          ],
          [
            -73.914348,
            40.8712096
          ],
          [
            -73.9143319,
            40.8712226
          ],
          [
            -73.9142504,
            40.8712707
          ],
          [
            -73.9141813,
            40.8713114
          ],
          [
            -73.9141567,
            40.8713312
          ],
          [
            -73.9139231,
            40.8715189
          ],
          [
            -73.912848,
            40.8723804
          ],
          [
            -73.9119497,
            40.8731241
          ],
          [
            -73.9117384,
            40.8732943
          ],
          [
            -73.9116269,
            40.8733842
          ],
          [
            -73.9108912,
            40.8739769
          ],
          [
            -73.9105511,
            40.8742509
          ],
          [
            -73.9104873,
            40.8742973
          ],
          [
            -73.9104341,
            40.874336
          ],
          [
            -73.9101097,
            40.8744936
          ],
          [
            -73.9099323,
            40.8746351
          ],
          [
            -73.909891,
            40.8746035
          ],
          [
            -73.9097424,
            40.8744789
          ],
          [
            -73.909675,
            40.8744224
          ],
          [
            -73.9096605,
            40.8744103
          ],
          [
            -73.9097958,
            40.8743048
          ],
          [
            -73.9099242,
            40.8742136
          ],
          [
            -73.9099455,
            40.8742036
          ],
          [
            -73.9099814,
            40.8741942
          ],
          [
            -73.9101046,
            40.8741676
          ],
          [
            -73.9101944,
            40.874132
          ],
          [
            -73.9103079,
            40.8740743
          ],
          [
            -73.9103588,
            40.8740433
          ],
          [
            -73.9104298,
            40.8739866
          ],
          [
            -73.9106989,
            40.8737716
          ],
          [
            -73.9109623,
            40.8735697
          ],
          [
            -73.9112512,
            40.8733423
          ],
          [
            -73.9115065,
            40.8731451
          ],
          [
            -73.9115841,
            40.8730869
          ],
          [
            -73.9116571,
            40.8730229
          ],
          [
            -73.9117002,
            40.8729828
          ],
          [
            -73.9117079,
            40.8729607
          ],
          [
            -73.9116972,
            40.8729311
          ],
          [
            -73.9115785,
            40.8728413
          ],
          [
            -73.9113998,
            40.8726668
          ],
          [
            -73.9112568,
            40.872493
          ],
          [
            -73.9110678,
            40.8722067
          ],
          [
            -73.9109752,
            40.8720461
          ],
          [
            -73.9109674,
            40.8719373
          ],
          [
            -73.9109776,
            40.8718896
          ],
          [
            -73.9110842,
            40.871754
          ],
          [
            -73.9111221,
            40.8716881
          ],
          [
            -73.9111676,
            40.8716088
          ],
          [
            -73.9113558,
            40.8713424
          ],
          [
            -73.911549,
            40.871076
          ],
          [
            -73.9117461,
            40.8708041
          ],
          [
            -73.9123733,
            40.8699269
          ],
          [
            -73.9127171,
            40.8694612
          ],
          [
            -73.9127243,
            40.8694515
          ],
          [
            -73.9127577,
            40.8694063
          ],
          [
            -73.9127785,
            40.8693799
          ],
          [
            -73.9131696,
            40.8688334
          ],
          [
            -73.9132031,
            40.8688476
          ],
          [
            -73.9132754,
            40.8688781
          ],
          [
            -73.9133465,
            40.8689081
          ],
          [
            -73.9133756,
            40.8689205
          ],
          [
            -73.9150068,
            40.8696138
          ],
          [
            -73.9150228,
            40.8696206
          ],
          [
            -73.9151092,
            40.8696527
          ],
          [
            -73.9152436,
            40.8697063
          ],
          [
            -73.9152665,
            40.8697162
          ],
          [
            -73.9156371,
            40.8698763
          ],
          [
            -73.9156702,
            40.8698489
          ],
          [
            -73.9157457,
            40.8697959
          ],
          [
            -73.9158219,
            40.8697286
          ],
          [
            -73.9158482,
            40.8697132
          ],
          [
            -73.9165236,
            40.8693178
          ],
          [
            -73.9165413,
            40.8693074
          ],
          [
            -73.916607,
            40.8692659
          ],
          [
            -73.9167458,
            40.8693238
          ],
          [
            -73.9167623,
            40.8693149
          ],
          [
            -73.9168095,
            40.8692894
          ],
          [
            -73.917168,
            40.869096
          ],
          [
            -73.9174031,
            40.8689795
          ],
          [
            -73.9174669,
            40.8689479
          ],
          [
            -73.9175456,
            40.8689088
          ],
          [
            -73.9176382,
            40.8688666
          ],
          [
            -73.9184101,
            40.8685449
          ],
          [
            -73.918505,
            40.8685048
          ],
          [
            -73.9185973,
            40.8684683
          ],
          [
            -73.9190468,
            40.8682982
          ],
          [
            -73.9191084,
            40.8682826
          ],
          [
            -73.919497,
            40.8681842
          ],
          [
            -73.9195155,
            40.8681795
          ],
          [
            -73.9196431,
            40.8681472
          ],
          [
            -73.9197555,
            40.8681187
          ],
          [
            -73.9198676,
            40.868089
          ],
          [
            -73.9205194,
            40.8679153
          ],
          [
            -73.9205443,
            40.86791
          ],
          [
            -73.9205774,
            40.8679012
          ],
          [
            -73.9206966,
            40.8678696
          ],
          [
            -73.9210173,
            40.8677714
          ],
          [
            -73.9211172,
            40.8677392
          ],
          [
            -73.9212171,
            40.867707
          ],
          [
            -73.9213249,
            40.8676676
          ],
          [
            -73.9230078,
            40.8670533
          ],
          [
            -73.92311,
            40.867016
          ],
          [
            -73.9232126,
            40.8669792
          ],
          [
            -73.9249072,
            40.8663711
          ],
          [
            -73.925005,
            40.866336
          ],
          [
            -73.9251166,
            40.8662959
          ],
          [
            -73.9257983,
            40.8660514
          ],
          [
            -73.925872,
            40.866025
          ],
          [
            -73.925967,
            40.8659914
          ],
          [
            -73.9263199,
            40.8658667
          ],
          [
            -73.9265267,
            40.8657937
          ],
          [
            -73.9271619,
            40.8655693
          ],
          [
            -73.9272475,
            40.865539
          ],
          [
            -73.9272714,
            40.8655306
          ],
          [
            -73.927516,
            40.8655045
          ],
          [
            -73.9275315,
            40.8655059
          ],
          [
            -73.9280646,
            40.8655549
          ],
          [
            -73.928253,
            40.8655722
          ],
          [
            -73.9283189,
            40.8655976
          ],
          [
            -73.9283284,
            40.8655583
          ],
          [
            -73.9283347,
            40.8655281
          ],
          [
            -73.9280888,
            40.8655071
          ],
          [
            -73.9280238,
            40.8654429
          ]
        ]
      }
    }
  ]
}
