{
  "type": "FeatureCollection",
  "features": [
    {
      "type": "Feature",
      "properties": {
        "scenario": "Washington Heights - Bennett Park | 2.5mi | out_and_back | moderate | no-amenity",
        "shape": "out_and_back",
        "target_miles": 2.5,
        "distance_m": 4020.909254641898,
        "candidate_index": 0
      },
      "geometry": {
        "type": "LineString",
        "coordinates": [
          [
            -73.9371064,
            40.8513337
          ],
          [
            -73.9370279,
            40.8513053
          ],
          [
            -73.9367652,
            40.8519515
          ],
          [
            -73.937692,
            40.8521675
          ],
          [
            -73.9374686,
            40.8528974
          ],
          [
            -73.9373457,
            40.8532967
          ],
          [
            -73.9373065,
            40.8534236
          ],
          [
            -73.9368105,
            40.855029
          ],
          [
            -73.9367841,
            40.8551134
          ],
          [
            -73.9367707,
            40.8551572
          ],
          [
            -73.9366972,
            40.8553842
          ],
          [
            -73.9365953,
            40.8556153
          ],
          [
            -73.9365006,
            40.8557599
          ],
          [
            -73.9363291,
            40.8559775
          ],
          [
            -73.9361933,
            40.85616
          ],
          [
            -73.9360736,
            40.8563154
          ],
          [
            -73.9355427,
            40.8570294
          ],
          [
            -73.9355311,
            40.857045
          ],
          [
            -73.9355001,
            40.857085
          ],
          [
            -73.9354645,
            40.8571308
          ],
          [
            -73.9354512,
            40.8571484
          ],
          [
            -73.9352429,
            40.8574248
          ],
          [
            -73.9351187,
            40.8575923
          ],
          [
            -73.9348878,
            40.8579039
          ],
          [
            -73.9346947,
            40.8581606
          ],
          [
            -73.9346771,
            40.858184
          ],
          [
            -73.9345621,
            40.8583496
          ],
          [
            -73.9343982,
            40.8585855
          ],
          [
            -73.93433,
            40.8587308
          ],
          [
            -73.9342364,
            40.8589024
          ],
          [
            -73.9340789,
            40.8591567
          ],
          [
            -73.9340757,
            40.85916
          ],
          [
            -73.9340721,
            40.8591628
          ],
          [
            -73.9340666,
            40.8591659
          ],
          [
            -73.9340607,
            40.8591682
          ],
          [
            -73.9340432,
            40.8591658
          ],
          [
            -73.9338859,
            40.8591269
          ],
          [
            -73.9338776,
            40.8591255
          ],
          [
            -73.933871,
            40.859125
          ],
          [
            -73.9338613,
            40.8591255
          ],
          [
            -73.9338502,
            40.8591271
          ],
          [
            -73.9338402,
            40.8591295
          ],
          [
            -73.9338303,
            40.859133
          ],
          [
            -73.9338244,
            40.859136
          ],
          [
            -73.9338196,
            40.8591396
          ],
          [
            -73.9338154,
            40.8591451
          ],
          [
            -73.9337298,
            40.8593309
          ],
          [
            -73.9336561,
            40.8593088
          ],
          [
            -73.9336276,
            40.8593716
          ],
          [
            -73.9335874,
            40.8593918
          ],
          [
            -73.9334594,
            40.859453
          ],
          [
            -73.9333441,
            40.8595138
          ],
          [
            -73.9333104,
            40.859527
          ],
          [
            -73.9332758,
            40.8595364
          ],
          [
            -73.9331805,
            40.8595503
          ],
          [
            -73.9330317,
            40.8595723
          ],
          [
            -73.9329585,
            40.8595941
          ],
          [
            -73.9328878,
            40.8596265
          ],
          [
            -73.932803,
            40.8596676
          ],
          [
            -73.932755,
            40.8596746
          ],
          [
            -73.932653,
            40.8597011
          ],
          [
            -73.9325508,
            40.8597571
          ],
          [
            -73.9324564,
            40.8598401
          ],
          [
            -73.9324475,
            40.8598469
          ],
          [
            -73.9324135,
            40.8598675
          ],
          [
            -73.9323912,
            40.8598859
          ],
          [
            -73.932374,
            40.8599054
          ],
          [
            -73.932371,
            40.8599105
          ],
          [
            -73.9323646,
            40.8599217
          ],
          [
            -73.93235,
            40.8599522
          ],
          [
            -73.9323314,
            40.8599963
          ],
          [
            -73.9323025,
            40.8600268
          ],
          [
            -73.9322572,
            40.8600429
          ],
          [
            -73.9321972,
            40.8600555
          ],
          [
            -73.9321842,
            40.8600624
          ],
          [
            -73.9321411,
            40.8601067
          ],
          [
            -73.9320977,
            40.8601656
          ],
          [
            -73.932022,
            40.8602448
          ],
          [
            -73.9320048,
            40.8602957
          ],
          [
            -73.931975,
            40.8603346
          ],
          [
            -73.931925,
            40.8603737
          ],
          [
            -73.9318477,
            40.8604341
          ],
          [
            -73.9317938,
            40.8604939
          ],
          [
            -73.9316773,
            40.8607201
          ],
          [
            -73.9316336,
            40.8607806
          ],
          [
            -73.9315679,
            40.860842
          ],
          [
            -73.9315158,
            40.860893
          ],
          [
            -73.9314625,
            40.8609567
          ],
          [
            -73.9313879,
            40.8610364
          ],
          [
            -73.9313209,
            40.8610861
          ],
          [
            -73.9312615,
            40.8611268
          ],
          [
            -73.9312277,
            40.8611389
          ],
          [
            -73.9311916,
            40.8611404
          ],
          [
            -73.9311192,
            40.8611113
          ],
          [
            -73.9310669,
            40.8612979
          ],
          [
            -73.931022,
            40.8612941
          ],
          [
            -73.9309757,
            40.8613361
          ],
          [
            -73.930745,
            40.8615546
          ],
          [
            -73.9306807,
            40.861587
          ],
          [
            -73.9306109,
            40.8616296
          ],
          [
            -73.9305479,
            40.861657
          ],
          [
            -73.9304969,
            40.8616702
          ],
          [
            -73.9304272,
            40.8617899
          ],
          [
            -73.9302856,
            40.8617399
          ],
          [
            -73.9301695,
            40.8620422
          ],
          [
            -73.9301141,
            40.8622388
          ],
          [
            -73.9300902,
            40.8625349
          ],
          [
            -73.9301101,
            40.8626789
          ],
          [
            -73.930163,
            40.863064
          ],
          [
            -73.9301892,
            40.8632989
          ],
          [
            -73.930185,
            40.8633245
          ],
          [
            -73.9301802,
            40.8633541
          ],
          [
            -73.9301114,
            40.8635412
          ],
          [
            -73.9299818,
            40.8637992
          ],
          [
            -73.9296576,
            40.8641904
          ],
          [
            -73.9294606,
            40.8643815
          ],
          [
            -73.929233,
            40.864569
          ],
          [
            -73.9291886,
            40.8646031
          ],
          [
            -73.9290352,
            40.8647226
          ],
          [
            -73.9289299,
            40.8647849
          ],
          [
            -73.9287266,
            40.8648997
          ],
          [
            -73.9282884,
            40.8651302
          ],
          [
            -73.9281272,
            40.8652149
          ],
          [
            -73.9279083,
            40.865329
          ],
          [
            -73.9278865,
            40.8653403
          ],
          [
            -73.9278578,
            40.8653587
          ],
          [
            -73.92782,
            40.8653796
          ],
          [
            -73.9278078,
            40.8653879
          ],
          [
            -73.9277915,
            40.865368
          ],
          [
            -73.9277762,
            40.8653645
          ],
          [
            -73.9277609,
            40.8653672
          ],
          [
            -73.9275983,
            40.8654515
          ],
          [
            -73.9275639,
            40.8654692
          ],
          [
            -73.9275597,
            40.8654748
          ],
          [
            -73.9275678,
            40.8654788
          ],
          [
            -73.9275755,
            40.8654801
          ],
          [
            -73.9275671,
            40.8654875
          ],
          [
            -73.9275315,
            40.8655059
          ],
          [
            -73.9275671,
            40.8654875
          ],
          [
            -73.9275755,
            40.8654801
          ],
          [
            -73.9275678,
            40.8654788
          ],
          [
            -73.9275597,
            40.8654748
          ],
          [
            -73.9275639,
            40.8654692
          ],
          [
            -73.9275983,
            40.8654515
          ],
          [
            -73.9277609,
            40.8653672
          ],
          [
            -73.9277762,
            40.8653645
          ],
          [
            -73.9277915,
            40.865368
          ],
          [
            -73.9278078,
            40.8653879
          ],
          [
            -73.92782,
            40.8653796
          ],
          [
            -73.9278578,
            40.8653587
          ],
          [
            -73.9278865,
            40.8653403
          ],
          [
            -73.9279083,
            40.865329
          ],
          [
            -73.9281272,
            40.8652149
          ],
          [
            -73.9282884,
            40.8651302
          ],
          [
            -73.9287266,
            40.8648997
          ],
          [
            -73.9289299,
            40.8647849
          ],
          [
            -73.9290352,
            40.8647226
          ],
          [
            -73.9291886,
            40.8646031
          ],
          [
            -73.929233,
            40.864569
          ],
          [
            -73.9294606,
            40.8643815
          ],
          [
            -73.9296576,
            40.8641904
          ],
          [
            -73.9299818,
            40.8637992
          ],
          [
            -73.9301114,
            40.8635412
          ],
          [
            -73.9301802,
            40.8633541
          ],
          [
            -73.930185,
            40.8633245
          ],
          [
            -73.9301892,
            40.8632989
          ],
          [
            -73.930163,
            40.863064
          ],
          [
            -73.9301101,
            40.8626789
          ],
          [
            -73.9300902,
            40.8625349
          ],
          [
            -73.9301141,
            40.8622388
          ],
          [
            -73.9301695,
            40.8620422
          ],
          [
            -73.9302856,
            40.8617399
          ],
          [
            -73.9304272,
            40.8617899
          ],
          [
            -73.9304969,
            40.8616702
          ],
          [
            -73.9305479,
            40.861657
          ],
          [
            -73.9306109,
            40.8616296
          ],
          [
            -73.9306807,
            40.861587
          ],
          [
            -73.930745,
            40.8615546
          ],
          [
            -73.9309757,
            40.8613361
          ],
          [
            -73.931022,
            40.8612941
          ],
          [
            -73.9310669,
            40.8612979
          ],
          [
            -73.9311192,
            40.8611113
          ],
          [
            -73.9311916,
            40.8611404
          ],
          [
            -73.9312277,
            40.8611389
          ],
          [
            -73.9312615,
            40.8611268
          ],
          [
            -73.9313209,
            40.8610861
          ],
          [
            -73.9313879,
            40.8610364
          ],
          [
            -73.9314625,
            40.8609567
          ],
          [
            -73.9315158,
            40.860893
          ],
          [
            -73.9315679,
            40.860842
          ],
          [
            -73.9316336,
            40.8607806
          ],
          [
            -73.9316773,
            40.8607201
          ],
          [
            -73.9317938,
            40.8604939
          ],
          [
            -73.9318477,
            40.8604341
          ],
          [
            -73.931925,
            40.8603737
          ],
          [
            -73.931975,
            40.8603346
          ],
          [
            -73.9320048,
            40.8602957
          ],
          [
            -73.932022,
            40.8602448
          ],
          [
            -73.9320977,
            40.8601656
          ],
          [
            -73.9321411,
            40.8601067
          ],
          [
            -73.9321842,
            40.8600624
          ],
          [
            -73.9321972,
            40.8600555
          ],
          [
            -73.9322572,
            40.8600429
          ],
          [
            -73.9323025,
            40.8600268
          ],
          [
            -73.9323314,
            40.8599963
          ],
          [
            -73.93235,
            40.8599522
          ],
          [
            -73.9323646,
            40.8599217
          ],
          [
            -73.932371,
            40.8599105
          ],
          [
            -73.932374,
            40.8599054
          ],
          [
            -73.9323912,
            40.8598859
          ],
          [
            -73.9324135,
            40.8598675
          ],
          [
            -73.9324475,
            40.8598469
          ],
          [
            -73.9324564,
            40.8598401
          ],
          [
            -73.9325508,
            40.8597571
          ],
          [
            -73.932653,
            40.8597011
          ],
          [
            -73.932755,
            40.8596746
          ],
          [
            -73.932803,
            40.8596676
          ],
          [
            -73.9328878,
            40.8596265
          ],
          [
            -73.9329585,
            40.8595941
          ],
          [
            -73.9330317,
            40.8595723
          ],
          [
            -73.9331805,
            40.8595503
          ],
          [
            -73.9332758,
            40.8595364
          ],
          [
            -73.9333104,
            40.859527
          ],
          [
            -73.9333441,
            40.8595138
          ],
          [
            -73.9334594,
            40.859453
          ],
          [
            -73.9335874,
            40.8593918
          ],
          [
            -73.9336276,
            40.8593716
          ],
          [
            -73.9336561,
            40.8593088
          ],
          [
            -73.9337298,
            40.8593309
          ],
          [
            -73.9338154,
            40.8591451
          ],
          [
            -73.9338196,
            40.8591396
          ],
          [
            -73.9338244,
            40.859136
          ],
          [
            -73.9338303,
            40.859133
          ],
          [
            -73.9338402,
            40.8591295
          ],
          [
            -73.9338502,
            40.8591271
          ],
          [
            -73.9338613,
            40.8591255
          ],
          [
            -73.933871,
            40.859125
          ],
          [
            -73.9338776,
            40.8591255
          ],
          [
            -73.9338859,
            40.8591269
          ],
          [
            -73.9340432,
            40.8591658
          ],
          [
            -73.9340607,
            40.8591682
          ],
          [
            -73.9340666,
            40.8591659
          ],
          [
            -73.9340721,
            40.8591628
          ],
          [
            -73.9340757,
            40.85916
          ],
          [
            -73.9340789,
            40.8591567
          ],
          [
            -73.9342364,
            40.8589024
          ],
          [
            -73.93433,
            40.8587308
          ],
          [
            -73.9343982,
            40.8585855
          ],
          [
            -73.9345621,
            40.8583496
          ],
          [
            -73.9346771,
            40.858184
          ],
          [
            -73.9346947,
            40.8581606
          ],
          [
            -73.9348878,
            40.8579039
          ],
          [
            -73.9351187,
            40.8575923
          ],
          [
            -73.9352429,
            40.8574248
          ],
          [
            -73.9354512,
            40.8571484
          ],
          [
            -73.9354645,
            40.8571308
          ],
          [
            -73.9355001,
            40.857085
          ],
          [
            -73.9355311,
            40.857045
          ],
          [
            -73.9355427,
            40.8570294
          ],
          [
            -73.9360736,
            40.8563154
          ],
          [
            -73.9361933,
            40.85616
          ],
          [
            -73.9363291,
            40.8559775
          ],
          [
            -73.9365006,
            40.8557599
          ],
          [
            -73.9365953,
            40.8556153
          ],
          [
            -73.9366972,
            40.8553842
          ],
          [
            -73.9367707,
            40.8551572
          ],
          [
            -73.9367841,
            40.8551134
          ],
          [
            -73.9368105,
            40.855029
          ],
          [
            -73.9373065,
            40.8534236
          ],
          [
            -73.9373457,
            40.8532967
          ],
          [
            -73.9374686,
            40.8528974
          ],
          [
            -73.937692,
            40.8521675
          ],
          [
            -73.9367652,
            40.8519515
          ],
          [
            -73.9370279,
            40.8513053
          ],
          [
            -73.9371064,
            40.8513337
          ]
        ]
      }
    },
    {
      "type": "Feature",
      "properties": {
        "scenario": "Washington Heights - Bennett Park | 2.5mi | out_and_back | moderate | no-amenity",
        "shape": "out_and_back",
        "target_miles": 2.5,
        "distance_m": 4024.6752656043077,
        "candidate_index": 1
      },
      "geometry": {
        "type": "LineString",
        "coordinates": [
          [
            -73.9371064,
            40.8513337
          ],
          [
            -73.9370279,
            40.8513053
          ],
          [
            -73.9370504,
            40.85125
          ],
          [
            -73.9372573,
            40.8507152
          ],
          [
            -73.9372807,
            40.8507218
          ],
          [
            -73.9373309,
            40.8507357
          ],
          [
            -73.937383,
            40.8507504
          ],
          [
            -73.9374137,
            40.8507592
          ],
          [
            -73.9381435,
            40.8509613
          ],
          [
            -73.9381523,
            40.8509382
          ],
          [
            -73.9381757,
            40.8508788
          ],
          [
            -73.9381962,
            40.8508267
          ],
          [
            -73.9382058,
            40.8508036
          ],
          [
            -73.9385246,
            40.8500382
          ],
          [
            -73.9385326,
            40.8500189
          ],
          [
            -73.9385527,
            40.8499793
          ],
          [
            -73.9385722,
            40.849941
          ],
          [
            -73.9385805,
            40.8499205
          ],
          [
            -73.9386089,
            40.8499259
          ],
          [
            -73.9386763,
            40.8499391
          ],
          [
            -73.9388049,
            40.8496208
          ],
          [
            -73.9388994,
            40.8493854
          ],
          [
            -73.9389291,
            40.8493131
          ],
          [
            -73.9389575,
            40.8492427
          ],
          [
            -73.9389647,
            40.8492248
          ],
          [
            -73.9390146,
            40.8491014
          ],
          [
            -73.9390645,
            40.8489777
          ],
          [
            -73.9391062,
            40.8488746
          ],
          [
            -73.9391532,
            40.848758
          ],
          [
            -73.9391578,
            40.8487467
          ],
          [
            -73.9391834,
            40.8486832
          ],
          [
            -73.9392228,
            40.8486779
          ],
          [
            -73.9392499,
            40.8486748
          ],
          [
            -73.9392777,
            40.8486739
          ],
          [
            -73.9392998,
            40.8486733
          ],
          [
            -73.939316,
            40.8486231
          ],
          [
            -73.9393314,
            40.8486224
          ],
          [
            -73.9396084,
            40.8479305
          ],
          [
            -73.9396158,
            40.8479122
          ],
          [
            -73.9396343,
            40.8478678
          ],
          [
            -73.9396503,
            40.8478232
          ],
          [
            -73.9396576,
            40.8478057
          ],
          [
            -73.9398699,
            40.8472966
          ],
          [
            -73.9398799,
            40.8472722
          ],
          [
            -73.9398917,
            40.8472341
          ],
          [
            -73.939907,
            40.8471943
          ],
          [
            -73.9399147,
            40.847175
          ],
          [
            -73.9401367,
            40.8466153
          ],
          [
            -73.940185,
            40.8464956
          ],
          [
            -73.9403296,
            40.8461379
          ],
          [
            -73.9403488,
            40.8460905
          ],
          [
            -73.9403789,
            40.846016
          ],
          [
            -73.9405954,
            40.8454781
          ],
          [
            -73.9406026,
            40.8454603
          ],
          [
            -73.9406197,
            40.8454183
          ],
          [
            -73.9406343,
            40.845375
          ],
          [
            -73.9406417,
            40.8453568
          ],
          [
            -73.9408701,
            40.8447988
          ],
          [
            -73.9408787,
            40.8447778
          ],
          [
            -73.9408997,
            40.8447376
          ],
          [
            -73.9409172,
            40.8446975
          ],
          [
            -73.9409278,
            40.8446715
          ],
          [
            -73.9410353,
            40.8444084
          ],
          [
            -73.9411947,
            40.8441566
          ],
          [
            -73.9412098,
            40.8441328
          ],
          [
            -73.9412391,
            40.8440897
          ],
          [
            -73.9412624,
            40.8440553
          ],
          [
            -73.9412764,
            40.8440382
          ],
          [
            -73.9416763,
            40.8435511
          ],
          [
            -73.9416936,
            40.8435289
          ],
          [
            -73.94172,
            40.8434949
          ],
          [
            -73.9417484,
            40.8434583
          ],
          [
            -73.9417622,
            40.8434406
          ],
          [
            -73.9419566,
            40.843195
          ],
          [
            -73.9420934,
            40.8429272
          ],
          [
            -73.9421016,
            40.8429083
          ],
          [
            -73.9421161,
            40.842861
          ],
          [
            -73.9421293,
            40.8428177
          ],
          [
            -73.942135,
            40.8428004
          ],
          [
            -73.9423442,
            40.8422759
          ],
          [
            -73.9423759,
            40.8422003
          ],
          [
            -73.9423968,
            40.8421504
          ],
          [
            -73.9425831,
            40.8416943
          ],
          [
            -73.9428151,
            40.8411259
          ],
          [
            -73.9429599,
            40.8407712
          ],
          [
            -73.9430191,
            40.8406263
          ],
          [
            -73.9431019,
            40.8404054
          ],
          [
            -73.9431301,
            40.8403417
          ],
          [
            -73.9431723,
            40.840362
          ],
          [
            -73.943704,
            40.8406408
          ],
          [
            -73.9438545,
            40.8407197
          ],
          [
            -73.9444531,
            40.8410335
          ],
          [
            -73.9444719,
            40.8410424
          ],
          [
            -73.9444886,
            40.8410508
          ],
          [
            -73.9446359,
            40.8411246
          ],
          [
            -73.944724,
            40.8411687
          ],
          [
            -73.9447555,
            40.8411847
          ],
          [
            -73.9448051,
            40.841139
          ],
          [
            -73.9452691,
            40.8406789
          ],
          [
            -73.945758,
            40.8402076
          ],
          [
            -73.9459149,
            40.8400407
          ],
          [
            -73.9461281,
            40.8397663
          ],
          [
            -73.9462951,
            40.8394868
          ],
          [
            -73.9464299,
            40.8391357
          ],
          [
            -73.9465459,
            40.8389328
          ],
          [
            -73.9466887,
            40.8387375
          ],
          [
            -73.9469283,
            40.8384514
          ],
          [
            -73.9471431,
            40.8382596
          ],
          [
            -73.9473736,
            40.8380945
          ],
          [
            -73.94745,
            40.8380464
          ],
          [
            -73.9473736,
            40.8380945
          ],
          [
            -73.9471431,
            40.8382596
          ],
          [
            -73.9469283,
            40.8384514
          ],
          [
            -73.9466887,
            40.8387375
          ],
          [
            -73.9465459,
            40.8389328
          ],
          [
            -73.9464299,
            40.8391357
          ],
          [
            -73.9462951,
            40.8394868
          ],
          [
            -73.9461281,
            40.8397663
          ],
          [
            -73.9459149,
            40.8400407
          ],
          [
            -73.945758,
            40.8402076
          ],
          [
            -73.9452691,
            40.8406789
          ],
          [
            -73.9448051,
            40.841139
          ],
          [
            -73.9447555,
            40.8411847
          ],
          [
            -73.944724,
            40.8411687
          ],
          [
            -73.9446359,
            40.8411246
          ],
          [
            -73.9444886,
            40.8410508
          ],
          [
            -73.9444719,
            40.8410424
          ],
          [
            -73.9444531,
            40.8410335
          ],
          [
            -73.9438545,
            40.8407197
          ],
          [
            -73.943704,
            40.8406408
          ],
          [
            -73.9431723,
            40.840362
          ],
          [
            -73.9431301,
            40.8403417
          ],
          [
            -73.9431019,
            40.8404054
          ],
          [
            -73.9430191,
            40.8406263
          ],
          [
            -73.9429599,
            40.8407712
          ],
          [
            -73.9428151,
            40.8411259
          ],
          [
            -73.9425831,
            40.8416943
          ],
          [
            -73.9423968,
            40.8421504
          ],
          [
            -73.9423759,
            40.8422003
          ],
          [
            -73.9423442,
            40.8422759
          ],
          [
            -73.942135,
            40.8428004
          ],
          [
            -73.9421293,
            40.8428177
          ],
          [
            -73.9421161,
            40.842861
          ],
          [
            -73.9421016,
            40.8429083
          ],
          [
            -73.9420934,
            40.8429272
          ],
          [
            -73.9419566,
            40.843195
          ],
          [
            -73.9417622,
            40.8434406
          ],
          [
            -73.9417484,
            40.8434583
          ],
          [
            -73.94172,
            40.8434949
          ],
          [
            -73.9416936,
            40.8435289
          ],
          [
            -73.9416763,
            40.8435511
          ],
          [
            -73.9412764,
            40.8440382
          ],
          [
            -73.9412624,
            40.8440553
          ],
          [
            -73.9412391,
            40.8440897
          ],
          [
            -73.9412098,
            40.8441328
          ],
          [
            -73.9411947,
            40.8441566
          ],
          [
            -73.9410353,
            40.8444084
          ],
          [
            -73.9409278,
            40.8446715
          ],
          [
            -73.9409172,
            40.8446975
          ],
          [
            -73.9408997,
            40.8447376
          ],
          [
            -73.9408787,
            40.8447778
          ],
          [
            -73.9408701,
            40.8447988
          ],
          [
            -73.9406417,
            40.8453568
          ],
          [
            -73.9406343,
            40.845375
          ],
          [
            -73.9406197,
            40.8454183
          ],
          [
            -73.9406026,
            40.8454603
          ],
          [
            -73.9405954,
            40.8454781
          ],
          [
            -73.9403789,
            40.846016
          ],
          [
            -73.9403488,
            40.8460905
          ],
          [
            -73.9403296,
            40.8461379
          ],
          [
            -73.940185,
            40.8464956
          ],
          [
            -73.9401367,
            40.8466153
          ],
          [
            -73.9399147,
            40.847175
          ],
          [
            -73.939907,
            40.8471943
          ],
          [
            -73.9398917,
            40.8472341
          ],
          [
            -73.9398799,
            40.8472722
          ],
          [
            -73.9398699,
            40.8472966
          ],
          [
            -73.9396576,
            40.8478057
          ],
          [
            -73.9396503,
            40.8478232
          ],
          [
            -73.9396343,
            40.8478678
          ],
          [
            -73.9396158,
            40.8479122
          ],
          [
            -73.9396084,
            40.8479305
          ],
          [
            -73.9393314,
            40.8486224
          ],
          [
            -73.939316,
            40.8486231
          ],
          [
            -73.9392998,
            40.8486733
          ],
          [
            -73.9392777,
            40.8486739
          ],
          [
            -73.9392499,
            40.8486748
          ],
          [
            -73.9392228,
            40.8486779
          ],
          [
            -73.9391834,
            40.8486832
          ],
          [
            -73.9391578,
            40.8487467
          ],
          [
            -73.9391532,
            40.848758
          ],
          [
            -73.9391062,
            40.8488746
          ],
          [
            -73.9390645,
            40.8489777
          ],
          [
            -73.9390146,
            40.8491014
          ],
          [
            -73.9389647,
            40.8492248
          ],
          [
            -73.9389575,
            40.8492427
          ],
          [
            -73.9389291,
            40.8493131
          ],
          [
            -73.9388994,
            40.8493854
          ],
          [
            -73.9388049,
            40.8496208
          ],
          [
            -73.9386763,
            40.8499391
          ],
          [
            -73.9386089,
            40.8499259
          ],
          [
            -73.9385805,
            40.8499205
          ],
          [
            -73.9385722,
            40.849941
          ],
          [
            -73.9385527,
            40.8499793
          ],
          [
            -73.9385326,
            40.8500189
          ],
          [
            -73.9385246,
            40.8500382
          ],
          [
            -73.9382058,
            40.8508036
          ],
          [
            -73.9381962,
            40.8508267
          ],
          [
            -73.9381757,
            40.8508788
          ],
          [
            -73.9381523,
            40.8509382
          ],
          [
            -73.9381435,
            40.8509613
          ],
          [
            -73.9374137,
            40.8507592
          ],
          [
            -73.937383,
            40.8507504
          ],
          [
            -73.9373309,
            40.8507357
          ],
          [
            -73.9372807,
            40.8507218
          ],
          [
            -73.9372573,
            40.8507152
          ],
          [
            -73.9370504,
            40.85125
          ],
          [
            -73.9370279,
            40.8513053
          ],
          [
            -73.9371064,
            40.8513337
          ]
        ]
      }
    },
    {
      "type": "Feature",
      "properties": {
        "scenario": "Washington Heights - Bennett Park | 2.5mi | out_and_back | moderate | no-amenity",
        "shape": "out_and_back",
        "target_miles": 2.5,
        "distance_m": 3987.6272215518247,
        "candidate_index": 2
      },
      "geometry": {
        "type": "LineString",
        "coordinates": [
          [
            -73.9371064,
            40.8513337
          ],
          [
            -73.9370279,
            40.8513053
          ],
          [
            -73.9370504,
            40.85125
          ],
          [
            -73.9372573,
            40.8507152
          ],
          [
            -73.9367198,
            40.8505615
          ],
          [
            -73.9366836,
            40.8505511
          ],
          [
            -73.9366346,
            40.8505398
          ],
          [
            -73.9365873,
            40.8505288
          ],
          [
            -73.9365569,
            40.85052
          ],
          [
            -73.935832,
            40.850308
          ],
          [
            -73.9358436,
            40.8502852
          ],
          [
            -73.9358662,
            40.8502323
          ],
          [
            -73.93589,
            40.8501768
          ],
          [
            -73.9359036,
            40.8501523
          ],
          [
            -73.9358707,
            40.8501336
          ],
          [
            -73.9357759,
            40.8500878
          ],
          [
            -73.9356877,
            40.8500452
          ],
          [
            -73.9356603,
            40.8500336
          ],
          [
            -73.935932,
            40.8497836
          ],
          [
            -73.9362042,
            40.8495372
          ],
          [
            -73.936229,
            40.8495148
          ],
          [
            -73.9362658,
            40.8494845
          ],
          [
            -73.9363025,
            40.8494542
          ],
          [
            -73.9363235,
            40.8494356
          ],
          [
            -73.9368338,
            40.8489771
          ],
          [
            -73.9368497,
            40.8489627
          ],
          [
            -73.9368957,
            40.8489192
          ],
          [
            -73.9369286,
            40.8488883
          ],
          [
            -73.9369426,
            40.848875
          ],
          [
            -73.9374588,
            40.8484051
          ],
          [
            -73.9374685,
            40.8483903
          ],
          [
            -73.9375238,
            40.8483423
          ],
          [
            -73.9375656,
            40.8482974
          ],
          [
            -73.9375879,
            40.8482767
          ],
          [
            -73.9378246,
            40.8477313
          ],
          [
            -73.937833,
            40.847712
          ],
          [
            -73.9378498,
            40.8476592
          ],
          [
            -73.9378618,
            40.8476274
          ],
          [
            -73.937872,
            40.8475953
          ],
          [
            -73.9380567,
            40.8470188
          ],
          [
            -73.9380655,
            40.8469954
          ],
          [
            -73.9380775,
            40.8469528
          ],
          [
            -73.9380919,
            40.8469016
          ],
          [
            -73.9380976,
            40.8468838
          ],
          [
            -73.9382888,
            40.8462626
          ],
          [
            -73.9383141,
            40.8461804
          ],
          [
            -73.9383295,
            40.8461304
          ],
          [
            -73.9385241,
            40.8454985
          ],
          [
            -73.9385344,
            40.8454642
          ],
          [
            -73.9385504,
            40.8454111
          ],
          [
            -73.9385609,
            40.8453762
          ],
          [
            -73.9385676,
            40.845354
          ],
          [
            -73.9385961,
            40.8452478
          ],
          [
            -73.9386304,
            40.8451197
          ],
          [
            -73.9387326,
            40.8447382
          ],
          [
            -73.9387362,
            40.8447168
          ],
          [
            -73.9387468,
            40.844654
          ],
          [
            -73.9387559,
            40.8445997
          ],
          [
            -73.9387608,
            40.8445708
          ],
          [
            -73.9388761,
            40.8439559
          ],
          [
            -73.9388819,
            40.8439336
          ],
          [
            -73.9388941,
            40.8438867
          ],
          [
            -73.9389049,
            40.8438455
          ],
          [
            -73.938911,
            40.843822
          ],
          [
            -73.9389715,
            40.8435584
          ],
          [
            -73.9390424,
            40.8432498
          ],
          [
            -73.9390441,
            40.8432249
          ],
          [
            -73.9390481,
            40.8431682
          ],
          [
            -73.9390518,
            40.8431159
          ],
          [
            -73.9390531,
            40.8430966
          ],
          [
            -73.9391131,
            40.8424609
          ],
          [
            -73.939115,
            40.8424374
          ],
          [
            -73.9391162,
            40.8424119
          ],
          [
            -73.9391174,
            40.8423864
          ],
          [
            -73.9391196,
            40.8423586
          ],
          [
            -73.9391218,
            40.8423308
          ],
          [
            -73.9391227,
            40.8423197
          ],
          [
            -73.9391257,
            40.8422791
          ],
          [
            -73.9391196,
            40.8419836
          ],
          [
            -73.9391578,
            40.8419095
          ],
          [
            -73.9391604,
            40.8418721
          ],
          [
            -73.9391645,
            40.8418125
          ],
          [
            -73.9392178,
            40.8417128
          ],
          [
            -73.9391901,
            40.8417007
          ],
          [
            -73.9391735,
            40.8416934
          ],
          [
            -73.93916,
            40.8416878
          ],
          [
            -73.9391667,
            40.8416653
          ],
          [
            -73.9391772,
            40.8416189
          ],
          [
            -73.9391874,
            40.8415731
          ],
          [
            -73.9391933,
            40.8415518
          ],
          [
            -73.9393496,
            40.8409947
          ],
          [
            -73.939355,
            40.8409758
          ],
          [
            -73.9393717,
            40.840913
          ],
          [
            -73.9393906,
            40.8408561
          ],
          [
            -73.9393982,
            40.840827
          ],
          [
            -73.9395406,
            40.8402914
          ],
          [
            -73.9395477,
            40.8402651
          ],
          [
            -73.9395623,
            40.8402109
          ],
          [
            -73.9395718,
            40.8401774
          ],
          [
            -73.9395756,
            40.8401629
          ],
          [
            -73.9397266,
            40.839601
          ],
          [
            -73.9397323,
            40.8395757
          ],
          [
            -73.9397466,
            40.8395113
          ],
          [
            -73.9397587,
            40.8394571
          ],
          [
            -73.9397645,
            40.839437
          ],
          [
            -73.9397073,
            40.8388155
          ],
          [
            -73.9397076,
            40.8387544
          ],
          [
            -73.9397005,
            40.8387098
          ],
          [
            -73.9396952,
            40.8386655
          ],
          [
            -73.9396911,
            40.8384895
          ],
          [
            -73.9397025,
            40.8384474
          ],
          [
            -73.9397161,
            40.8383975
          ],
          [
            -73.9397208,
            40.8383747
          ],
          [
            -73.9398501,
            40.8377389
          ],
          [
            -73.9389381,
            40.8373493
          ],
          [
            -73.9389104,
            40.8373383
          ],
          [
            -73.9388104,
            40.8372984
          ],
          [
            -73.9387043,
            40.8372561
          ],
          [
            -73.9386775,
            40.8372455
          ],
          [
            -73.9371058,
            40.8365753
          ],
          [
            -73.9370804,
            40.8365656
          ],
          [
            -73.9369925,
            40.836533
          ],
          [
            -73.9369342,
            40.8365114
          ],
          [
            -73.9369025,
            40.8364944
          ],
          [
            -73.9369484,
            40.8363871
          ],
          [
            -73.9369025,
            40.8364944
          ],
          [
            -73.9369342,
            40.8365114
          ],
          [
            -73.9369925,
            40.836533
          ],
          [
            -73.9370804,
            40.8365656
          ],
          [
            -73.9371058,
            40.8365753
          ],
          [
            -73.9386775,
            40.8372455
          ],
          [
            -73.9387043,
            40.8372561
          ],
          [
            -73.9388104,
            40.8372984
          ],
          [
            -73.9389104,
            40.8373383
          ],
          [
            -73.9389381,
            40.8373493
          ],
          [
            -73.9398501,
            40.8377389
          ],
          [
            -73.9397208,
            40.8383747
          ],
          [
            -73.9397161,
            40.8383975
          ],
          [
            -73.9397025,
            40.8384474
          ],
          [
            -73.9396911,
            40.8384895
          ],
          [
            -73.9396952,
            40.8386655
          ],
          [
            -73.9397005,
            40.8387098
          ],
          [
            -73.9397076,
            40.8387544
          ],
          [
            -73.9397073,
            40.8388155
          ],
          [
            -73.9397645,
            40.839437
          ],
          [
            -73.9397587,
            40.8394571
          ],
          [
            -73.9397466,
            40.8395113
          ],
          [
            -73.9397323,
            40.8395757
          ],
          [
            -73.9397266,
            40.839601
          ],
          [
            -73.9395756,
            40.8401629
          ],
          [
            -73.9395718,
            40.8401774
          ],
          [
            -73.9395623,
            40.8402109
          ],
          [
            -73.9395477,
            40.8402651
          ],
          [
            -73.9395406,
            40.8402914
          ],
          [
            -73.9393982,
            40.840827
          ],
          [
            -73.9393906,
            40.8408561
          ],
          [
            -73.9393717,
            40.840913
          ],
          [
            -73.939355,
            40.8409758
          ],
          [
            -73.9393496,
            40.8409947
          ],
          [
            -73.9391933,
            40.8415518
          ],
          [
            -73.9391874,
            40.8415731
          ],
          [
            -73.9391772,
            40.8416189
          ],
          [
            -73.9391667,
            40.8416653
          ],
          [
            -73.93916,
            40.8416878
          ],
          [
            -73.9391735,
            40.8416934
          ],
          [
            -73.9391901,
            40.8417007
          ],
          [
            -73.9392178,
            40.8417128
          ],
          [
            -73.9391645,
            40.8418125
          ],
          [
            -73.9391604,
            40.8418721
          ],
          [
            -73.9391578,
            40.8419095
          ],
          [
            -73.9391196,
            40.8419836
          ],
          [
            -73.9391257,
            40.8422791
          ],
          [
            -73.9391227,
            40.8423197
          ],
          [
            -73.9391218,
            40.8423308
          ],
          [
            -73.9391196,
            40.8423586
          ],
          [
            -73.9391174,
            40.8423864
          ],
          [
            -73.9391162,
            40.8424119
          ],
          [
            -73.939115,
            40.8424374
          ],
          [
            -73.9391131,
            40.8424609
          ],
          [
            -73.9390531,
            40.8430966
          ],
          [
            -73.9390518,
            40.8431159
          ],
          [
            -73.9390481,
            40.8431682
          ],
          [
            -73.9390441,
            40.8432249
          ],
          [
            -73.9390424,
            40.8432498
          ],
          [
            -73.9389715,
            40.8435584
          ],
          [
            -73.938911,
            40.843822
          ],
          [
            -73.9389049,
            40.8438455
          ],
          [
            -73.9388941,
            40.8438867
          ],
          [
            -73.9388819,
            40.8439336
          ],
          [
            -73.9388761,
            40.8439559
          ],
          [
            -73.9387608,
            40.8445708
          ],
          [
            -73.9387559,
            40.8445997
          ],
          [
            -73.9387468,
            40.844654
          ],
          [
            -73.9387362,
            40.8447168
          ],
          [
            -73.9387326,
            40.8447382
          ],
          [
            -73.9386304,
            40.8451197
          ],
          [
            -73.9385961,
            40.8452478
          ],
          [
            -73.9385676,
            40.845354
          ],
          [
            -73.9385609,
            40.8453762
          ],
          [
            -73.9385504,
            40.8454111
          ],
          [
            -73.9385344,
            40.8454642
          ],
          [
            -73.9385241,
            40.8454985
          ],
          [
            -73.9383295,
            40.8461304
          ],
          [
            -73.9383141,
            40.8461804
          ],
          [
            -73.9382888,
            40.8462626
          ],
          [
            -73.9380976,
            40.8468838
          ],
          [
            -73.9380919,
            40.8469016
          ],
          [
            -73.9380775,
            40.8469528
          ],
          [
            -73.9380655,
            40.8469954
          ],
          [
            -73.9380567,
            40.8470188
          ],
          [
            -73.937872,
            40.8475953
          ],
          [
            -73.9378618,
            40.8476274
          ],
          [
            -73.9378498,
            40.8476592
          ],
          [
            -73.937833,
            40.847712
          ],
          [
            -73.9378246,
            40.8477313
          ],
          [
            -73.9375879,
            40.8482767
          ],
          [
            -73.9375656,
            40.8482974
          ],
          [
            -73.9375238,
            40.8483423
          ],
          [
            -73.9374685,
            40.8483903
          ],
          [
            -73.9374588,
            40.8484051
          ],
          [
            -73.9369426,
            40.848875
          ],
          [
            -73.9369286,
            40.8488883
          ],
          [
            -73.9368957,
            40.8489192
          ],
          [
            -73.9368497,
            40.8489627
          ],
          [
            -73.9368338,
            40.8489771
          ],
          [
            -73.9363235,
            40.8494356
          ],
          [
            -73.9363025,
            40.8494542
          ],
          [
            -73.9362658,
            40.8494845
          ],
          [
            -73.936229,
            40.8495148
          ],
          [
            -73.9362042,
            40.8495372
          ],
          [
            -73.935932,
            40.8497836
          ],
          [
            -73.9356603,
            40.8500336
          ],
          [
            -73.9356877,
            40.8500452
          ],
          [
            -73.9357759,
            40.8500878
          ],
          [
            -73.9358707,
            40.8501336
          ],
          [
            -73.9359036,
            40.8501523
          ],
          [
            -73.93589,
            40.8501768
          ],
          [
            -73.9358662,
            40.8502323
          ],
          [
            -73.9358436,
            40.8502852
          ],
          [
            -73.935832,
            40.850308
          ],
          [
            -73.9365569,
            40.85052
          ],
          [
            -73.9365873,
            40.8505288
          ],
          [
            -73.9366346,
            40.8505398
          ],
          [
            -73.9366836,
            40.8505511
          ],
          [
            -73.9367198,
            40.8505615
          ],
          [
            -73.9372573,
            40.8507152
          ],
          [
            -73.9370504,
            40.85125
          ],
          [
            -73.9370279,
            40.8513053
          ],
          [
            -73.9371064,
            40.8513337
          ]
        ]
      }
    },
    {
      "type": "Feature",
      "properties": {
        "scenario": "Washington Heights - Bennett Park | 2.5mi | out_and_back | moderate | no-amenity",
        "shape": "out_and_back",
        "target_miles": 2.5,
        "distance_m": 4072.4790094932264,
        "candidate_index": 3
      },
      "geometry": {
        "type": "LineString",
        "coordinates": [
          [
            -73.9371064,
            40.8513337
          ],
          [
            -73.9370279,
            40.8513053
          ],
          [
            -73.9370504,
            40.85125
          ],
          [
            -73.9372573,
            40.8507152
          ],
          [
            -73.9367198,
            40.8505615
          ],
          [
            -73.9366836,
            40.8505511
          ],
          [
            -73.9366346,
            40.8505398
          ],
          [
            -73.9365873,
            40.8505288
          ],
          [
            -73.9365569,
            40.85052
          ],
          [
            -73.935832,
            40.850308
          ],
          [
            -73.9357985,
            40.8502983
          ],
          [
            -73.9356855,
            40.8502519
          ],
          [
            -73.9356042,
            40.8502186
          ],
          [
            -73.9355721,
            40.8502051
          ],
          [
            -73.9350022,
            40.8499658
          ],
          [
            -73.9346758,
            40.8504079
          ],
          [
            -73.9346601,
            40.8504289
          ],
          [
            -73.9346382,
            40.8504551
          ],
          [
            -73.9346045,
            40.850488
          ],
          [
            -73.9345896,
            40.8505091
          ],
          [
            -73.9345533,
            40.8504939
          ],
          [
            -73.9345019,
            40.8504738
          ],
          [
            -73.9341441,
            40.8509586
          ],
          [
            -73.934098,
            40.851021
          ],
          [
            -73.9340582,
            40.8510044
          ],
          [
            -73.9340121,
            40.8509852
          ],
          [
            -73.9335636,
            40.8507985
          ],
          [
            -73.9329929,
            40.850561
          ],
          [
            -73.9329351,
            40.8506448
          ],
          [
            -73.9326022,
            40.8510917
          ],
          [
            -73.9325717,
            40.8510785
          ],
          [
            -73.932471,
            40.8510426
          ],
          [
            -73.932433,
            40.851095
          ],
          [
            -73.9323867,
            40.8510755
          ],
          [
            -73.9323222,
            40.8510483
          ],
          [
            -73.9322894,
            40.8510846
          ],
          [
            -73.9322711,
            40.8511039
          ],
          [
            -73.931922,
            40.8515796
          ],
          [
            -73.9307553,
            40.8510828
          ],
          [
            -73.9307225,
            40.8510689
          ],
          [
            -73.9306496,
            40.8510446
          ],
          [
            -73.9305847,
            40.8510261
          ],
          [
            -73.9305574,
            40.8510168
          ],
          [
            -73.9305166,
            40.8510727
          ],
          [
            -73.9304761,
            40.8510559
          ],
          [
            -73.9303277,
            40.8509942
          ],
          [
            -73.930019,
            40.850865
          ],
          [
            -73.9293169,
            40.8505748
          ],
          [
            -73.9292849,
            40.8505616
          ],
          [
            -73.9291984,
            40.8505259
          ],
          [
            -73.9291633,
            40.850573
          ],
          [
            -73.9288956,
            40.850932
          ],
          [
            -73.9287103,
            40.8511319
          ],
          [
            -73.9286543,
            40.851193
          ],
          [
            -73.9286168,
            40.8512435
          ],
          [
            -73.9284108,
            40.851522
          ],
          [
            -73.9282498,
            40.8517397
          ],
          [
            -73.9282064,
            40.8518003
          ],
          [
            -73.9281588,
            40.8518669
          ],
          [
            -73.9281107,
            40.8519323
          ],
          [
            -73.9277444,
            40.8524313
          ],
          [
            -73.9276972,
            40.8524955
          ],
          [
            -73.9276565,
            40.8525508
          ],
          [
            -73.9274888,
            40.852779
          ],
          [
            -73.927385,
            40.8529202
          ],
          [
            -73.9272832,
            40.8530587
          ],
          [
            -73.927239,
            40.8531188
          ],
          [
            -73.9271993,
            40.8531735
          ],
          [
            -73.9268618,
            40.8536409
          ],
          [
            -73.9268061,
            40.8537179
          ],
          [
            -73.9267478,
            40.8537969
          ],
          [
            -73.9266525,
            40.8537557
          ],
          [
            -73.9266287,
            40.8537465
          ],
          [
            -73.9266017,
            40.8537341
          ],
          [
            -73.9265442,
            40.8537106
          ],
          [
            -73.9263944,
            40.853566
          ],
          [
            -73.9262924,
            40.8533913
          ],
          [
            -73.9262211,
            40.853423
          ],
          [
            -73.9261045,
            40.853492
          ],
          [
            -73.9259833,
            40.8535729
          ],
          [
            -73.9259626,
            40.8536924
          ],
          [
            -73.9259476,
            40.8537714
          ],
          [
            -73.9258625,
            40.8538634
          ],
          [
            -73.9257705,
            40.8539275
          ],
          [
            -73.9257209,
            40.8540596
          ],
          [
            -73.925644,
            40.8542411
          ],
          [
            -73.9255855,
            40.8544086
          ],
          [
            -73.9255271,
            40.854483
          ],
          [
            -73.9254163,
            40.8545808
          ],
          [
            -73.9252933,
            40.8546692
          ],
          [
            -73.9251518,
            40.8547809
          ],
          [
            -73.9250441,
            40.8548739
          ],
          [
            -73.9249857,
            40.85496
          ],
          [
            -73.9249611,
            40.8550601
          ],
          [
            -73.9249518,
            40.8551415
          ],
          [
            -73.9248995,
            40.8552183
          ],
          [
            -73.9248288,
            40.8553067
          ],
          [
            -73.9247734,
            40.8553998
          ],
          [
            -73.9247211,
            40.8554905
          ],
          [
            -73.9246934,
            40.8556348
          ],
          [
            -73.9246534,
            40.8557255
          ],
          [
            -73.9246104,
            40.8558023
          ],
          [
            -73.9245642,
            40.8558535
          ],
          [
            -73.9242997,
            40.8561094
          ],
          [
            -73.9242566,
            40.8561652
          ],
          [
            -73.9242566,
            40.8562164
          ],
          [
            -73.9242689,
            40.8562467
          ],
          [
            -73.9243151,
            40.8562606
          ],
          [
            -73.9243581,
            40.856256
          ],
          [
            -73.924395,
            40.8562583
          ],
          [
            -73.9244289,
            40.8562816
          ],
          [
            -73.924432,
            40.8563304
          ],
          [
            -73.9243981,
            40.8563863
          ],
          [
            -73.9242689,
            40.8564677
          ],
          [
            -73.9241951,
            40.8565515
          ],
          [
            -73.9241336,
            40.8566724
          ],
          [
            -73.9240997,
            40.8567655
          ],
          [
            -73.9240905,
            40.8568842
          ],
          [
            -73.9240567,
            40.8569516
          ],
          [
            -73.9240198,
            40.8570214
          ],
          [
            -73.9239428,
            40.8571192
          ],
          [
            -73.9239305,
            40.8571773
          ],
          [
            -73.9239398,
            40.8572332
          ],
          [
            -73.9239613,
            40.857389
          ],
          [
            -73.9239459,
            40.8577311
          ],
          [
            -73.9239428,
            40.8577799
          ],
          [
            -73.9239859,
            40.8578148
          ],
          [
            -73.9240351,
            40.8578288
          ],
          [
            -73.9240997,
            40.8578427
          ],
          [
            -73.9241366,
            40.8578567
          ],
          [
            -73.9241395,
            40.857894
          ],
          [
            -73.9241366,
            40.8578567
          ],
          [
            -73.9240997,
            40.8578427
          ],
          [
            -73.9240351,
            40.8578288
          ],
          [
            -73.9239859,
            40.8578148
          ],
          [
            -73.9239428,
            40.8577799
          ],
          [
            -73.9239459,
            40.8577311
          ],
          [
            -73.9239613,
            40.857389
          ],
          [
            -73.9239398,
            40.8572332
          ],
          [
            -73.9239305,
            40.8571773
          ],
          [
            -73.9239428,
            40.8571192
          ],
          [
            -73.9240198,
            40.8570214
          ],
          [
            -73.9240567,
            40.8569516
          ],
          [
            -73.9240905,
            40.8568842
          ],
          [
            -73.9240997,
            40.8567655
          ],
          [
            -73.9241336,
            40.8566724
          ],
          [
            -73.9241951,
            40.8565515
          ],
          [
            -73.9242689,
            40.8564677
          ],
          [
            -73.9243981,
            40.8563863
          ],
          [
            -73.924432,
            40.8563304
          ],
          [
            -73.9244289,
            40.8562816
          ],
          [
            -73.924395,
            40.8562583
          ],
          [
            -73.9243581,
            40.856256
          ],
          [
            -73.9243151,
            40.8562606
          ],
          [
            -73.9242689,
            40.8562467
          ],
          [
            -73.9242566,
            40.8562164
          ],
          [
            -73.9242566,
            40.8561652
          ],
          [
            -73.9242997,
            40.8561094
          ],
          [
            -73.9245642,
            40.8558535
          ],
          [
            -73.9246104,
            40.8558023
          ],
          [
            -73.9246534,
            40.8557255
          ],
          [
            -73.9246934,
            40.8556348
          ],
          [
            -73.9247211,
            40.8554905
          ],
          [
            -73.9247734,
            40.8553998
          ],
          [
            -73.9248288,
            40.8553067
          ],
          [
            -73.9248995,
            40.8552183
          ],
          [
            -73.9249518,
            40.8551415
          ],
          [
            -73.9249611,
            40.8550601
          ],
          [
            -73.9249857,
            40.85496
          ],
          [
            -73.9250441,
            40.8548739
          ],
          [
            -73.9251518,
            40.8547809
          ],
          [
            -73.9252933,
            40.8546692
          ],
          [
            -73.9254163,
            40.8545808
          ],
          [
            -73.9255271,
            40.854483
          ],
          [
            -73.9255855,
            40.8544086
          ],
          [
            -73.925644,
            40.8542411
          ],
          [
            -73.9257209,
            40.8540596
          ],
          [
            -73.9257705,
            40.8539275
          ],
          [
            -73.9258625,
            40.8538634
          ],
          [
            -73.9259476,
            40.8537714
          ],
          [
            -73.9259626,
            40.8536924
          ],
          [
            -73.9259833,
            40.8535729
          ],
          [
            -73.9261045,
            40.853492
          ],
          [
            -73.9262211,
            40.853423
          ],
          [
            -73.9262924,
            40.8533913
          ],
          [
            -73.9263944,
            40.853566
          ],
          [
            -73.9265442,
            40.8537106
          ],
          [
            -73.9266017,
            40.8537341
          ],
          [
            -73.9266287,
            40.8537465
          ],
          [
            -73.9266525,
            40.8537557
          ],
          [
            -73.9267478,
            40.8537969
          ],
          [
            -73.9268061,
            40.8537179
          ],
          [
            -73.9268618,
            40.8536409
          ],
          [
            -73.9271993,
            40.8531735
          ],
          [
            -73.927239,
            40.8531188
          ],
          [
            -73.9272832,
            40.8530587
          ],
          [
            -73.927385,
            40.8529202
          ],
          [
            -73.9274888,
            40.852779
          ],
          [
            -73.9276565,
            40.8525508
          ],
          [
            -73.9276972,
            40.8524955
          ],
          [
            -73.9277444,
            40.8524313
          ],
          [
            -73.9281107,
            40.8519323
          ],
          [
            -73.9281588,
            40.8518669
          ],
          [
            -73.9282064,
            40.8518003
          ],
          [
            -73.9282498,
            40.8517397
          ],
          [
            -73.9284108,
            40.851522
          ],
          [
            -73.9286168,
            40.8512435
          ],
          [
            -73.9286543,
            40.851193
          ],
          [
            -73.9287103,
            40.8511319
          ],
          [
            -73.9288956,
            40.850932
          ],
          [
            -73.9291633,
            40.850573
          ],
          [
            -73.9291984,
            40.8505259
          ],
          [
            -73.9292849,
            40.8505616
          ],
          [
            -73.9293169,
            40.8505748
          ],
          [
            -73.930019,
            40.850865
          ],
          [
            -73.9303277,
            40.8509942
          ],
          [
            -73.9304761,
            40.8510559
          ],
          [
            -73.9305166,
            40.8510727
          ],
          [
            -73.9305574,
            40.8510168
          ],
          [
            -73.9305847,
            40.8510261
          ],
          [
            -73.9306496,
            40.8510446
          ],
          [
            -73.9307225,
            40.8510689
          ],
          [
            -73.9307553,
            40.8510828
          ],
          [
            -73.931922,
            40.8515796
          ],
          [
            -73.9322711,
            40.8511039
          ],
          [
            -73.9322894,
            40.8510846
          ],
          [
            -73.9323222,
            40.8510483
          ],
          [
            -73.9323867,
            40.8510755
          ],
          [
            -73.932433,
            40.851095
          ],
          [
            -73.932471,
            40.8510426
          ],
          [
            -73.9325717,
            40.8510785
          ],
          [
            -73.9326022,
            40.8510917
          ],
          [
            -73.9329351,
            40.8506448
          ],
          [
            -73.9329929,
            40.850561
          ],
          [
            -73.9335636,
            40.8507985
          ],
          [
            -73.9340121,
            40.8509852
          ],
          [
            -73.9340582,
            40.8510044
          ],
          [
            -73.934098,
            40.851021
          ],
          [
            -73.9341441,
            40.8509586
          ],
          [
            -73.9345019,
            40.8504738
          ],
          [
            -73.9345533,
            40.8504939
          ],
          [
            -73.9345896,
            40.8505091
          ],
          [
            -73.9346045,
            40.850488
          ],
          [
            -73.9346382,
            40.8504551
          ],
          [
            -73.9346601,
            40.8504289
          ],
          [
            -73.9346758,
            40.8504079
          ],
          [
            -73.9350022,
            40.8499658
          ],
          [
            -73.9355721,
            40.8502051
          ],
          [
            -73.9356042,
            40.8502186
          ],
          [
            -73.9356855,
            40.8502519
          ],
          [
            -73.9357985,
            40.8502983
          ],
          [
            -73.935832,
            40.850308
          ],
          [
            -73.9365569,
            40.85052
          ],
          [
            -73.9365873,
            40.8505288
          ],
          [
            -73.9366346,
            40.8505398
          ],
          [
            -73.9366836,
            40.8505511
          ],
          [
            -73.9367198,
            40.8505615
          ],
          [
            -73.9372573,
            40.8507152
          ],
          [
            -73.9370504,
            40.85125
          ],
          [
            -73.9370279,
            40.8513053
          ],
          [
            -73.9371064,
            40.8513337
          ]
        ]
      }
    },
    {
      "type": "Feature",
      "properties": {
        "scenario": "Washington Heights - Bennett Park | 2.5mi | out_and_back | moderate | no-amenity",
        "shape": "out_and_back",
        "target_miles": 2.5,
        "distance_m": 4018.2608527253265,
        "candidate_index": 4
      },
      "geometry": {
        "type": "LineString",
        "coordinates": [
          [
            -73.9371064,
            40.8513337
          ],
          [
            -73.9370279,
            40.8513053
          ],
          [
            -73.9370504,
            40.85125
          ],
          [
            -73.9372573,
            40.8507152
          ],
          [
            -73.9367198,
            40.8505615
          ],
          [
            -73.9363699,
            40.8512481
          ],
          [
            -73.9358246,
            40.8523078
          ],
          [
            -73.9357988,
            40.8523005
          ],
          [
            -73.9357423,
            40.8522867
          ],
          [
            -73.9356962,
            40.8522754
          ],
          [
            -73.9356727,
            40.8522683
          ],
          [
            -73.9356642,
            40.8522845
          ],
          [
            -73.9356464,
            40.8523182
          ],
          [
            -73.9356242,
            40.8523604
          ],
          [
            -73.9356147,
            40.8523787
          ],
          [
            -73.9350925,
            40.8533979
          ],
          [
            -73.9350818,
            40.8534186
          ],
          [
            -73.9350616,
            40.8534578
          ],
          [
            -73.9350369,
            40.8535059
          ],
          [
            -73.9350261,
            40.8535269
          ],
          [
            -73.9345725,
            40.854408
          ],
          [
            -73.9345611,
            40.85443
          ],
          [
            -73.9345477,
            40.8544814
          ],
          [
            -73.9345377,
            40.8545196
          ],
          [
            -73.9345301,
            40.8545406
          ],
          [
            -73.9342062,
            40.855515
          ],
          [
            -73.9341999,
            40.8555337
          ],
          [
            -73.934189,
            40.8555734
          ],
          [
            -73.9341745,
            40.8556262
          ],
          [
            -73.9341672,
            40.8556483
          ],
          [
            -73.9340931,
            40.8558746
          ],
          [
            -73.9339966,
            40.8560529
          ],
          [
            -73.9338796,
            40.8562275
          ],
          [
            -73.9337416,
            40.8565127
          ],
          [
            -73.9336444,
            40.8567018
          ],
          [
            -73.9336333,
            40.8567233
          ],
          [
            -73.9336129,
            40.8567634
          ],
          [
            -73.9335917,
            40.8568049
          ],
          [
            -73.9335798,
            40.8568279
          ],
          [
            -73.9332856,
            40.8573964
          ],
          [
            -73.9329393,
            40.8580384
          ],
          [
            -73.9329266,
            40.8580619
          ],
          [
            -73.932909,
            40.8580956
          ],
          [
            -73.9328817,
            40.858148
          ],
          [
            -73.932874,
            40.8581635
          ],
          [
            -73.9325801,
            40.8587223
          ],
          [
            -73.9325106,
            40.8588487
          ],
          [
            -73.9322268,
            40.859407
          ],
          [
            -73.9321876,
            40.8594556
          ],
          [
            -73.9321289,
            40.8594778
          ],
          [
            -73.9320734,
            40.859486
          ],
          [
            -73.9320179,
            40.8594762
          ],
          [
            -73.9314804,
            40.8593207
          ],
          [
            -73.9314339,
            40.8593095
          ],
          [
            -73.9313459,
            40.8592811
          ],
          [
            -73.9312367,
            40.8592459
          ],
          [
            -73.9312161,
            40.8592396
          ],
          [
            -73.9308315,
            40.8592416
          ],
          [
            -73.9284403,
            40.8601205
          ],
          [
            -73.9284207,
            40.8601277
          ],
          [
            -73.9283612,
            40.8601495
          ],
          [
            -73.9283042,
            40.8601704
          ],
          [
            -73.9282831,
            40.8601783
          ],
          [
            -73.9272808,
            40.8605519
          ],
          [
            -73.9272551,
            40.8605615
          ],
          [
            -73.9272114,
            40.8605771
          ],
          [
            -73.9271393,
            40.8606009
          ],
          [
            -73.9271204,
            40.8606081
          ],
          [
            -73.925947,
            40.8610519
          ],
          [
            -73.9256805,
            40.8611432
          ],
          [
            -73.9255193,
            40.8611959
          ],
          [
            -73.9252987,
            40.861274
          ],
          [
            -73.9252789,
            40.8612811
          ],
          [
            -73.9252318,
            40.8612938
          ],
          [
            -73.9251869,
            40.8613059
          ],
          [
            -73.9251564,
            40.8613158
          ],
          [
            -73.9250737,
            40.8613428
          ],
          [
            -73.9250531,
            40.8613495
          ],
          [
            -73.9250158,
            40.8613637
          ],
          [
            -73.9249785,
            40.8613779
          ],
          [
            -73.924938,
            40.8614092
          ],
          [
            -73.9249005,
            40.8613945
          ],
          [
            -73.924876,
            40.8613886
          ],
          [
            -73.924819,
            40.8613748
          ],
          [
            -73.9247987,
            40.8613719
          ],
          [
            -73.924761,
            40.861382
          ],
          [
            -73.9247435,
            40.8613881
          ],
          [
            -73.9246067,
            40.8614012
          ],
          [
            -73.9245083,
            40.8614121
          ],
          [
            -73.9244863,
            40.8614163
          ],
          [
            -73.9241536,
            40.8615919
          ],
          [
            -73.9238131,
            40.8610594
          ],
          [
            -73.9241536,
            40.8615919
          ],
          [
            -73.9244863,
            40.8614163
          ],
          [
            -73.9245083,
            40.8614121
          ],
          [
            -73.9246067,
            40.8614012
          ],
          [
            -73.9247435,
            40.8613881
          ],
          [
            -73.924761,
            40.861382
          ],
          [
            -73.9247987,
            40.8613719
          ],
          [
            -73.924819,
            40.8613748
          ],
          [
            -73.924876,
            40.8613886
          ],
          [
            -73.9249005,
            40.8613945
          ],
          [
            -73.924938,
            40.8614092
          ],
          [
            -73.9249785,
            40.8613779
          ],
          [
            -73.9250158,
            40.8613637
          ],
          [
            -73.9250531,
            40.8613495
          ],
          [
            -73.9250737,
            40.8613428
          ],
          [
            -73.9251564,
            40.8613158
          ],
          [
            -73.9251869,
            40.8613059
          ],
          [
            -73.9252318,
            40.8612938
          ],
          [
            -73.9252789,
            40.8612811
          ],
          [
            -73.9252987,
            40.861274
          ],
          [
            -73.9255193,
            40.8611959
          ],
          [
            -73.9256805,
            40.8611432
          ],
          [
            -73.925947,
            40.8610519
          ],
          [
            -73.9271204,
            40.8606081
          ],
          [
            -73.9271393,
            40.8606009
          ],
          [
            -73.9272114,
            40.8605771
          ],
          [
            -73.9272551,
            40.8605615
          ],
          [
            -73.9272808,
            40.8605519
          ],
          [
            -73.9282831,
            40.8601783
          ],
          [
            -73.9283042,
            40.8601704
          ],
          [
            -73.9283612,
            40.8601495
          ],
          [
            -73.9284207,
            40.8601277
          ],
          [
            -73.9284403,
            40.8601205
          ],
          [
            -73.9308315,
            40.8592416
          ],
          [
            -73.9312161,
            40.8592396
          ],
          [
            -73.9312367,
            40.8592459
          ],
          [
            -73.9313459,
            40.8592811
          ],
          [
            -73.9314339,
            40.8593095
          ],
          [
            -73.9314804,
            40.8593207
          ],
          [
            -73.9320179,
            40.8594762
          ],
          [
            -73.9320734,
            40.859486
          ],
          [
            -73.9321289,
            40.8594778
          ],
          [
            -73.9321876,
            40.8594556
          ],
          [
            -73.9322268,
            40.859407
          ],
          [
            -73.9325106,
            40.8588487
          ],
          [
            -73.9325801,
            40.8587223
          ],
          [
            -73.932874,
            40.8581635
          ],
          [
            -73.9328817,
            40.858148
          ],
          [
            -73.932909,
            40.8580956
          ],
          [
            -73.9329266,
            40.8580619
          ],
          [
            -73.9329393,
            40.8580384
          ],
          [
            -73.9332856,
            40.8573964
          ],
          [
            -73.9335798,
            40.8568279
          ],
          [
            -73.9335917,
            40.8568049
          ],
          [
            -73.9336129,
            40.8567634
          ],
          [
            -73.9336333,
            40.8567233
          ],
          [
            -73.9336444,
            40.8567018
          ],
          [
            -73.9337416,
            40.8565127
          ],
          [
            -73.9338796,
            40.8562275
          ],
          [
            -73.9339966,
            40.8560529
          ],
          [
            -73.9340931,
            40.8558746
          ],
          [
            -73.9341672,
            40.8556483
          ],
          [
            -73.9341745,
            40.8556262
          ],
          [
            -73.934189,
            40.8555734
          ],
          [
            -73.9341999,
            40.8555337
          ],
          [
            -73.9342062,
            40.855515
          ],
          [
            -73.9345301,
            40.8545406
          ],
          [
            -73.9345377,
            40.8545196
          ],
          [
            -73.9345477,
            40.8544814
          ],
          [
            -73.9345611,
            40.85443
          ],
          [
            -73.9345725,
            40.854408
          ],
          [
            -73.9350261,
            40.8535269
          ],
          [
            -73.9350369,
            40.8535059
          ],
          [
            -73.9350616,
            40.8534578
          ],
          [
            -73.9350818,
            40.8534186
          ],
          [
            -73.9350925,
            40.8533979
          ],
          [
            -73.9356147,
            40.8523787
          ],
          [
            -73.9356242,
            40.8523604
          ],
          [
            -73.9356464,
            40.8523182
          ],
          [
            -73.9356642,
            40.8522845
          ],
          [
            -73.9356727,
            40.8522683
          ],
          [
            -73.9356962,
            40.8522754
          ],
          [
            -73.9357423,
            40.8522867
          ],
          [
            -73.9357988,
            40.8523005
          ],
          [
            -73.9358246,
            40.8523078
          ],
          [
            -73.9363699,
            40.8512481
          ],
          [
            -73.9367198,
            40.8505615
          ],
          [
            -73.9372573,
            40.8507152
          ],
          [
            -73.9370504,
            40.85125
          ],
          [
            -73.9370279,
            40.8513053
          ],
          [
            -73.9371064,
            40.8513337
          ]
        ]
      }
    }
  ]
}
