{
  "type": "FeatureCollection",
  "features": [
    {
      "type": "Feature",
      "properties": {
        "scenario": "Inwood Hill Park | 5.0mi | round | flat | no-amenity",
        "shape": "round",
        "target_miles": 5.0,
        "distance_m": 8139.050044970668,
        "candidate_index": 0
      },
      "geometry": {
        "type": "LineString",
        "coordinates": [
          [
            -73.9212171,
            40.867707
          ],
          [
            -73.9213249,
            40.8676676
          ],
          [
            -73.9230078,
            40.8670533
          ],
          [
            -73.92311,
            40.867016
          ],
          [
            -73.9232126,
            40.8669792
          ],
          [
            -73.9249072,
            40.8663711
          ],
          [
            -73.925005,
            40.866336
          ],
          [
            -73.9251166,
            40.8662959
          ],
          [
            -73.9257983,
            40.8660514
          ],
          [
            -73.925872,
            40.866025
          ],
          [
            -73.925967,
            40.8659914
          ],
          [
            -73.9263199,
            40.8658667
          ],
          [
            -73.9265267,
            40.8657937
          ],
          [
            -73.9271619,
            40.8655693
          ],
          [
            -73.9272475,
            40.865539
          ],
          [
            -73.9272714,
            40.8655306
          ],
          [
            -73.9272948,
            40.8655188
          ],
          [
            -73.9274931,
            40.8654184
          ],
          [
            -73.9275773,
            40.8654449
          ],
          [
            -73.9275983,
            40.8654515
          ],
          [
            -73.9277609,
            40.8653672
          ],
          [
            -73.9277762,
            40.8653645
          ],
          [
            -73.9277915,
            40.865368
          ],
          [
            -73.9278078,
            40.8653879
          ],
          [
            -73.92782,
            40.8653796
          ],
          [
            -73.9278578,
            40.8653587
          ],
          [
            -73.9278865,
            40.8653403
          ],
          [
            -73.9279083,
            40.865329
          ],
          [
            -73.9281272,
            40.8652149
          ],
          [
            -73.9282884,
            40.8651302
          ],
          [
            -73.9287266,
            40.8648997
          ],
          [
            -73.9289299,
            40.8647849
          ],
          [
            -73.9290352,
            40.8647226
          ],
          [
            -73.9291886,
            40.8646031
          ],
          [
            -73.929233,
            40.864569
          ],
          [
            -73.9294606,
            40.8643815
          ],
          [
            -73.9296576,
            40.8641904
          ],
          [
            -73.9299818,
            40.8637992
          ],
          [
            -73.9301114,
            40.8635412
          ],
          [
            -73.9301802,
            40.8633541
          ],
          [
            -73.930185,
            40.8633245
          ],
          [
            -73.9301892,
            40.8632989
          ],
          [
            -73.930163,
            40.863064
          ],
          [
            -73.9301101,
            40.8626789
          ],
          [
            -73.9300902,
            40.8625349
          ],
          [
            -73.9301141,
            40.8622388
          ],
          [
            -73.9301695,
            40.8620422
          ],
          [
            -73.9302856,
            40.8617399
          ],
          [
            -73.9303764,
            40.861593
          ],
          [
            -73.9305358,
            40.8613221
          ],
          [
            -73.9307581,
            40.8609542
          ],
          [
            -73.9308693,
            40.8607589
          ],
          [
            -73.9308732,
            40.8607521
          ],
          [
            -73.9309312,
            40.8606528
          ],
          [
            -73.9309345,
            40.8606448
          ],
          [
            -73.9314183,
            40.8594799
          ],
          [
            -73.9314371,
            40.8594432
          ],
          [
            -73.9314426,
            40.8594224
          ],
          [
            -73.931462,
            40.8593709
          ],
          [
            -73.9314707,
            40.8593476
          ],
          [
            -73.9314804,
            40.8593207
          ],
          [
            -73.9315491,
            40.8591652
          ],
          [
            -73.9316307,
            40.8589521
          ],
          [
            -73.9317079,
            40.8587949
          ],
          [
            -73.9317951,
            40.8586271
          ],
          [
            -73.9318895,
            40.8584453
          ],
          [
            -73.9319273,
            40.8583743
          ],
          [
            -73.9319893,
            40.8582578
          ],
          [
            -73.9321571,
            40.8579521
          ],
          [
            -73.9321693,
            40.8579299
          ],
          [
            -73.9321905,
            40.857883
          ],
          [
            -73.9322082,
            40.8578439
          ],
          [
            -73.932221,
            40.8578197
          ],
          [
            -73.9327422,
            40.8568354
          ],
          [
            -73.9328251,
            40.8566792
          ],
          [
            -73.9328594,
            40.856613
          ],
          [
            -73.9328726,
            40.8565922
          ],
          [
            -73.9328947,
            40.856546
          ],
          [
            -73.9329157,
            40.8565023
          ],
          [
            -73.9329265,
            40.8564813
          ],
          [
            -73.9330744,
            40.8561962
          ],
          [
            -73.933084,
            40.8561785
          ],
          [
            -73.9333498,
            40.8556784
          ],
          [
            -73.9334435,
            40.8554257
          ],
          [
            -73.9334464,
            40.855406
          ],
          [
            -73.9334585,
            40.855375
          ],
          [
            -73.9334802,
            40.8553194
          ],
          [
            -73.9334782,
            40.8552922
          ],
          [
            -73.9338206,
            40.8542694
          ],
          [
            -73.9338296,
            40.8542424
          ],
          [
            -73.9338538,
            40.8541916
          ],
          [
            -73.933871,
            40.8541556
          ],
          [
            -73.9338828,
            40.8541318
          ],
          [
            -73.9341046,
            40.8536828
          ],
          [
            -73.9341852,
            40.8535269
          ],
          [
            -73.9342593,
            40.8533834
          ],
          [
            -73.9343003,
            40.8533061
          ],
          [
            -73.9343118,
            40.8532845
          ],
          [
            -73.9343331,
            40.8532416
          ],
          [
            -73.934353,
            40.8532016
          ],
          [
            -73.9343618,
            40.8531849
          ],
          [
            -73.9344925,
            40.8529386
          ],
          [
            -73.934546,
            40.852833
          ],
          [
            -73.9346192,
            40.8526886
          ],
          [
            -73.9348807,
            40.8521702
          ],
          [
            -73.9348907,
            40.8521504
          ],
          [
            -73.9349182,
            40.8521005
          ],
          [
            -73.9349357,
            40.8520648
          ],
          [
            -73.9349445,
            40.8520477
          ],
          [
            -73.9351814,
            40.8515838
          ],
          [
            -73.9352638,
            40.8514215
          ],
          [
            -73.9353568,
            40.8512388
          ],
          [
            -73.9353878,
            40.8511785
          ],
          [
            -73.935456,
            40.851046
          ],
          [
            -73.9355992,
            40.8507666
          ],
          [
            -73.935832,
            40.850308
          ],
          [
            -73.9358436,
            40.8502852
          ],
          [
            -73.9358662,
            40.8502323
          ],
          [
            -73.93589,
            40.8501768
          ],
          [
            -73.9359036,
            40.8501523
          ],
          [
            -73.9364835,
            40.8496361
          ],
          [
            -73.9365049,
            40.849617
          ],
          [
            -73.936544,
            40.8495805
          ],
          [
            -73.9365829,
            40.8495447
          ],
          [
            -73.9366019,
            40.8495282
          ],
          [
            -73.9371708,
            40.8490347
          ],
          [
            -73.9371882,
            40.8490196
          ],
          [
            -73.9372341,
            40.8489854
          ],
          [
            -73.9372861,
            40.8489466
          ],
          [
            -73.9373053,
            40.8489292
          ],
          [
            -73.9377766,
            40.848484
          ],
          [
            -73.937789,
            40.8484721
          ],
          [
            -73.9378063,
            40.8484759
          ],
          [
            -73.9378374,
            40.848417
          ],
          [
            -73.9378618,
            40.8483692
          ],
          [
            -73.9378708,
            40.848348
          ],
          [
            -73.9380122,
            40.8480152
          ],
          [
            -73.9381033,
            40.8478105
          ],
          [
            -73.9381633,
            40.8476452
          ],
          [
            -73.9381712,
            40.8476235
          ],
          [
            -73.9381837,
            40.8475771
          ],
          [
            -73.938195,
            40.8475406
          ],
          [
            -73.9382003,
            40.8475224
          ],
          [
            -73.9383557,
            40.846999
          ],
          [
            -73.9383615,
            40.8469795
          ],
          [
            -73.938374,
            40.8469374
          ],
          [
            -73.9383866,
            40.8468947
          ],
          [
            -73.9383933,
            40.8468722
          ],
          [
            -73.938572,
            40.8463051
          ],
          [
            -73.9385784,
            40.8462848
          ],
          [
            -73.9385925,
            40.8462414
          ],
          [
            -73.9385991,
            40.8462034
          ],
          [
            -73.9386063,
            40.8461801
          ],
          [
            -73.9388077,
            40.8455295
          ],
          [
            -73.9388141,
            40.8455077
          ],
          [
            -73.9388285,
            40.8454593
          ],
          [
            -73.9388401,
            40.8454202
          ],
          [
            -73.9388486,
            40.8453915
          ],
          [
            -73.9389814,
            40.8448082
          ],
          [
            -73.9389887,
            40.84478
          ],
          [
            -73.9390003,
            40.8447357
          ],
          [
            -73.9390122,
            40.8446904
          ],
          [
            -73.9390183,
            40.8446671
          ],
          [
            -73.9391416,
            40.8440767
          ],
          [
            -73.9391483,
            40.8440521
          ],
          [
            -73.9391608,
            40.8440056
          ],
          [
            -73.9391733,
            40.8439601
          ],
          [
            -73.9391792,
            40.8439387
          ],
          [
            -73.9393126,
            40.8433635
          ],
          [
            -73.939316,
            40.8433416
          ],
          [
            -73.9393247,
            40.8432851
          ],
          [
            -73.9393318,
            40.8432391
          ],
          [
            -73.9393361,
            40.8432113
          ],
          [
            -73.9393802,
            40.8425792
          ],
          [
            -73.9393815,
            40.8425605
          ],
          [
            -73.9393818,
            40.8425008
          ],
          [
            -73.9393844,
            40.8424305
          ],
          [
            -73.9393848,
            40.8424192
          ],
          [
            -73.9393853,
            40.8424069
          ],
          [
            -73.9393857,
            40.8423946
          ],
          [
            -73.93943,
            40.8418827
          ],
          [
            -73.9394754,
            40.8418244
          ],
          [
            -73.9394877,
            40.8418086
          ],
          [
            -73.9395125,
            40.8417695
          ],
          [
            -73.939546,
            40.8417276
          ],
          [
            -73.9395577,
            40.8417118
          ],
          [
            -73.9399068,
            40.8412394
          ],
          [
            -73.9399217,
            40.8412192
          ],
          [
            -73.9399598,
            40.841163
          ],
          [
            -73.9399907,
            40.841114
          ],
          [
            -73.9400072,
            40.8410948
          ],
          [
            -73.9402755,
            40.8407154
          ],
          [
            -73.9402494,
            40.8407006
          ],
          [
            -73.9402075,
            40.8406727
          ],
          [
            -73.9401544,
            40.8406394
          ],
          [
            -73.9400678,
            40.840585
          ],
          [
            -73.9400608,
            40.8405806
          ],
          [
            -73.9399637,
            40.8405196
          ],
          [
            -73.9399397,
            40.8405046
          ],
          [
            -73.94006,
            40.8403365
          ],
          [
            -73.9401973,
            40.8401475
          ],
          [
            -73.9403892,
            40.8398804
          ],
          [
            -73.9404032,
            40.8398615
          ],
          [
            -73.9404513,
            40.8397938
          ],
          [
            -73.9404733,
            40.8397598
          ],
          [
            -73.9404893,
            40.8397379
          ],
          [
            -73.9409023,
            40.839165
          ],
          [
            -73.9409215,
            40.8391405
          ],
          [
            -73.9409571,
            40.8390918
          ],
          [
            -73.9409958,
            40.839039
          ],
          [
            -73.9410139,
            40.8390142
          ],
          [
            -73.9414613,
            40.8384193
          ],
          [
            -73.9414786,
            40.8383952
          ],
          [
            -73.9415097,
            40.8383523
          ],
          [
            -73.9415307,
            40.8383209
          ],
          [
            -73.9415491,
            40.8382978
          ],
          [
            -73.9419172,
            40.8377927
          ],
          [
            -73.9419314,
            40.8377731
          ],
          [
            -73.9419617,
            40.837731
          ],
          [
            -73.942001,
            40.8376765
          ],
          [
            -73.942088,
            40.8377119
          ],
          [
            -73.9423028,
            40.8377994
          ],
          [
            -73.942259,
            40.837855
          ],
          [
            -73.9422197,
            40.8379157
          ],
          [
            -73.9420345,
            40.8382014
          ],
          [
            -73.9418686,
            40.8384296
          ],
          [
            -73.9419058,
            40.838445
          ],
          [
            -73.9419315,
            40.8384559
          ],
          [
            -73.9419138,
            40.8384814
          ],
          [
            -73.9418889,
            40.8385149
          ],
          [
            -73.9418603,
            40.8385544
          ],
          [
            -73.9418437,
            40.8385775
          ],
          [
            -73.9413983,
            40.8392139
          ],
          [
            -73.941379,
            40.8392414
          ],
          [
            -73.9413489,
            40.8392808
          ],
          [
            -73.9413002,
            40.8393391
          ],
          [
            -73.9412791,
            40.8393659
          ],
          [
            -73.941052,
            40.8396701
          ],
          [
            -73.9408729,
            40.83991
          ],
          [
            -73.9407769,
            40.8400467
          ],
          [
            -73.9404218,
            40.8405238
          ],
          [
            -73.940388,
            40.8405081
          ],
          [
            -73.9403476,
            40.8404886
          ],
          [
            -73.9402873,
            40.8404572
          ],
          [
            -73.9401883,
            40.8404056
          ],
          [
            -73.9401844,
            40.8404036
          ],
          [
            -73.9400821,
            40.8403474
          ],
          [
            -73.94006,
            40.8403365
          ],
          [
            -73.9399532,
            40.8402831
          ],
          [
            -73.9399432,
            40.8403008
          ],
          [
            -73.9398829,
            40.8403694
          ],
          [
            -73.9398139,
            40.8403321
          ],
          [
            -73.9397926,
            40.8403979
          ],
          [
            -73.9396066,
            40.8409177
          ],
          [
            -73.939503,
            40.8408689
          ],
          [
            -73.9394242,
            40.8408376
          ],
          [
            -73.9393982,
            40.840827
          ],
          [
            -73.9393906,
            40.8408561
          ],
          [
            -73.9393717,
            40.840913
          ],
          [
            -73.939355,
            40.8409758
          ],
          [
            -73.9393496,
            40.8409947
          ],
          [
            -73.9391933,
            40.8415518
          ],
          [
            -73.9391874,
            40.8415731
          ],
          [
            -73.9391772,
            40.8416189
          ],
          [
            -73.9391667,
            40.8416653
          ],
          [
            -73.93916,
            40.8416878
          ],
          [
            -73.9391735,
            40.8416934
          ],
          [
            -73.9391901,
            40.8417007
          ],
          [
            -73.9392178,
            40.8417128
          ],
          [
            -73.9391645,
            40.8418125
          ],
          [
            -73.9391604,
            40.8418721
          ],
          [
            -73.9391578,
            40.8419095
          ],
          [
            -73.9391196,
            40.8419836
          ],
          [
            -73.9391257,
            40.8422791
          ],
          [
            -73.9391227,
            40.8423197
          ],
          [
            -73.9391218,
            40.8423308
          ],
          [
            -73.9391196,
            40.8423586
          ],
          [
            -73.9391174,
            40.8423864
          ],
          [
            -73.9391162,
            40.8424119
          ],
          [
            -73.939115,
            40.8424374
          ],
          [
            -73.9391131,
            40.8424609
          ],
          [
            -73.9390531,
            40.8430966
          ],
          [
            -73.9390518,
            40.8431159
          ],
          [
            -73.9390481,
            40.8431682
          ],
          [
            -73.9390441,
            40.8432249
          ],
          [
            -73.9390424,
            40.8432498
          ],
          [
            -73.9389715,
            40.8435584
          ],
          [
            -73.938911,
            40.843822
          ],
          [
            -73.9389049,
            40.8438455
          ],
          [
            -73.9388941,
            40.8438867
          ],
          [
            -73.9388819,
            40.8439336
          ],
          [
            -73.9388761,
            40.8439559
          ],
          [
            -73.9387608,
            40.8445708
          ],
          [
            -73.9387559,
            40.8445997
          ],
          [
            -73.9387468,
            40.844654
          ],
          [
            -73.9387362,
            40.8447168
          ],
          [
            -73.9387326,
            40.8447382
          ],
          [
            -73.9386304,
            40.8451197
          ],
          [
            -73.9385961,
            40.8452478
          ],
          [
            -73.9385676,
            40.845354
          ],
          [
            -73.9385609,
            40.8453762
          ],
          [
            -73.9385504,
            40.8454111
          ],
          [
            -73.9385344,
            40.8454642
          ],
          [
            -73.9385241,
            40.8454985
          ],
          [
            -73.9383295,
            40.8461304
          ],
          [
            -73.9383141,
            40.8461804
          ],
          [
            -73.9382888,
            40.8462626
          ],
          [
            -73.9380976,
            40.8468838
          ],
          [
            -73.9380919,
            40.8469016
          ],
          [
            -73.9380775,
            40.8469528
          ],
          [
            -73.9380655,
            40.8469954
          ],
          [
            -73.9380567,
            40.8470188
          ],
          [
            -73.937872,
            40.8475953
          ],
          [
            -73.9378618,
            40.8476274
          ],
          [
            -73.9378498,
            40.8476592
          ],
          [
            -73.937833,
            40.847712
          ],
          [
            -73.9378246,
            40.8477313
          ],
          [
            -73.9375879,
            40.8482767
          ],
          [
            -73.9375656,
            40.8482974
          ],
          [
            -73.9375238,
            40.8483423
          ],
          [
            -73.9374685,
            40.8483903
          ],
          [
            -73.9374588,
            40.8484051
          ],
          [
            -73.9369426,
            40.848875
          ],
          [
            -73.9369286,
            40.8488883
          ],
          [
            -73.9368957,
            40.8489192
          ],
          [
            -73.9368497,
            40.8489627
          ],
          [
            -73.9368338,
            40.8489771
          ],
          [
            -73.9363235,
            40.8494356
          ],
          [
            -73.9363025,
            40.8494542
          ],
          [
            -73.9362658,
            40.8494845
          ],
          [
            -73.936229,
            40.8495148
          ],
          [
            -73.9362042,
            40.8495372
          ],
          [
            -73.935932,
            40.8497836
          ],
          [
            -73.9356603,
            40.8500336
          ],
          [
            -73.9356376,
            40.8500544
          ],
          [
            -73.9356068,
            40.8501265
          ],
          [
            -73.9355835,
            40.8501827
          ],
          [
            -73.9355721,
            40.8502051
          ],
          [
            -73.9353336,
            40.8506761
          ],
          [
            -73.9353199,
            40.8507028
          ],
          [
            -73.9353082,
            40.8507263
          ],
          [
            -73.9352785,
            40.8507802
          ],
          [
            -73.9352739,
            40.850794
          ],
          [
            -73.9350045,
            40.8513167
          ],
          [
            -73.9349915,
            40.8513421
          ],
          [
            -73.9349705,
            40.8513868
          ],
          [
            -73.9349311,
            40.8514593
          ],
          [
            -73.9349221,
            40.8514774
          ],
          [
            -73.9346769,
            40.851968
          ],
          [
            -73.9346653,
            40.8519911
          ],
          [
            -73.9346542,
            40.8520093
          ],
          [
            -73.9346178,
            40.8520697
          ],
          [
            -73.9346082,
            40.8520887
          ],
          [
            -73.9343533,
            40.8525918
          ],
          [
            -73.9343401,
            40.8526178
          ],
          [
            -73.9343129,
            40.8526788
          ],
          [
            -73.9342824,
            40.8527299
          ],
          [
            -73.9342705,
            40.8527543
          ],
          [
            -73.9340966,
            40.8531106
          ],
          [
            -73.9340432,
            40.8532174
          ],
          [
            -73.9339532,
            40.8533973
          ],
          [
            -73.9336039,
            40.8540632
          ],
          [
            -73.9335901,
            40.8540894
          ],
          [
            -73.9335694,
            40.8541399
          ],
          [
            -73.9335425,
            40.8542054
          ],
          [
            -73.933535,
            40.8542282
          ],
          [
            -73.9331975,
            40.8552585
          ],
          [
            -73.9331577,
            40.8553802
          ],
          [
            -73.9330944,
            40.8555739
          ],
          [
            -73.9329582,
            40.8558338
          ],
          [
            -73.9326357,
            40.8564349
          ],
          [
            -73.9325431,
            40.8566138
          ],
          [
            -73.9325332,
            40.8566331
          ],
          [
            -73.9325079,
            40.8566829
          ],
          [
            -73.9324817,
            40.8567346
          ],
          [
            -73.9324746,
            40.856748
          ],
          [
            -73.9319511,
            40.857737
          ],
          [
            -73.9318851,
            40.8578668
          ],
          [
            -73.9317223,
            40.8581768
          ],
          [
            -73.9317106,
            40.8581989
          ],
          [
            -73.9316921,
            40.8582329
          ],
          [
            -73.9316699,
            40.8582739
          ],
          [
            -73.9316614,
            40.8582896
          ],
          [
            -73.9312485,
            40.8590849
          ],
          [
            -73.9312457,
            40.8590902
          ],
          [
            -73.931236,
            40.8591233
          ],
          [
            -73.9312315,
            40.8591582
          ],
          [
            -73.9312277,
            40.8591884
          ],
          [
            -73.9312161,
            40.8592396
          ],
          [
            -73.9312057,
            40.8592692
          ],
          [
            -73.9311946,
            40.8593214
          ],
          [
            -73.9311788,
            40.8593955
          ],
          [
            -73.9311741,
            40.8594122
          ],
          [
            -73.9311447,
            40.8594863
          ],
          [
            -73.9310771,
            40.8596027
          ],
          [
            -73.9310661,
            40.8596741
          ],
          [
            -73.9309759,
            40.8598873
          ],
          [
            -73.9308487,
            40.860185
          ],
          [
            -73.9307553,
            40.8604006
          ],
          [
            -73.9306637,
            40.8605568
          ],
          [
            -73.9306524,
            40.860576
          ],
          [
            -73.9306397,
            40.8606013
          ],
          [
            -73.930615,
            40.8606505
          ],
          [
            -73.9306046,
            40.8606676
          ],
          [
            -73.9301765,
            40.8613758
          ],
          [
            -73.92994,
            40.8618022
          ],
          [
            -73.9299069,
            40.8618983
          ],
          [
            -73.9298848,
            40.8619672
          ],
          [
            -73.9298733,
            40.8620246
          ],
          [
            -73.9298654,
            40.8620801
          ],
          [
            -73.9298629,
            40.8621119
          ],
          [
            -73.9298608,
            40.8621511
          ],
          [
            -73.929857,
            40.8622239
          ],
          [
            -73.9298558,
            40.8622464
          ],
          [
            -73.9298515,
            40.8622743
          ],
          [
            -73.9298356,
            40.8623788
          ],
          [
            -73.9298324,
            40.8623992
          ],
          [
            -73.9298048,
            40.8624191
          ],
          [
            -73.9297761,
            40.8624418
          ],
          [
            -73.9297507,
            40.8624605
          ],
          [
            -73.9297966,
            40.8625066
          ],
          [
            -73.9298396,
            40.8627084
          ],
          [
            -73.9298668,
            40.8628761
          ],
          [
            -73.9298751,
            40.8629806
          ],
          [
            -73.9298887,
            40.8631523
          ],
          [
            -73.9298995,
            40.863334
          ],
          [
            -73.9298941,
            40.8633579
          ],
          [
            -73.9298727,
            40.8634053
          ],
          [
            -73.9298469,
            40.8634625
          ],
          [
            -73.9298366,
            40.863487
          ],
          [
            -73.9297413,
            40.8636925
          ],
          [
            -73.9295992,
            40.8638737
          ],
          [
            -73.9293105,
            40.8641676
          ],
          [
            -73.9290762,
            40.8643694
          ],
          [
            -73.9288996,
            40.8645236
          ],
          [
            -73.9288778,
            40.8645384
          ],
          [
            -73.9288355,
            40.8645612
          ],
          [
            -73.9287735,
            40.8645947
          ],
          [
            -73.9287514,
            40.8646074
          ],
          [
            -73.9285938,
            40.8646874
          ],
          [
            -73.9281213,
            40.8649438
          ],
          [
            -73.9280957,
            40.864959
          ],
          [
            -73.9280451,
            40.8649853
          ],
          [
            -73.927998,
            40.8650098
          ],
          [
            -73.9279767,
            40.8650213
          ],
          [
            -73.9274358,
            40.8653135
          ],
          [
            -73.9274131,
            40.8653501
          ],
          [
            -73.927372,
            40.865372
          ],
          [
            -73.9273107,
            40.8654003
          ],
          [
            -73.927211,
            40.8654368
          ],
          [
            -73.9271302,
            40.8654663
          ],
          [
            -73.9270992,
            40.8654827
          ],
          [
            -73.9270161,
            40.8655187
          ],
          [
            -73.926713,
            40.8656282
          ],
          [
            -73.9262633,
            40.8657816
          ],
          [
            -73.9258986,
            40.865906
          ],
          [
            -73.9257333,
            40.8659657
          ],
          [
            -73.925059,
            40.866201
          ],
          [
            -73.9250123,
            40.8662173
          ],
          [
            -73.9249455,
            40.8662426
          ],
          [
            -73.924886,
            40.8662651
          ],
          [
            -73.9248479,
            40.8662778
          ],
          [
            -73.9231507,
            40.8668866
          ],
          [
            -73.9231221,
            40.866896
          ],
          [
            -73.92305,
            40.8669225
          ],
          [
            -73.9229783,
            40.8669489
          ],
          [
            -73.9229478,
            40.8669575
          ],
          [
            -73.9212605,
            40.8675634
          ],
          [
            -73.9212388,
            40.8675753
          ],
          [
            -73.9211514,
            40.8676035
          ],
          [
            -73.9212171,
            40.867707
          ]
        ]
      }
    }
  ]
}
