{
  "type": "FeatureCollection",
  "features": [
    {
      "type": "Feature",
      "properties": {
        "scenario": "HARD - Inwood tip, huge target",
        "shape": "out_and_back",
        "target_miles": 12.0,
        "distance_m": 19312.496591617048,
        "candidate_index": 0
      },
      "geometry": {
        "type": "LineString",
        "coordinates": [
          [
            -73.9204046,
            40.8745438
          ],
          [
            -73.9203427,
            40.8744873
          ],
          [
            -73.9203611,
            40.8744641
          ],
          [
            -73.9203703,
            40.8744328
          ],
          [
            -73.9203671,
            40.8744073
          ],
          [
            -73.9203503,
            40.8743779
          ],
          [
            -73.9203211,
            40.8743546
          ],
          [
            -73.9203019,
            40.8743458
          ],
          [
            -73.9202612,
            40.8743369
          ],
          [
            -73.9202188,
            40.8743391
          ],
          [
            -73.9201388,
            40.8742555
          ],
          [
            -73.9200106,
            40.8741758
          ],
          [
            -73.9198094,
            40.8740587
          ],
          [
            -73.919886,
            40.8739777
          ],
          [
            -73.9197515,
            40.8738749
          ],
          [
            -73.9197655,
            40.8738219
          ],
          [
            -73.919766,
            40.8736734
          ],
          [
            -73.9197679,
            40.8735955
          ],
          [
            -73.9197707,
            40.8734776
          ],
          [
            -73.9198874,
            40.8733016
          ],
          [
            -73.9200095,
            40.8731752
          ],
          [
            -73.9202217,
            40.8729967
          ],
          [
            -73.9201242,
            40.8729357
          ],
          [
            -73.9200947,
            40.8728546
          ],
          [
            -73.9200813,
            40.8727552
          ],
          [
            -73.9201182,
            40.8726453
          ],
          [
            -73.9201364,
            40.872554
          ],
          [
            -73.920144,
            40.8724654
          ],
          [
            -73.9201246,
            40.8723782
          ],
          [
            -73.9200947,
            40.8722993
          ],
          [
            -73.9200449,
            40.8721925
          ],
          [
            -73.9200356,
            40.8721628
          ],
          [
            -73.9200246,
            40.8720416
          ],
          [
            -73.9200262,
            40.8719908
          ],
          [
            -73.920055,
            40.8719092
          ],
          [
            -73.9200291,
            40.8717372
          ],
          [
            -73.9199886,
            40.8715659
          ],
          [
            -73.9199058,
            40.8713903
          ],
          [
            -73.9198516,
            40.8712057
          ],
          [
            -73.9198737,
            40.870944
          ],
          [
            -73.9199413,
            40.8708086
          ],
          [
            -73.920014,
            40.8707298
          ],
          [
            -73.9201483,
            40.8706279
          ],
          [
            -73.9203738,
            40.8704732
          ],
          [
            -73.9207669,
            40.8702208
          ],
          [
            -73.9208189,
            40.8702072
          ],
          [
            -73.9208363,
            40.8701301
          ],
          [
            -73.9209395,
            40.8700489
          ],
          [
            -73.9209917,
            40.8700174
          ],
          [
            -73.9209417,
            40.8699676
          ],
          [
            -73.9210314,
            40.8699086
          ],
          [
            -73.9217048,
            40.8694643
          ],
          [
            -73.9218789,
            40.8693667
          ],
          [
            -73.9221081,
            40.8692728
          ],
          [
            -73.922089,
            40.8692453
          ],
          [
            -73.9220558,
            40.8691905
          ],
          [
            -73.922145,
            40.86915
          ],
          [
            -73.9222427,
            40.8691149
          ],
          [
            -73.9231248,
            40.8687983
          ],
          [
            -73.923433,
            40.868686
          ],
          [
            -73.9239487,
            40.8685043
          ],
          [
            -73.924038,
            40.868473
          ],
          [
            -73.924149,
            40.8684329
          ],
          [
            -73.924122,
            40.86839
          ],
          [
            -73.9241108,
            40.8683705
          ],
          [
            -73.9258074,
            40.8677598
          ],
          [
            -73.9258282,
            40.8677389
          ],
          [
            -73.925873,
            40.8676991
          ],
          [
            -73.9259395,
            40.8676402
          ],
          [
            -73.925963,
            40.8676221
          ],
          [
            -73.9259888,
            40.8676022
          ],
          [
            -73.9266978,
            40.8670565
          ],
          [
            -73.9267027,
            40.867031
          ],
          [
            -73.9267235,
            40.8670168
          ],
          [
            -73.9267691,
            40.86699
          ],
          [
            -73.9268084,
            40.8669642
          ],
          [
            -73.9268371,
            40.866948
          ],
          [
            -73.9279147,
            40.8662048
          ],
          [
            -73.927948,
            40.8661818
          ],
          [
            -73.9279919,
            40.8661344
          ],
          [
            -73.9280184,
            40.8661057
          ],
          [
            -73.9280376,
            40.8660797
          ],
          [
            -73.9281772,
            40.8658909
          ],
          [
            -73.9282873,
            40.8657364
          ],
          [
            -73.9282952,
            40.8657181
          ],
          [
            -73.9283069,
            40.86565
          ],
          [
            -73.9283189,
            40.8655976
          ],
          [
            -73.9283284,
            40.8655583
          ],
          [
            -73.9283347,
            40.8655281
          ],
          [
            -73.9280888,
            40.8655071
          ],
          [
            -73.9280238,
            40.8654429
          ],
          [
            -73.9279083,
            40.865329
          ],
          [
            -73.9281272,
            40.8652149
          ],
          [
            -73.9282884,
            40.8651302
          ],
          [
            -73.9287266,
            40.8648997
          ],
          [
            -73.9289299,
            40.8647849
          ],
          [
            -73.9290352,
            40.8647226
          ],
          [
            -73.9290243,
            40.8647087
          ],
          [
            -73.9289665,
            40.8646215
          ],
          [
            -73.9289166,
            40.8645463
          ],
          [
            -73.9288996,
            40.8645236
          ],
          [
            -73.9290762,
            40.8643694
          ],
          [
            -73.9293105,
            40.8641676
          ],
          [
            -73.9295992,
            40.8638737
          ],
          [
            -73.9297413,
            40.8636925
          ],
          [
            -73.9298366,
            40.863487
          ],
          [
            -73.9298469,
            40.8634625
          ],
          [
            -73.9298727,
            40.8634053
          ],
          [
            -73.9298941,
            40.8633579
          ],
          [
            -73.9298995,
            40.863334
          ],
          [
            -73.9298887,
            40.8631523
          ],
          [
            -73.9298751,
            40.8629806
          ],
          [
            -73.9298668,
            40.8628761
          ],
          [
            -73.9298396,
            40.8627084
          ],
          [
            -73.9297966,
            40.8625066
          ],
          [
            -73.9297507,
            40.8624605
          ],
          [
            -73.9297761,
            40.8624418
          ],
          [
            -73.9298048,
            40.8624191
          ],
          [
            -73.9298324,
            40.8623992
          ],
          [
            -73.9298356,
            40.8623788
          ],
          [
            -73.9298515,
            40.8622743
          ],
          [
            -73.9298558,
            40.8622464
          ],
          [
            -73.929857,
            40.8622239
          ],
          [
            -73.9298608,
            40.8621511
          ],
          [
            -73.9298629,
            40.8621119
          ],
          [
            -73.9298654,
            40.8620801
          ],
          [
            -73.9298733,
            40.8620246
          ],
          [
            -73.9298848,
            40.8619672
          ],
          [
            -73.9299069,
            40.8618983
          ],
          [
            -73.92994,
            40.8618022
          ],
          [
            -73.9301765,
            40.8613758
          ],
          [
            -73.9306046,
            40.8606676
          ],
          [
            -73.930615,
            40.8606505
          ],
          [
            -73.9306397,
            40.8606013
          ],
          [
            -73.9306524,
            40.860576
          ],
          [
            -73.9306637,
            40.8605568
          ],
          [
            -73.9307553,
            40.8604006
          ],
          [
            -73.9308487,
            40.860185
          ],
          [
            -73.9309759,
            40.8598873
          ],
          [
            -73.9310661,
            40.8596741
          ],
          [
            -73.9310771,
            40.8596027
          ],
          [
            -73.9311447,
            40.8594863
          ],
          [
            -73.9311741,
            40.8594122
          ],
          [
            -73.9311788,
            40.8593955
          ],
          [
            -73.9311946,
            40.8593214
          ],
          [
            -73.9312057,
            40.8592692
          ],
          [
            -73.9312161,
            40.8592396
          ],
          [
            -73.9312277,
            40.8591884
          ],
          [
            -73.9312315,
            40.8591582
          ],
          [
            -73.931236,
            40.8591233
          ],
          [
            -73.9312457,
            40.8590902
          ],
          [
            -73.9312485,
            40.8590849
          ],
          [
            -73.9316614,
            40.8582896
          ],
          [
            -73.9316699,
            40.8582739
          ],
          [
            -73.9316921,
            40.8582329
          ],
          [
            -73.9317106,
            40.8581989
          ],
          [
            -73.9317223,
            40.8581768
          ],
          [
            -73.9318851,
            40.8578668
          ],
          [
            -73.9319511,
            40.857737
          ],
          [
            -73.9324746,
            40.856748
          ],
          [
            -73.9324817,
            40.8567346
          ],
          [
            -73.9325079,
            40.8566829
          ],
          [
            -73.9325332,
            40.8566331
          ],
          [
            -73.9325431,
            40.8566138
          ],
          [
            -73.9326357,
            40.8564349
          ],
          [
            -73.9329582,
            40.8558338
          ],
          [
            -73.9330944,
            40.8555739
          ],
          [
            -73.9331577,
            40.8553802
          ],
          [
            -73.9331975,
            40.8552585
          ],
          [
            -73.933535,
            40.8542282
          ],
          [
            -73.9335425,
            40.8542054
          ],
          [
            -73.9335694,
            40.8541399
          ],
          [
            -73.9335901,
            40.8540894
          ],
          [
            -73.9336039,
            40.8540632
          ],
          [
            -73.9339532,
            40.8533973
          ],
          [
            -73.9340432,
            40.8532174
          ],
          [
            -73.9340966,
            40.8531106
          ],
          [
            -73.9342705,
            40.8527543
          ],
          [
            -73.9342824,
            40.8527299
          ],
          [
            -73.9343129,
            40.8526788
          ],
          [
            -73.9343401,
            40.8526178
          ],
          [
            -73.9343533,
            40.8525918
          ],
          [
            -73.9346082,
            40.8520887
          ],
          [
            -73.9346178,
            40.8520697
          ],
          [
            -73.9346542,
            40.8520093
          ],
          [
            -73.9346653,
            40.8519911
          ],
          [
            -73.9346769,
            40.851968
          ],
          [
            -73.9349221,
            40.8514774
          ],
          [
            -73.9349311,
            40.8514593
          ],
          [
            -73.9349705,
            40.8513868
          ],
          [
            -73.9349915,
            40.8513421
          ],
          [
            -73.9350045,
            40.8513167
          ],
          [
            -73.9352739,
            40.850794
          ],
          [
            -73.9352785,
            40.8507802
          ],
          [
            -73.9353082,
            40.8507263
          ],
          [
            -73.9353199,
            40.8507028
          ],
          [
            -73.9353336,
            40.8506761
          ],
          [
            -73.9355721,
            40.8502051
          ],
          [
            -73.9355835,
            40.8501827
          ],
          [
            -73.9356068,
            40.8501265
          ],
          [
            -73.9356376,
            40.8500544
          ],
          [
            -73.9356603,
            40.8500336
          ],
          [
            -73.935932,
            40.8497836
          ],
          [
            -73.9362042,
            40.8495372
          ],
          [
            -73.936229,
            40.8495148
          ],
          [
            -73.9362658,
            40.8494845
          ],
          [
            -73.9363025,
            40.8494542
          ],
          [
            -73.9363235,
            40.8494356
          ],
          [
            -73.9368338,
            40.8489771
          ],
          [
            -73.9368497,
            40.8489627
          ],
          [
            -73.9368957,
            40.8489192
          ],
          [
            -73.9369286,
            40.8488883
          ],
          [
            -73.9369426,
            40.848875
          ],
          [
            -73.9374588,
            40.8484051
          ],
          [
            -73.9374685,
            40.8483903
          ],
          [
            -73.9375238,
            40.8483423
          ],
          [
            -73.9375656,
            40.8482974
          ],
          [
            -73.9375879,
            40.8482767
          ],
          [
            -73.9378246,
            40.8477313
          ],
          [
            -73.937833,
            40.847712
          ],
          [
            -73.9378498,
            40.8476592
          ],
          [
            -73.9378618,
            40.8476274
          ],
          [
            -73.937872,
            40.8475953
          ],
          [
            -73.9380567,
            40.8470188
          ],
          [
            -73.9380655,
            40.8469954
          ],
          [
            -73.9380775,
            40.8469528
          ],
          [
            -73.9380919,
            40.8469016
          ],
          [
            -73.9380976,
            40.8468838
          ],
          [
            -73.9382888,
            40.8462626
          ],
          [
            -73.9383141,
            40.8461804
          ],
          [
            -73.9383295,
            40.8461304
          ],
          [
            -73.9385241,
            40.8454985
          ],
          [
            -73.9385344,
            40.8454642
          ],
          [
            -73.9385504,
            40.8454111
          ],
          [
            -73.9385609,
            40.8453762
          ],
          [
            -73.9385676,
            40.845354
          ],
          [
            -73.9385961,
            40.8452478
          ],
          [
            -73.9386304,
            40.8451197
          ],
          [
            -73.9387326,
            40.8447382
          ],
          [
            -73.9387362,
            40.8447168
          ],
          [
            -73.9387468,
            40.844654
          ],
          [
            -73.9387559,
            40.8445997
          ],
          [
            -73.9387608,
            40.8445708
          ],
          [
            -73.9388761,
            40.8439559
          ],
          [
            -73.9388819,
            40.8439336
          ],
          [
            -73.9388941,
            40.8438867
          ],
          [
            -73.9389049,
            40.8438455
          ],
          [
            -73.938911,
            40.843822
          ],
          [
            -73.9389715,
            40.8435584
          ],
          [
            -73.9390424,
            40.8432498
          ],
          [
            -73.9390441,
            40.8432249
          ],
          [
            -73.9390481,
            40.8431682
          ],
          [
            -73.9390518,
            40.8431159
          ],
          [
            -73.9390531,
            40.8430966
          ],
          [
            -73.9391131,
            40.8424609
          ],
          [
            -73.939115,
            40.8424374
          ],
          [
            -73.9391162,
            40.8424119
          ],
          [
            -73.9391174,
            40.8423864
          ],
          [
            -73.9391196,
            40.8423586
          ],
          [
            -73.9391218,
            40.8423308
          ],
          [
            -73.9391227,
            40.8423197
          ],
          [
            -73.9391257,
            40.8422791
          ],
          [
            -73.9391196,
            40.8419836
          ],
          [
            -73.9391578,
            40.8419095
          ],
          [
            -73.9391604,
            40.8418721
          ],
          [
            -73.9391645,
            40.8418125
          ],
          [
            -73.9392178,
            40.8417128
          ],
          [
            -73.9391901,
            40.8417007
          ],
          [
            -73.9391735,
            40.8416934
          ],
          [
            -73.93916,
            40.8416878
          ],
          [
            -73.9391667,
            40.8416653
          ],
          [
            -73.9391772,
            40.8416189
          ],
          [
            -73.9391874,
            40.8415731
          ],
          [
            -73.9391933,
            40.8415518
          ],
          [
            -73.9393496,
            40.8409947
          ],
          [
            -73.939355,
            40.8409758
          ],
          [
            -73.9393717,
            40.840913
          ],
          [
            -73.9393906,
            40.8408561
          ],
          [
            -73.9393982,
            40.840827
          ],
          [
            -73.9395406,
            40.8402914
          ],
          [
            -73.9395477,
            40.8402651
          ],
          [
            -73.9395623,
            40.8402109
          ],
          [
            -73.9395718,
            40.8401774
          ],
          [
            -73.9395756,
            40.8401629
          ],
          [
            -73.9397266,
            40.839601
          ],
          [
            -73.9397323,
            40.8395757
          ],
          [
            -73.9397466,
            40.8395113
          ],
          [
            -73.9397587,
            40.8394571
          ],
          [
            -73.9397645,
            40.839437
          ],
          [
            -73.9397073,
            40.8388155
          ],
          [
            -73.9397076,
            40.8387544
          ],
          [
            -73.9397005,
            40.8387098
          ],
          [
            -73.9398419,
            40.8386617
          ],
          [
            -73.9398455,
            40.8385135
          ],
          [
            -73.9398575,
            40.8384352
          ],
          [
            -73.93986,
            40.8384189
          ],
          [
            -73.9399035,
            40.8381898
          ],
          [
            -73.9399302,
            40.8380495
          ],
          [
            -73.9399789,
            40.8377935
          ],
          [
            -73.939994,
            40.837714
          ],
          [
            -73.9400085,
            40.8376528
          ],
          [
            -73.9401239,
            40.837035
          ],
          [
            -73.9401365,
            40.8369673
          ],
          [
            -73.9401287,
            40.8368944
          ],
          [
            -73.9400641,
            40.8362906
          ],
          [
            -73.9400362,
            40.8361153
          ],
          [
            -73.9399863,
            40.8358917
          ],
          [
            -73.9399834,
            40.8358785
          ],
          [
            -73.9398835,
            40.8358221
          ],
          [
            -73.9397975,
            40.8357792
          ],
          [
            -73.9397604,
            40.8357605
          ],
          [
            -73.9397818,
            40.8357278
          ],
          [
            -73.9398011,
            40.8357012
          ],
          [
            -73.9397413,
            40.835676
          ],
          [
            -73.9397277,
            40.8356298
          ],
          [
            -73.9397539,
            40.8356196
          ],
          [
            -73.9397775,
            40.8356016
          ],
          [
            -73.9397861,
            40.8355796
          ],
          [
            -73.9397882,
            40.835558
          ],
          [
            -73.9397338,
            40.8352806
          ],
          [
            -73.9397352,
            40.8352622
          ],
          [
            -73.9397416,
            40.8351698
          ],
          [
            -73.9397872,
            40.8350754
          ],
          [
            -73.93986,
            40.834918
          ],
          [
            -73.9400164,
            40.8345637
          ],
          [
            -73.940048,
            40.8344923
          ],
          [
            -73.9400741,
            40.8344332
          ],
          [
            -73.9403266,
            40.8338615
          ],
          [
            -73.94036,
            40.833786
          ],
          [
            -73.9403844,
            40.8337286
          ],
          [
            -73.9406224,
            40.8331698
          ],
          [
            -73.940653,
            40.833098
          ],
          [
            -73.9406709,
            40.8330409
          ],
          [
            -73.9408558,
            40.8324537
          ],
          [
            -73.9408792,
            40.8323747
          ],
          [
            -73.9408993,
            40.8323137
          ],
          [
            -73.9409759,
            40.8320757
          ],
          [
            -73.9410137,
            40.8319588
          ],
          [
            -73.9410779,
            40.8317605
          ],
          [
            -73.9411243,
            40.831617
          ],
          [
            -73.9411272,
            40.8316081
          ],
          [
            -73.9412136,
            40.8313508
          ],
          [
            -73.9413327,
            40.8309961
          ],
          [
            -73.941368,
            40.830891
          ],
          [
            -73.9414116,
            40.8307845
          ],
          [
            -73.9415,
            40.8305684
          ],
          [
            -73.9416494,
            40.8302031
          ],
          [
            -73.941667,
            40.83016
          ],
          [
            -73.9416948,
            40.8300879
          ],
          [
            -73.9418535,
            40.8296773
          ],
          [
            -73.9419219,
            40.8295002
          ],
          [
            -73.9419307,
            40.8294775
          ],
          [
            -73.9419432,
            40.8294451
          ],
          [
            -73.9419663,
            40.8293829
          ],
          [
            -73.9420124,
            40.8292591
          ],
          [
            -73.9420399,
            40.829193
          ],
          [
            -73.9421149,
            40.8290059
          ],
          [
            -73.9421961,
            40.828805
          ],
          [
            -73.942224,
            40.828736
          ],
          [
            -73.9422606,
            40.8286455
          ],
          [
            -73.9424773,
            40.8281091
          ],
          [
            -73.9425031,
            40.8280452
          ],
          [
            -73.9425315,
            40.8279768
          ],
          [
            -73.9425429,
            40.8279494
          ],
          [
            -73.9425935,
            40.8278211
          ],
          [
            -73.9427414,
            40.8274463
          ],
          [
            -73.942756,
            40.8274129
          ],
          [
            -73.9427817,
            40.8273441
          ],
          [
            -73.9428043,
            40.8272872
          ],
          [
            -73.9430315,
            40.8267144
          ],
          [
            -73.9430556,
            40.8266537
          ],
          [
            -73.9430834,
            40.8265901
          ],
          [
            -73.9431638,
            40.8264027
          ],
          [
            -73.9433352,
            40.8260229
          ],
          [
            -73.943357,
            40.825956
          ],
          [
            -73.9433964,
            40.8259021
          ],
          [
            -73.9435475,
            40.8256953
          ],
          [
            -73.943551,
            40.8256906
          ],
          [
            -73.9436124,
            40.8256064
          ],
          [
            -73.943774,
            40.8253854
          ],
          [
            -73.943813,
            40.825332
          ],
          [
            -73.9438628,
            40.8252632
          ],
          [
            -73.9440139,
            40.8250545
          ],
          [
            -73.9442326,
            40.8247537
          ],
          [
            -73.944268,
            40.824705
          ],
          [
            -73.9442975,
            40.8246655
          ],
          [
            -73.9445177,
            40.8243708
          ],
          [
            -73.9445457,
            40.8243333
          ],
          [
            -73.9446879,
            40.8241441
          ],
          [
            -73.9447637,
            40.8240402
          ],
          [
            -73.9448113,
            40.8239748
          ],
          [
            -73.9448313,
            40.8239423
          ],
          [
            -73.9448568,
            40.8239008
          ],
          [
            -73.9449209,
            40.8237625
          ],
          [
            -73.9449363,
            40.8237293
          ],
          [
            -73.9451475,
            40.8232734
          ],
          [
            -73.9459527,
            40.8215357
          ],
          [
            -73.9460458,
            40.8213333
          ],
          [
            -73.9460787,
            40.8212637
          ],
          [
            -73.946105,
            40.8212076
          ],
          [
            -73.9461243,
            40.8211665
          ],
          [
            -73.9461879,
            40.8210308
          ],
          [
            -73.9462085,
            40.8209869
          ],
          [
            -73.9462384,
            40.820923
          ],
          [
            -73.9462806,
            40.8208331
          ],
          [
            -73.9463722,
            40.8206336
          ],
          [
            -73.9463959,
            40.8205827
          ],
          [
            -73.9464302,
            40.8205091
          ],
          [
            -73.9466829,
            40.8199688
          ],
          [
            -73.9467125,
            40.819903
          ],
          [
            -73.9467383,
            40.8198513
          ],
          [
            -73.9469155,
            40.8194689
          ],
          [
            -73.9470016,
            40.8192829
          ],
          [
            -73.9470312,
            40.8192188
          ],
          [
            -73.947064,
            40.8191486
          ],
          [
            -73.9471192,
            40.8190304
          ],
          [
            -73.9473235,
            40.8185915
          ],
          [
            -73.9473494,
            40.8185359
          ],
          [
            -73.9473796,
            40.818471
          ],
          [
            -73.9475395,
            40.8181273
          ],
          [
            -73.9476349,
            40.8179229
          ],
          [
            -73.9476667,
            40.8178547
          ],
          [
            -73.9476931,
            40.8177976
          ],
          [
            -73.9478646,
            40.8174271
          ],
          [
            -73.9479368,
            40.8172716
          ],
          [
            -73.9479608,
            40.81722
          ],
          [
            -73.948009,
            40.817116
          ],
          [
            -73.9480524,
            40.8170231
          ],
          [
            -73.9482239,
            40.8166564
          ],
          [
            -73.9483242,
            40.8164419
          ],
          [
            -73.948356,
            40.816374
          ],
          [
            -73.9483771,
            40.8163292
          ],
          [
            -73.9486452,
            40.8157596
          ],
          [
            -73.948677,
            40.815692
          ],
          [
            -73.9486963,
            40.8156485
          ],
          [
            -73.9487207,
            40.8155985
          ],
          [
            -73.9487652,
            40.8155075
          ],
          [
            -73.9488327,
            40.8153695
          ],
          [
            -73.948855,
            40.815324
          ],
          [
            -73.94902,
            40.815021
          ],
          [
            -73.9490692,
            40.8149408
          ],
          [
            -73.949189,
            40.814737
          ],
          [
            -73.949396,
            40.814421
          ],
          [
            -73.9494606,
            40.8143308
          ],
          [
            -73.9495495,
            40.8142042
          ],
          [
            -73.949623,
            40.814104
          ],
          [
            -73.9498397,
            40.8138272
          ],
          [
            -73.949861,
            40.8138
          ],
          [
            -73.9498821,
            40.8137724
          ],
          [
            -73.9499243,
            40.8137171
          ],
          [
            -73.9502049,
            40.8133492
          ],
          [
            -73.950303,
            40.8132206
          ],
          [
            -73.95035,
            40.813159
          ],
          [
            -73.9503836,
            40.813125
          ],
          [
            -73.9507276,
            40.8127769
          ],
          [
            -73.9508656,
            40.8126371
          ],
          [
            -73.950927,
            40.812575
          ],
          [
            -73.9509583,
            40.8125444
          ],
          [
            -73.9508607,
            40.8124827
          ],
          [
            -73.9513125,
            40.8120237
          ],
          [
            -73.9513693,
            40.8119601
          ],
          [
            -73.9514219,
            40.8119012
          ],
          [
            -73.9519046,
            40.8114401
          ],
          [
            -73.9519681,
            40.811386
          ],
          [
            -73.9520238,
            40.8113351
          ],
          [
            -73.9523861,
            40.8108179
          ],
          [
            -73.9524018,
            40.8107956
          ],
          [
            -73.9524625,
            40.8107133
          ],
          [
            -73.9525113,
            40.810649
          ],
          [
            -73.9525265,
            40.8106271
          ],
          [
            -73.9529052,
            40.8100958
          ],
          [
            -73.9529034,
            40.810072
          ],
          [
            -73.9529028,
            40.8100154
          ],
          [
            -73.9529024,
            40.8099703
          ],
          [
            -73.9529021,
            40.8099493
          ],
          [
            -73.9529021,
            40.8099137
          ],
          [
            -73.9528546,
            40.8092417
          ],
          [
            -73.9528578,
            40.809176
          ],
          [
            -73.9528546,
            40.8091136
          ],
          [
            -73.9528355,
            40.8091059
          ],
          [
            -73.952807,
            40.80842
          ],
          [
            -73.9528252,
            40.8083446
          ],
          [
            -73.952842,
            40.8082747
          ],
          [
            -73.9527652,
            40.8082166
          ],
          [
            -73.9528497,
            40.8080444
          ],
          [
            -73.9529286,
            40.8079461
          ],
          [
            -73.9530085,
            40.8078441
          ],
          [
            -73.9530532,
            40.8078298
          ],
          [
            -73.9531181,
            40.8077184
          ],
          [
            -73.9531301,
            40.8077027
          ],
          [
            -73.9531615,
            40.8076614
          ],
          [
            -73.9531888,
            40.8076286
          ],
          [
            -73.9532066,
            40.8076059
          ],
          [
            -73.9531721,
            40.8075794
          ],
          [
            -73.9531044,
            40.8075177
          ],
          [
            -73.9530266,
            40.8074475
          ],
          [
            -73.9530041,
            40.8068514
          ],
          [
            -73.953003,
            40.8067712
          ],
          [
            -73.9530019,
            40.8066948
          ],
          [
            -73.9529497,
            40.8060164
          ],
          [
            -73.9529469,
            40.8059388
          ],
          [
            -73.9529442,
            40.8058626
          ],
          [
            -73.9529114,
            40.8051756
          ],
          [
            -73.9529044,
            40.8050897
          ],
          [
            -73.952899,
            40.8050239
          ],
          [
            -73.9528573,
            40.8043314
          ],
          [
            -73.952857,
            40.8043097
          ],
          [
            -73.9528562,
            40.8042495
          ],
          [
            -73.9528556,
            40.8042097
          ],
          [
            -73.9528551,
            40.8041698
          ],
          [
            -73.9528024,
            40.803473
          ],
          [
            -73.9527813,
            40.8034637
          ],
          [
            -73.9527399,
            40.8034458
          ],
          [
            -73.9527175,
            40.8034365
          ],
          [
            -73.9526472,
            40.8034085
          ],
          [
            -73.9526638,
            40.8033872
          ],
          [
            -73.9527267,
            40.8033041
          ],
          [
            -73.9527801,
            40.8032334
          ],
          [
            -73.9527877,
            40.8032233
          ],
          [
            -73.9531573,
            40.8027124
          ],
          [
            -73.9531739,
            40.8026897
          ],
          [
            -73.9531869,
            40.8026719
          ],
          [
            -73.9532175,
            40.802631
          ],
          [
            -73.9532454,
            40.8025938
          ],
          [
            -73.953252,
            40.8025838
          ],
          [
            -73.9532586,
            40.8025738
          ],
          [
            -73.9536242,
            40.8020607
          ],
          [
            -73.9536366,
            40.8020432
          ],
          [
            -73.9536671,
            40.8020002
          ],
          [
            -73.9536895,
            40.80197
          ],
          [
            -73.9537065,
            40.8019461
          ],
          [
            -73.9540812,
            40.8014319
          ],
          [
            -73.9540946,
            40.8014134
          ],
          [
            -73.9541263,
            40.8013698
          ],
          [
            -73.9541481,
            40.8013398
          ],
          [
            -73.954163,
            40.8013192
          ],
          [
            -73.9545542,
            40.8007989
          ],
          [
            -73.9545628,
            40.800787
          ],
          [
            -73.9545948,
            40.8007428
          ],
          [
            -73.954615,
            40.8007145
          ],
          [
            -73.9546286,
            40.8006961
          ],
          [
            -73.9549975,
            40.8001809
          ],
          [
            -73.9550149,
            40.8001566
          ],
          [
            -73.9550395,
            40.8001222
          ],
          [
            -73.9550688,
            40.8000823
          ],
          [
            -73.9550832,
            40.8000626
          ],
          [
            -73.9554211,
            40.7996013
          ],
          [
            -73.9554371,
            40.7995779
          ],
          [
            -73.9554788,
            40.7995158
          ],
          [
            -73.9555137,
            40.7994638
          ],
          [
            -73.9555392,
            40.7994245
          ],
          [
            -73.9555689,
            40.7993937
          ],
          [
            -73.9555915,
            40.7993784
          ],
          [
            -73.9556289,
            40.7993617
          ],
          [
            -73.9556714,
            40.7993529
          ],
          [
            -73.9557156,
            40.7993466
          ],
          [
            -73.955756,
            40.7993421
          ],
          [
            -73.9557975,
            40.7993418
          ],
          [
            -73.9558414,
            40.7993442
          ],
          [
            -73.9559264,
            40.7993563
          ],
          [
            -73.9560182,
            40.7993762
          ],
          [
            -73.956103,
            40.7993982
          ],
          [
            -73.9561677,
            40.7994179
          ],
          [
            -73.9562009,
            40.7994277
          ],
          [
            -73.9562143,
            40.7994321
          ],
          [
            -73.9562294,
            40.7994338
          ],
          [
            -73.9562424,
            40.799432
          ],
          [
            -73.9562545,
            40.7994251
          ],
          [
            -73.9562635,
            40.7994143
          ],
          [
            -73.956273,
            40.7993979
          ],
          [
            -73.9562823,
            40.7993772
          ],
          [
            -73.9562937,
            40.7993472
          ],
          [
            -73.9563072,
            40.799312
          ],
          [
            -73.9563169,
            40.7992748
          ],
          [
            -73.9563175,
            40.7992676
          ],
          [
            -73.9563174,
            40.7992589
          ],
          [
            -73.9563159,
            40.799251
          ],
          [
            -73.9563076,
            40.799232
          ],
          [
            -73.9562964,
            40.799215
          ],
          [
            -73.9562808,
            40.7991982
          ],
          [
            -73.9562666,
            40.7991873
          ],
          [
            -73.9562446,
            40.7991769
          ],
          [
            -73.9561989,
            40.7991616
          ],
          [
            -73.9561636,
            40.7991468
          ],
          [
            -73.9561482,
            40.7991377
          ],
          [
            -73.9561321,
            40.7991264
          ],
          [
            -73.9561238,
            40.7991153
          ],
          [
            -73.9561208,
            40.7991051
          ],
          [
            -73.9561205,
            40.7990951
          ],
          [
            -73.956128,
            40.7990826
          ],
          [
            -73.9561452,
            40.7990753
          ],
          [
            -73.9561591,
            40.7990693
          ],
          [
            -73.9561816,
            40.7990628
          ],
          [
            -73.9562116,
            40.7990503
          ],
          [
            -73.9562379,
            40.7990423
          ],
          [
            -73.9562806,
            40.7990327
          ],
          [
            -73.9563167,
            40.7990253
          ],
          [
            -73.9563549,
            40.7990139
          ],
          [
            -73.9563774,
            40.7990045
          ],
          [
            -73.9564005,
            40.7989871
          ],
          [
            -73.9564284,
            40.7989781
          ],
          [
            -73.9564547,
            40.7989764
          ],
          [
            -73.9564832,
            40.798973
          ],
          [
            -73.9565065,
            40.7989707
          ],
          [
            -73.9565185,
            40.7989668
          ],
          [
            -73.9565312,
            40.7989605
          ],
          [
            -73.9565455,
            40.7989531
          ],
          [
            -73.956559,
            40.7989446
          ],
          [
            -73.9565665,
            40.7989406
          ],
          [
            -73.956574,
            40.7989384
          ],
          [
            -73.9565823,
            40.7989378
          ],
          [
            -73.9565913,
            40.7989389
          ],
          [
            -73.956604,
            40.7989429
          ],
          [
            -73.9566168,
            40.7989492
          ],
          [
            -73.9566438,
            40.7989611
          ],
          [
            -73.956655,
            40.7989639
          ],
          [
            -73.9566715,
            40.7989639
          ],
          [
            -73.956682,
            40.7989628
          ],
          [
            -73.9566971,
            40.79896
          ],
          [
            -73.9567136,
            40.7989583
          ],
          [
            -73.9567346,
            40.798956
          ],
          [
            -73.9567736,
            40.7989452
          ],
          [
            -73.9567833,
            40.7989389
          ],
          [
            -73.9567931,
            40.7989293
          ],
          [
            -73.9568028,
            40.7989179
          ],
          [
            -73.9568058,
            40.7989077
          ],
          [
            -73.9568088,
            40.7988969
          ],
          [
            -73.9568103,
            40.7988844
          ],
          [
            -73.9568096,
            40.7988662
          ],
          [
            -73.9568066,
            40.7988543
          ],
          [
            -73.9568006,
            40.7988401
          ],
          [
            -73.9567856,
            40.7988191
          ],
          [
            -73.9567638,
            40.7987992
          ],
          [
            -73.9567413,
            40.7987816
          ],
          [
            -73.9567128,
            40.7987629
          ],
          [
            -73.9566708,
            40.7987367
          ],
          [
            -73.9566408,
            40.798718
          ],
          [
            -73.9566123,
            40.7987004
          ],
          [
            -73.9565883,
            40.7986873
          ],
          [
            -73.9565725,
            40.7986799
          ],
          [
            -73.9565507,
            40.7986731
          ],
          [
            -73.9565245,
            40.7986686
          ],
          [
            -73.9565162,
            40.7986674
          ],
          [
            -73.9565237,
            40.7986277
          ],
          [
            -73.9565275,
            40.7986027
          ],
          [
            -73.956532,
            40.7985709
          ],
          [
            -73.956535,
            40.7985442
          ],
          [
            -73.956538,
            40.798509
          ],
          [
            -73.9565426,
            40.7984776
          ],
          [
            -73.956538,
            40.798509
          ],
          [
            -73.956535,
            40.7985442
          ],
          [
            -73.956532,
            40.7985709
          ],
          [
            -73.9565275,
            40.7986027
          ],
          [
            -73.9565237,
            40.7986277
          ],
          [
            -73.9565162,
            40.7986674
          ],
          [
            -73.9565245,
            40.7986686
          ],
          [
            -73.9565507,
            40.7986731
          ],
          [
            -73.9565725,
            40.7986799
          ],
          [
            -73.9565883,
            40.7986873
          ],
          [
            -73.9566123,
            40.7987004
          ],
          [
            -73.9566408,
            40.798718
          ],
          [
            -73.9566708,
            40.7987367
          ],
          [
            -73.9567128,
            40.7987629
          ],
          [
            -73.9567413,
            40.7987816
          ],
          [
            -73.9567638,
            40.7987992
          ],
          [
            -73.9567856,
            40.7988191
          ],
          [
            -73.9568006,
            40.7988401
          ],
          [
            -73.9568066,
            40.7988543
          ],
          [
            -73.9568096,
            40.7988662
          ],
          [
            -73.9568103,
            40.7988844
          ],
          [
            -73.9568088,
            40.7988969
          ],
          [
            -73.9568058,
            40.7989077
          ],
          [
            -73.9568028,
            40.7989179
          ],
          [
            -73.9567931,
            40.7989293
          ],
          [
            -73.9567833,
            40.7989389
          ],
          [
            -73.9567736,
            40.7989452
          ],
          [
            -73.9567346,
            40.798956
          ],
          [
            -73.9567136,
            40.7989583
          ],
          [
            -73.9566971,
            40.79896
          ],
          [
            -73.956682,
            40.7989628
          ],
          [
            -73.9566715,
            40.7989639
          ],
          [
            -73.956655,
            40.7989639
          ],
          [
            -73.9566438,
            40.7989611
          ],
          [
            -73.9566168,
            40.7989492
          ],
          [
            -73.956604,
            40.7989429
          ],
          [
            -73.9565913,
            40.7989389
          ],
          [
            -73.9565823,
            40.7989378
          ],
          [
            -73.956574,
            40.7989384
          ],
          [
            -73.9565665,
            40.7989406
          ],
          [
            -73.956559,
            40.7989446
          ],
          [
            -73.9565455,
            40.7989531
          ],
          [
            -73.9565312,
            40.7989605
          ],
          [
            -73.9565185,
            40.7989668
          ],
          [
            -73.9565065,
            40.7989707
          ],
          [
            -73.9564832,
            40.798973
          ],
          [
            -73.9564547,
            40.7989764
          ],
          [
            -73.9564284,
            40.7989781
          ],
          [
            -73.9564005,
            40.7989871
          ],
          [
            -73.9563774,
            40.7990045
          ],
          [
            -73.9563549,
            40.7990139
          ],
          [
            -73.9563167,
            40.7990253
          ],
          [
            -73.9562806,
            40.7990327
          ],
          [
            -73.9562379,
            40.7990423
          ],
          [
            -73.9562116,
            40.7990503
          ],
          [
            -73.9561816,
            40.7990628
          ],
          [
            -73.9561591,
            40.7990693
          ],
          [
            -73.9561452,
            40.7990753
          ],
          [
            -73.956128,
            40.7990826
          ],
          [
            -73.9561205,
            40.7990951
          ],
          [
            -73.9561208,
            40.7991051
          ],
          [
            -73.9561238,
            40.7991153
          ],
          [
            -73.9561321,
            40.7991264
          ],
          [
            -73.9561482,
            40.7991377
          ],
          [
            -73.9561636,
            40.7991468
          ],
          [
            -73.9561989,
            40.7991616
          ],
          [
            -73.9562446,
            40.7991769
          ],
          [
            -73.9562666,
            40.7991873
          ],
          [
            -73.9562808,
            40.7991982
          ],
          [
            -73.9562964,
            40.799215
          ],
          [
            -73.9563076,
            40.799232
          ],
          [
            -73.9563159,
            40.799251
          ],
          [
            -73.9563174,
            40.7992589
          ],
          [
            -73.9563175,
            40.7992676
          ],
          [
            -73.9563169,
            40.7992748
          ],
          [
            -73.9563072,
            40.799312
          ],
          [
            -73.9562937,
            40.7993472
          ],
          [
            -73.9562823,
            40.7993772
          ],
          [
            -73.956273,
            40.7993979
          ],
          [
            -73.9562635,
            40.7994143
          ],
          [
            -73.9562545,
            40.7994251
          ],
          [
            -73.9562424,
            40.799432
          ],
          [
            -73.9562294,
            40.7994338
          ],
          [
            -73.9562143,
            40.7994321
          ],
          [
            -73.9562009,
            40.7994277
          ],
          [
            -73.9561677,
            40.7994179
          ],
          [
            -73.956103,
            40.7993982
          ],
          [
            -73.9560182,
            40.7993762
          ],
          [
            -73.9559264,
            40.7993563
          ],
          [
            -73.9558414,
            40.7993442
          ],
          [
            -73.9557975,
            40.7993418
          ],
          [
            -73.955756,
            40.7993421
          ],
          [
            -73.9557156,
            40.7993466
          ],
          [
            -73.9556714,
            40.7993529
          ],
          [
            -73.9556289,
            40.7993617
          ],
          [
            -73.9555915,
            40.7993784
          ],
          [
            -73.9555689,
            40.7993937
          ],
          [
            -73.9555392,
            40.7994245
          ],
          [
            -73.9555137,
            40.7994638
          ],
          [
            -73.9554788,
            40.7995158
          ],
          [
            -73.9554371,
            40.7995779
          ],
          [
            -73.9554211,
            40.7996013
          ],
          [
            -73.9550832,
            40.8000626
          ],
          [
            -73.9550688,
            40.8000823
          ],
          [
            -73.9550395,
            40.8001222
          ],
          [
            -73.9550149,
            40.8001566
          ],
          [
            -73.9549975,
            40.8001809
          ],
          [
            -73.9546286,
            40.8006961
          ],
          [
            -73.954615,
            40.8007145
          ],
          [
            -73.9545948,
            40.8007428
          ],
          [
            -73.9545628,
            40.800787
          ],
          [
            -73.9545542,
            40.8007989
          ],
          [
            -73.954163,
            40.8013192
          ],
          [
            -73.9541481,
            40.8013398
          ],
          [
            -73.9541263,
            40.8013698
          ],
          [
            -73.9540946,
            40.8014134
          ],
          [
            -73.9540812,
            40.8014319
          ],
          [
            -73.9537065,
            40.8019461
          ],
          [
            -73.9536895,
            40.80197
          ],
          [
            -73.9536671,
            40.8020002
          ],
          [
            -73.9536366,
            40.8020432
          ],
          [
            -73.9536242,
            40.8020607
          ],
          [
            -73.9532586,
            40.8025738
          ],
          [
            -73.953252,
            40.8025838
          ],
          [
            -73.9532454,
            40.8025938
          ],
          [
            -73.9532175,
            40.802631
          ],
          [
            -73.9531869,
            40.8026719
          ],
          [
            -73.9531739,
            40.8026897
          ],
          [
            -73.9531573,
            40.8027124
          ],
          [
            -73.9527877,
            40.8032233
          ],
          [
            -73.9527801,
            40.8032334
          ],
          [
            -73.9527267,
            40.8033041
          ],
          [
            -73.9526638,
            40.8033872
          ],
          [
            -73.9526472,
            40.8034085
          ],
          [
            -73.9527175,
            40.8034365
          ],
          [
            -73.9527399,
            40.8034458
          ],
          [
            -73.9527813,
            40.8034637
          ],
          [
            -73.9528024,
            40.803473
          ],
          [
            -73.9528551,
            40.8041698
          ],
          [
            -73.9528556,
            40.8042097
          ],
          [
            -73.9528562,
            40.8042495
          ],
          [
            -73.952857,
            40.8043097
          ],
          [
            -73.9528573,
            40.8043314
          ],
          [
            -73.952899,
            40.8050239
          ],
          [
            -73.9529044,
            40.8050897
          ],
          [
            -73.9529114,
            40.8051756
          ],
          [
            -73.9529442,
            40.8058626
          ],
          [
            -73.9529469,
            40.8059388
          ],
          [
            -73.9529497,
            40.8060164
          ],
          [
            -73.9530019,
            40.8066948
          ],
          [
            -73.953003,
            40.8067712
          ],
          [
            -73.9530041,
            40.8068514
          ],
          [
            -73.9530266,
            40.8074475
          ],
          [
            -73.9531044,
            40.8075177
          ],
          [
            -73.9531721,
            40.8075794
          ],
          [
            -73.9532066,
            40.8076059
          ],
          [
            -73.9531888,
            40.8076286
          ],
          [
            -73.9531615,
            40.8076614
          ],
          [
            -73.9531301,
            40.8077027
          ],
          [
            -73.9531181,
            40.8077184
          ],
          [
            -73.9530532,
            40.8078298
          ],
          [
            -73.9530085,
            40.8078441
          ],
          [
            -73.9529286,
            40.8079461
          ],
          [
            -73.9528497,
            40.8080444
          ],
          [
            -73.9527652,
            40.8082166
          ],
          [
            -73.952842,
            40.8082747
          ],
          [
            -73.9528252,
            40.8083446
          ],
          [
            -73.952807,
            40.80842
          ],
          [
            -73.9528355,
            40.8091059
          ],
          [
            -73.9528546,
            40.8091136
          ],
          [
            -73.9528578,
            40.809176
          ],
          [
            -73.9528546,
            40.8092417
          ],
          [
            -73.9529021,
            40.8099137
          ],
          [
            -73.9529021,
            40.8099493
          ],
          [
            -73.9529024,
            40.8099703
          ],
          [
            -73.9529028,
            40.8100154
          ],
          [
            -73.9529034,
            40.810072
          ],
          [
            -73.9529052,
            40.8100958
          ],
          [
            -73.9525265,
            40.8106271
          ],
          [
            -73.9525113,
            40.810649
          ],
          [
            -73.9524625,
            40.8107133
          ],
          [
            -73.9524018,
            40.8107956
          ],
          [
            -73.9523861,
            40.8108179
          ],
          [
            -73.9520238,
            40.8113351
          ],
          [
            -73.9519681,
            40.811386
          ],
          [
            -73.9519046,
            40.8114401
          ],
          [
            -73.9514219,
            40.8119012
          ],
          [
            -73.9513693,
            40.8119601
          ],
          [
            -73.9513125,
            40.8120237
          ],
          [
            -73.9508607,
            40.8124827
          ],
          [
            -73.9509583,
            40.8125444
          ],
          [
            -73.950927,
            40.812575
          ],
          [
            -73.9508656,
            40.8126371
          ],
          [
            -73.9507276,
            40.8127769
          ],
          [
            -73.9503836,
            40.813125
          ],
          [
            -73.95035,
            40.813159
          ],
          [
            -73.950303,
            40.8132206
          ],
          [
            -73.9502049,
            40.8133492
          ],
          [
            -73.9499243,
            40.8137171
          ],
          [
            -73.9498821,
            40.8137724
          ],
          [
            -73.949861,
            40.8138
          ],
          [
            -73.9498397,
            40.8138272
          ],
          [
            -73.949623,
            40.814104
          ],
          [
            -73.9495495,
            40.8142042
          ],
          [
            -73.9494606,
            40.8143308
          ],
          [
            -73.949396,
            40.814421
          ],
          [
            -73.949189,
            40.814737
          ],
          [
            -73.9490692,
            40.8149408
          ],
          [
            -73.94902,
            40.815021
          ],
          [
            -73.948855,
            40.815324
          ],
          [
            -73.9488327,
            40.8153695
          ],
          [
            -73.9487652,
            40.8155075
          ],
          [
            -73.9487207,
            40.8155985
          ],
          [
            -73.9486963,
            40.8156485
          ],
          [
            -73.948677,
            40.815692
          ],
          [
            -73.9486452,
            40.8157596
          ],
          [
            -73.9483771,
            40.8163292
          ],
          [
            -73.948356,
            40.816374
          ],
          [
            -73.9483242,
            40.8164419
          ],
          [
            -73.9482239,
            40.8166564
          ],
          [
            -73.9480524,
            40.8170231
          ],
          [
            -73.948009,
            40.817116
          ],
          [
            -73.9479608,
            40.81722
          ],
          [
            -73.9479368,
            40.8172716
          ],
          [
            -73.9478646,
            40.8174271
          ],
          [
            -73.9476931,
            40.8177976
          ],
          [
            -73.9476667,
            40.8178547
          ],
          [
            -73.9476349,
            40.8179229
          ],
          [
            -73.9475395,
            40.8181273
          ],
          [
            -73.9473796,
            40.818471
          ],
          [
            -73.9473494,
            40.8185359
          ],
          [
            -73.9473235,
            40.8185915
          ],
          [
            -73.9471192,
            40.8190304
          ],
          [
            -73.947064,
            40.8191486
          ],
          [
            -73.9470312,
            40.8192188
          ],
          [
            -73.9470016,
            40.8192829
          ],
          [
            -73.9469155,
            40.8194689
          ],
          [
            -73.9467383,
            40.8198513
          ],
          [
            -73.9467125,
            40.819903
          ],
          [
            -73.9466829,
            40.8199688
          ],
          [
            -73.9464302,
            40.8205091
          ],
          [
            -73.9463959,
            40.8205827
          ],
          [
            -73.9463722,
            40.8206336
          ],
          [
            -73.9462806,
            40.8208331
          ],
          [
            -73.9462384,
            40.820923
          ],
          [
            -73.9462085,
            40.8209869
          ],
          [
            -73.9461879,
            40.8210308
          ],
          [
            -73.9461243,
            40.8211665
          ],
          [
            -73.946105,
            40.8212076
          ],
          [
            -73.9460787,
            40.8212637
          ],
          [
            -73.9460458,
            40.8213333
          ],
          [
            -73.9459527,
            40.8215357
          ],
          [
            -73.9451475,
            40.8232734
          ],
          [
            -73.9449363,
            40.8237293
          ],
          [
            -73.9449209,
            40.8237625
          ],
          [
            -73.9448568,
            40.8239008
          ],
          [
            -73.9448313,
            40.8239423
          ],
          [
            -73.9448113,
            40.8239748
          ],
          [
            -73.9447637,
            40.8240402
          ],
          [
            -73.9446879,
            40.8241441
          ],
          [
            -73.9445457,
            40.8243333
          ],
          [
            -73.9445177,
            40.8243708
          ],
          [
            -73.9442975,
            40.8246655
          ],
          [
            -73.944268,
            40.824705
          ],
          [
            -73.9442326,
            40.8247537
          ],
          [
            -73.9440139,
            40.8250545
          ],
          [
            -73.9438628,
            40.8252632
          ],
          [
            -73.943813,
            40.825332
          ],
          [
            -73.943774,
            40.8253854
          ],
          [
            -73.9436124,
            40.8256064
          ],
          [
            -73.943551,
            40.8256906
          ],
          [
            -73.9435475,
            40.8256953
          ],
          [
            -73.9433964,
            40.8259021
          ],
          [
            -73.943357,
            40.825956
          ],
          [
            -73.9433352,
            40.8260229
          ],
          [
            -73.9431638,
            40.8264027
          ],
          [
            -73.9430834,
            40.8265901
          ],
          [
            -73.9430556,
            40.8266537
          ],
          [
            -73.9430315,
            40.8267144
          ],
          [
            -73.9428043,
            40.8272872
          ],
          [
            -73.9427817,
            40.8273441
          ],
          [
            -73.942756,
            40.8274129
          ],
          [
            -73.9427414,
            40.8274463
          ],
          [
            -73.9425935,
            40.8278211
          ],
          [
            -73.9425429,
            40.8279494
          ],
          [
            -73.9425315,
            40.8279768
          ],
          [
            -73.9425031,
            40.8280452
          ],
          [
            -73.9424773,
            40.8281091
          ],
          [
            -73.9422606,
            40.8286455
          ],
          [
            -73.942224,
            40.828736
          ],
          [
            -73.9421961,
            40.828805
          ],
          [
            -73.9421149,
            40.8290059
          ],
          [
            -73.9420399,
            40.829193
          ],
          [
            -73.9420124,
            40.8292591
          ],
          [
            -73.9419663,
            40.8293829
          ],
          [
            -73.9419432,
            40.8294451
          ],
          [
            -73.9419307,
            40.8294775
          ],
          [
            -73.9419219,
            40.8295002
          ],
          [
            -73.9418535,
            40.8296773
          ],
          [
            -73.9416948,
            40.8300879
          ],
          [
            -73.941667,
            40.83016
          ],
          [
            -73.9416494,
            40.8302031
          ],
          [
            -73.9415,
            40.8305684
          ],
          [
            -73.9414116,
            40.8307845
          ],
          [
            -73.941368,
            40.830891
          ],
          [
            -73.9413327,
            40.8309961
          ],
          [
            -73.9412136,
            40.8313508
          ],
          [
            -73.9411272,
            40.8316081
          ],
          [
            -73.9411243,
            40.831617
          ],
          [
            -73.9410779,
            40.8317605
          ],
          [
            -73.9410137,
            40.8319588
          ],
          [
            -73.9409759,
            40.8320757
          ],
          [
            -73.9408993,
            40.8323137
          ],
          [
            -73.9408792,
            40.8323747
          ],
          [
            -73.9408558,
            40.8324537
          ],
          [
            -73.9406709,
            40.8330409
          ],
          [
            -73.940653,
            40.833098
          ],
          [
            -73.9406224,
            40.8331698
          ],
          [
            -73.9403844,
            40.8337286
          ],
          [
            -73.94036,
            40.833786
          ],
          [
            -73.9403266,
            40.8338615
          ],
          [
            -73.9400741,
            40.8344332
          ],
          [
            -73.940048,
            40.8344923
          ],
          [
            -73.9400164,
            40.8345637
          ],
          [
            -73.93986,
            40.834918
          ],
          [
            -73.9397872,
            40.8350754
          ],
          [
            -73.9397416,
            40.8351698
          ],
          [
            -73.9397352,
            40.8352622
          ],
          [
            -73.9397338,
            40.8352806
          ],
          [
            -73.9397882,
            40.835558
          ],
          [
            -73.9397861,
            40.8355796
          ],
          [
            -73.9397775,
            40.8356016
          ],
          [
            -73.9397539,
            40.8356196
          ],
          [
            -73.9397277,
            40.8356298
          ],
          [
            -73.9397413,
            40.835676
          ],
          [
            -73.9398011,
            40.8357012
          ],
          [
            -73.9397818,
            40.8357278
          ],
          [
            -73.9397604,
            40.8357605
          ],
          [
            -73.9397975,
            40.8357792
          ],
          [
            -73.9398835,
            40.8358221
          ],
          [
            -73.9399834,
            40.8358785
          ],
          [
            -73.9399863,
            40.8358917
          ],
          [
            -73.9400362,
            40.8361153
          ],
          [
            -73.9400641,
            40.8362906
          ],
          [
            -73.9401287,
            40.8368944
          ],
          [
            -73.9401365,
            40.8369673
          ],
          [
            -73.9401239,
            40.837035
          ],
          [
            -73.9400085,
            40.8376528
          ],
          [
            -73.939994,
            40.837714
          ],
          [
            -73.9399789,
            40.8377935
          ],
          [
            -73.9399302,
            40.8380495
          ],
          [
            -73.9399035,
            40.8381898
          ],
          [
            -73.93986,
            40.8384189
          ],
          [
            -73.9398575,
            40.8384352
          ],
          [
            -73.9398455,
            40.8385135
          ],
          [
            -73.9398419,
            40.8386617
          ],
          [
            -73.9397005,
            40.8387098
          ],
          [
            -73.9397076,
            40.8387544
          ],
          [
            -73.9397073,
            40.8388155
          ],
          [
            -73.9397645,
            40.839437
          ],
          [
            -73.9397587,
            40.8394571
          ],
          [
            -73.9397466,
            40.8395113
          ],
          [
            -73.9397323,
            40.8395757
          ],
          [
            -73.9397266,
            40.839601
          ],
          [
            -73.9395756,
            40.8401629
          ],
          [
            -73.9395718,
            40.8401774
          ],
          [
            -73.9395623,
            40.8402109
          ],
          [
            -73.9395477,
            40.8402651
          ],
          [
            -73.9395406,
            40.8402914
          ],
          [
            -73.9393982,
            40.840827
          ],
          [
            -73.9393906,
            40.8408561
          ],
          [
            -73.9393717,
            40.840913
          ],
          [
            -73.939355,
            40.8409758
          ],
          [
            -73.9393496,
            40.8409947
          ],
          [
            -73.9391933,
            40.8415518
          ],
          [
            -73.9391874,
            40.8415731
          ],
          [
            -73.9391772,
            40.8416189
          ],
          [
            -73.9391667,
            40.8416653
          ],
          [
            -73.93916,
            40.8416878
          ],
          [
            -73.9391735,
            40.8416934
          ],
          [
            -73.9391901,
            40.8417007
          ],
          [
            -73.9392178,
            40.8417128
          ],
          [
            -73.9391645,
            40.8418125
          ],
          [
            -73.9391604,
            40.8418721
          ],
          [
            -73.9391578,
            40.8419095
          ],
          [
            -73.9391196,
            40.8419836
          ],
          [
            -73.9391257,
            40.8422791
          ],
          [
            -73.9391227,
            40.8423197
          ],
          [
            -73.9391218,
            40.8423308
          ],
          [
            -73.9391196,
            40.8423586
          ],
          [
            -73.9391174,
            40.8423864
          ],
          [
            -73.9391162,
            40.8424119
          ],
          [
            -73.939115,
            40.8424374
          ],
          [
            -73.9391131,
            40.8424609
          ],
          [
            -73.9390531,
            40.8430966
          ],
          [
            -73.9390518,
            40.8431159
          ],
          [
            -73.9390481,
            40.8431682
          ],
          [
            -73.9390441,
            40.8432249
          ],
          [
            -73.9390424,
            40.8432498
          ],
          [
            -73.9389715,
            40.8435584
          ],
          [
            -73.938911,
            40.843822
          ],
          [
            -73.9389049,
            40.8438455
          ],
          [
            -73.9388941,
            40.8438867
          ],
          [
            -73.9388819,
            40.8439336
          ],
          [
            -73.9388761,
            40.8439559
          ],
          [
            -73.9387608,
            40.8445708
          ],
          [
            -73.9387559,
            40.8445997
          ],
          [
            -73.9387468,
            40.844654
          ],
          [
            -73.9387362,
            40.8447168
          ],
          [
            -73.9387326,
            40.8447382
          ],
          [
            -73.9386304,
            40.8451197
          ],
          [
            -73.9385961,
            40.8452478
          ],
          [
            -73.9385676,
            40.845354
          ],
          [
            -73.9385609,
            40.8453762
          ],
          [
            -73.9385504,
            40.8454111
          ],
          [
            -73.9385344,
            40.8454642
          ],
          [
            -73.9385241,
            40.8454985
          ],
          [
            -73.9383295,
            40.8461304
          ],
          [
            -73.9383141,
            40.8461804
          ],
          [
            -73.9382888,
            40.8462626
          ],
          [
            -73.9380976,
            40.8468838
          ],
          [
            -73.9380919,
            40.8469016
          ],
          [
            -73.9380775,
            40.8469528
          ],
          [
            -73.9380655,
            40.8469954
          ],
          [
            -73.9380567,
            40.8470188
          ],
          [
            -73.937872,
            40.8475953
          ],
          [
            -73.9378618,
            40.8476274
          ],
          [
            -73.9378498,
            40.8476592
          ],
          [
            -73.937833,
            40.847712
          ],
          [
            -73.9378246,
            40.8477313
          ],
          [
            -73.9375879,
            40.8482767
          ],
          [
            -73.9375656,
            40.8482974
          ],
          [
            -73.9375238,
            40.8483423
          ],
          [
            -73.9374685,
            40.8483903
          ],
          [
            -73.9374588,
            40.8484051
          ],
          [
            -73.9369426,
            40.848875
          ],
          [
            -73.9369286,
            40.8488883
          ],
          [
            -73.9368957,
            40.8489192
          ],
          [
            -73.9368497,
            40.8489627
          ],
          [
            -73.9368338,
            40.8489771
          ],
          [
            -73.9363235,
            40.8494356
          ],
          [
            -73.9363025,
            40.8494542
          ],
          [
            -73.9362658,
            40.8494845
          ],
          [
            -73.936229,
            40.8495148
          ],
          [
            -73.9362042,
            40.8495372
          ],
          [
            -73.935932,
            40.8497836
          ],
          [
            -73.9356603,
            40.8500336
          ],
          [
            -73.9356376,
            40.8500544
          ],
          [
            -73.9356068,
            40.8501265
          ],
          [
            -73.9355835,
            40.8501827
          ],
          [
            -73.9355721,
            40.8502051
          ],
          [
            -73.9353336,
            40.8506761
          ],
          [
            -73.9353199,
            40.8507028
          ],
          [
            -73.9353082,
            40.8507263
          ],
          [
            -73.9352785,
            40.8507802
          ],
          [
            -73.9352739,
            40.850794
          ],
          [
            -73.9350045,
            40.8513167
          ],
          [
            -73.9349915,
            40.8513421
          ],
          [
            -73.9349705,
            40.8513868
          ],
          [
            -73.9349311,
            40.8514593
          ],
          [
            -73.9349221,
            40.8514774
          ],
          [
            -73.9346769,
            40.851968
          ],
          [
            -73.9346653,
            40.8519911
          ],
          [
            -73.9346542,
            40.8520093
          ],
          [
            -73.9346178,
            40.8520697
          ],
          [
            -73.9346082,
            40.8520887
          ],
          [
            -73.9343533,
            40.8525918
          ],
          [
            -73.9343401,
            40.8526178
          ],
          [
            -73.9343129,
            40.8526788
          ],
          [
            -73.9342824,
            40.8527299
          ],
          [
            -73.9342705,
            40.8527543
          ],
          [
            -73.9340966,
            40.8531106
          ],
          [
            -73.9340432,
            40.8532174
          ],
          [
            -73.9339532,
            40.8533973
          ],
          [
            -73.9336039,
            40.8540632
          ],
          [
            -73.9335901,
            40.8540894
          ],
          [
            -73.9335694,
            40.8541399
          ],
          [
            -73.9335425,
            40.8542054
          ],
          [
            -73.933535,
            40.8542282
          ],
          [
            -73.9331975,
            40.8552585
          ],
          [
            -73.9331577,
            40.8553802
          ],
          [
            -73.9330944,
            40.8555739
          ],
          [
            -73.9329582,
            40.8558338
          ],
          [
            -73.9326357,
            40.8564349
          ],
          [
            -73.9325431,
            40.8566138
          ],
          [
            -73.9325332,
            40.8566331
          ],
          [
            -73.9325079,
            40.8566829
          ],
          [
            -73.9324817,
            40.8567346
          ],
          [
            -73.9324746,
            40.856748
          ],
          [
            -73.9319511,
            40.857737
          ],
          [
            -73.9318851,
            40.8578668
          ],
          [
            -73.9317223,
            40.8581768
          ],
          [
            -73.9317106,
            40.8581989
          ],
          [
            -73.9316921,
            40.8582329
          ],
          [
            -73.9316699,
            40.8582739
          ],
          [
            -73.9316614,
            40.8582896
          ],
          [
            -73.9312485,
            40.8590849
          ],
          [
            -73.9312457,
            40.8590902
          ],
          [
            -73.931236,
            40.8591233
          ],
          [
            -73.9312315,
            40.8591582
          ],
          [
            -73.9312277,
            40.8591884
          ],
          [
            -73.9312161,
            40.8592396
          ],
          [
            -73.9312057,
            40.8592692
          ],
          [
            -73.9311946,
            40.8593214
          ],
          [
            -73.9311788,
            40.8593955
          ],
          [
            -73.9311741,
            40.8594122
          ],
          [
            -73.9311447,
            40.8594863
          ],
          [
            -73.9310771,
            40.8596027
          ],
          [
            -73.9310661,
            40.8596741
          ],
          [
            -73.9309759,
            40.8598873
          ],
          [
            -73.9308487,
            40.860185
          ],
          [
            -73.9307553,
            40.8604006
          ],
          [
            -73.9306637,
            40.8605568
          ],
          [
            -73.9306524,
            40.860576
          ],
          [
            -73.9306397,
            40.8606013
          ],
          [
            -73.930615,
            40.8606505
          ],
          [
            -73.9306046,
            40.8606676
          ],
          [
            -73.9301765,
            40.8613758
          ],
          [
            -73.92994,
            40.8618022
          ],
          [
            -73.9299069,
            40.8618983
          ],
          [
            -73.9298848,
            40.8619672
          ],
          [
            -73.9298733,
            40.8620246
          ],
          [
            -73.9298654,
            40.8620801
          ],
          [
            -73.9298629,
            40.8621119
          ],
          [
            -73.9298608,
            40.8621511
          ],
          [
            -73.929857,
            40.8622239
          ],
          [
            -73.9298558,
            40.8622464
          ],
          [
            -73.9298515,
            40.8622743
          ],
          [
            -73.9298356,
            40.8623788
          ],
          [
            -73.9298324,
            40.8623992
          ],
          [
            -73.9298048,
            40.8624191
          ],
          [
            -73.9297761,
            40.8624418
          ],
          [
            -73.9297507,
            40.8624605
          ],
          [
            -73.9297966,
            40.8625066
          ],
          [
            -73.9298396,
            40.8627084
          ],
          [
            -73.9298668,
            40.8628761
          ],
          [
            -73.9298751,
            40.8629806
          ],
          [
            -73.9298887,
            40.8631523
          ],
          [
            -73.9298995,
            40.863334
          ],
          [
            -73.9298941,
            40.8633579
          ],
          [
            -73.9298727,
            40.8634053
          ],
          [
            -73.9298469,
            40.8634625
          ],
          [
            -73.9298366,
            40.863487
          ],
          [
            -73.9297413,
            40.8636925
          ],
          [
            -73.9295992,
            40.8638737
          ],
          [
            -73.9293105,
            40.8641676
          ],
          [
            -73.9290762,
            40.8643694
          ],
          [
            -73.9288996,
            40.8645236
          ],
          [
            -73.9289166,
            40.8645463
          ],
          [
            -73.9289665,
            40.8646215
          ],
          [
            -73.9290243,
            40.8647087
          ],
          [
            -73.9290352,
            40.8647226
          ],
          [
            -73.9289299,
            40.8647849
          ],
          [
            -73.9287266,
            40.8648997
          ],
          [
            -73.9282884,
            40.8651302
          ],
          [
            -73.9281272,
            40.8652149
          ],
          [
            -73.9279083,
            40.865329
          ],
          [
            -73.9280238,
            40.8654429
          ],
          [
            -73.9280888,
            40.8655071
          ],
          [
            -73.9283347,
            40.8655281
          ],
          [
            -73.9283284,
            40.8655583
          ],
          [
            -73.9283189,
            40.8655976
          ],
          [
            -73.9283069,
            40.86565
          ],
          [
            -73.9282952,
            40.8657181
          ],
          [
            -73.9282873,
            40.8657364
          ],
          [
            -73.9281772,
            40.8658909
          ],
          [
            -73.9280376,
            40.8660797
          ],
          [
            -73.9280184,
            40.8661057
          ],
          [
            -73.9279919,
            40.8661344
          ],
          [
            -73.927948,
            40.8661818
          ],
          [
            -73.9279147,
            40.8662048
          ],
          [
            -73.9268371,
            40.866948
          ],
          [
            -73.9268084,
            40.8669642
          ],
          [
            -73.9267691,
            40.86699
          ],
          [
            -73.9267235,
            40.8670168
          ],
          [
            -73.9267027,
            40.867031
          ],
          [
            -73.9266978,
            40.8670565
          ],
          [
            -73.9259888,
            40.8676022
          ],
          [
            -73.925963,
            40.8676221
          ],
          [
            -73.9259395,
            40.8676402
          ],
          [
            -73.925873,
            40.8676991
          ],
          [
            -73.9258282,
            40.8677389
          ],
          [
            -73.9258074,
            40.8677598
          ],
          [
            -73.9241108,
            40.8683705
          ],
          [
            -73.924122,
            40.86839
          ],
          [
            -73.924149,
            40.8684329
          ],
          [
            -73.924038,
            40.868473
          ],
          [
            -73.9239487,
            40.8685043
          ],
          [
            -73.923433,
            40.868686
          ],
          [
            -73.9231248,
            40.8687983
          ],
          [
            -73.9222427,
            40.8691149
          ],
          [
            -73.922145,
            40.86915
          ],
          [
            -73.9220558,
            40.8691905
          ],
          [
            -73.922089,
            40.8692453
          ],
          [
            -73.9221081,
            40.8692728
          ],
          [
            -73.9218789,
            40.8693667
          ],
          [
            -73.9217048,
            40.8694643
          ],
          [
            -73.9210314,
            40.8699086
          ],
          [
            -73.9209417,
            40.8699676
          ],
          [
            -73.9209917,
            40.8700174
          ],
          [
            -73.9209395,
            40.8700489
          ],
          [
            -73.9208363,
            40.8701301
          ],
          [
            -73.9208189,
            40.8702072
          ],
          [
            -73.9207669,
            40.8702208
          ],
          [
            -73.9203738,
            40.8704732
          ],
          [
            -73.9201483,
            40.8706279
          ],
          [
            -73.920014,
            40.8707298
          ],
          [
            -73.9199413,
            40.8708086
          ],
          [
            -73.9198737,
            40.870944
          ],
          [
            -73.9198516,
            40.8712057
          ],
          [
            -73.9199058,
            40.8713903
          ],
          [
            -73.9199886,
            40.8715659
          ],
          [
            -73.9200291,
            40.8717372
          ],
          [
            -73.920055,
            40.8719092
          ],
          [
            -73.9200262,
            40.8719908
          ],
          [
            -73.9200246,
            40.8720416
          ],
          [
            -73.9200356,
            40.8721628
          ],
          [
            -73.9200449,
            40.8721925
          ],
          [
            -73.9200947,
            40.8722993
          ],
          [
            -73.9201246,
            40.8723782
          ],
          [
            -73.920144,
            40.8724654
          ],
          [
            -73.9201364,
            40.872554
          ],
          [
            -73.9201182,
            40.8726453
          ],
          [
            -73.9200813,
            40.8727552
          ],
          [
            -73.9200947,
            40.8728546
          ],
          [
            -73.9201242,
            40.8729357
          ],
          [
            -73.9202217,
            40.8729967
          ],
          [
            -73.9200095,
            40.8731752
          ],
          [
            -73.9198874,
            40.8733016
          ],
          [
            -73.9197707,
            40.8734776
          ],
          [
            -73.9197679,
            40.8735955
          ],
          [
            -73.919766,
            40.8736734
          ],
          [
            -73.9197655,
            40.8738219
          ],
          [
            -73.9197515,
            40.8738749
          ],
          [
            -73.919886,
            40.8739777
          ],
          [
            -73.9198094,
            40.8740587
          ],
          [
            -73.9200106,
            40.8741758
          ],
          [
            -73.9201388,
            40.8742555
          ],
          [
            -73.9202188,
            40.8743391
          ],
          [
            -73.9202612,
            40.8743369
          ],
          [
            -73.9203019,
            40.8743458
          ],
          [
            -73.9203211,
            40.8743546
          ],
          [
            -73.9203503,
            40.8743779
          ],
          [
            -73.9203671,
            40.8744073
          ],
          [
            -73.9203703,
            40.8744328
          ],
          [
            -73.9203611,
            40.8744641
          ],
          [
            -73.9203427,
            40.8744873
          ],
          [
            -73.9204046,
            40.8745438
          ]
        ]
      }
    }
  ]
}
