{
  "type": "FeatureCollection",
  "features": [
    {
      "type": "Feature",
      "properties": {
        "scenario": "Inwood Hill Park | 2.5mi | out_and_back | moderate | no-amenity",
        "shape": "out_and_back",
        "target_miles": 2.5,
        "distance_m": 3995.456289543948,
        "candidate_index": 0
      },
      "geometry": {
        "type": "LineString",
        "coordinates": [
          [
            -73.9212171,
            40.867707
          ],
          [
            -73.9213249,
            40.8676676
          ],
          [
            -73.9230078,
            40.8670533
          ],
          [
            -73.92311,
            40.867016
          ],
          [
            -73.9232126,
            40.8669792
          ],
          [
            -73.9249072,
            40.8663711
          ],
          [
            -73.925005,
            40.866336
          ],
          [
            -73.9251166,
            40.8662959
          ],
          [
            -73.9257983,
            40.8660514
          ],
          [
            -73.925872,
            40.866025
          ],
          [
            -73.925967,
            40.8659914
          ],
          [
            -73.9263199,
            40.8658667
          ],
          [
            -73.9265267,
            40.8657937
          ],
          [
            -73.9271619,
            40.8655693
          ],
          [
            -73.9272475,
            40.865539
          ],
          [
            -73.9272714,
            40.8655306
          ],
          [
            -73.9272948,
            40.8655188
          ],
          [
            -73.9274931,
            40.8654184
          ],
          [
            -73.9275773,
            40.8654449
          ],
          [
            -73.9275983,
            40.8654515
          ],
          [
            -73.9277609,
            40.8653672
          ],
          [
            -73.9277762,
            40.8653645
          ],
          [
            -73.9277915,
            40.865368
          ],
          [
            -73.9278078,
            40.8653879
          ],
          [
            -73.92782,
            40.8653796
          ],
          [
            -73.9278578,
            40.8653587
          ],
          [
            -73.9278865,
            40.8653403
          ],
          [
            -73.9279083,
            40.865329
          ],
          [
            -73.9281272,
            40.8652149
          ],
          [
            -73.9282884,
            40.8651302
          ],
          [
            -73.9287266,
            40.8648997
          ],
          [
            -73.9289299,
            40.8647849
          ],
          [
            -73.9290352,
            40.8647226
          ],
          [
            -73.9291886,
            40.8646031
          ],
          [
            -73.929233,
            40.864569
          ],
          [
            -73.9294606,
            40.8643815
          ],
          [
            -73.9296576,
            40.8641904
          ],
          [
            -73.9299818,
            40.8637992
          ],
          [
            -73.9301114,
            40.8635412
          ],
          [
            -73.9301802,
            40.8633541
          ],
          [
            -73.930185,
            40.8633245
          ],
          [
            -73.9301892,
            40.8632989
          ],
          [
            -73.930163,
            40.863064
          ],
          [
            -73.9301101,
            40.8626789
          ],
          [
            -73.9300902,
            40.8625349
          ],
          [
            -73.9301141,
            40.8622388
          ],
          [
            -73.9301695,
            40.8620422
          ],
          [
            -73.9302856,
            40.8617399
          ],
          [
            -73.9304272,
            40.8617899
          ],
          [
            -73.9304969,
            40.8616702
          ],
          [
            -73.9305479,
            40.861657
          ],
          [
            -73.9306109,
            40.8616296
          ],
          [
            -73.9306807,
            40.861587
          ],
          [
            -73.930745,
            40.8615546
          ],
          [
            -73.9309757,
            40.8613361
          ],
          [
            -73.931022,
            40.8612941
          ],
          [
            -73.9310669,
            40.8612979
          ],
          [
            -73.9311192,
            40.8611113
          ],
          [
            -73.9311916,
            40.8611404
          ],
          [
            -73.9312277,
            40.8611389
          ],
          [
            -73.9312615,
            40.8611268
          ],
          [
            -73.9313209,
            40.8610861
          ],
          [
            -73.9313879,
            40.8610364
          ],
          [
            -73.9314625,
            40.8609567
          ],
          [
            -73.9315158,
            40.860893
          ],
          [
            -73.9315679,
            40.860842
          ],
          [
            -73.9316336,
            40.8607806
          ],
          [
            -73.9316773,
            40.8607201
          ],
          [
            -73.9317938,
            40.8604939
          ],
          [
            -73.9318477,
            40.8604341
          ],
          [
            -73.931925,
            40.8603737
          ],
          [
            -73.931975,
            40.8603346
          ],
          [
            -73.9320048,
            40.8602957
          ],
          [
            -73.932022,
            40.8602448
          ],
          [
            -73.9320977,
            40.8601656
          ],
          [
            -73.9321411,
            40.8601067
          ],
          [
            -73.9321842,
            40.8600624
          ],
          [
            -73.9321972,
            40.8600555
          ],
          [
            -73.9322572,
            40.8600429
          ],
          [
            -73.9323025,
            40.8600268
          ],
          [
            -73.9323314,
            40.8599963
          ],
          [
            -73.93235,
            40.8599522
          ],
          [
            -73.9323646,
            40.8599217
          ],
          [
            -73.932371,
            40.8599105
          ],
          [
            -73.932374,
            40.8599054
          ],
          [
            -73.9323912,
            40.8598859
          ],
          [
            -73.9324135,
            40.8598675
          ],
          [
            -73.9324475,
            40.8598469
          ],
          [
            -73.9324564,
            40.8598401
          ],
          [
            -73.9325508,
            40.8597571
          ],
          [
            -73.932653,
            40.8597011
          ],
          [
            -73.932755,
            40.8596746
          ],
          [
            -73.932803,
            40.8596676
          ],
          [
            -73.9328878,
            40.8596265
          ],
          [
            -73.9329585,
            40.8595941
          ],
          [
            -73.9330317,
            40.8595723
          ],
          [
            -73.9331805,
            40.8595503
          ],
          [
            -73.9332758,
            40.8595364
          ],
          [
            -73.9333104,
            40.859527
          ],
          [
            -73.9333441,
            40.8595138
          ],
          [
            -73.9334594,
            40.859453
          ],
          [
            -73.9335874,
            40.8593918
          ],
          [
            -73.9336276,
            40.8593716
          ],
          [
            -73.9336561,
            40.8593088
          ],
          [
            -73.9337298,
            40.8593309
          ],
          [
            -73.9338154,
            40.8591451
          ],
          [
            -73.9338196,
            40.8591396
          ],
          [
            -73.9338244,
            40.859136
          ],
          [
            -73.9338303,
            40.859133
          ],
          [
            -73.9338402,
            40.8591295
          ],
          [
            -73.9338502,
            40.8591271
          ],
          [
            -73.9338613,
            40.8591255
          ],
          [
            -73.933871,
            40.859125
          ],
          [
            -73.9338776,
            40.8591255
          ],
          [
            -73.9338859,
            40.8591269
          ],
          [
            -73.9340432,
            40.8591658
          ],
          [
            -73.9340607,
            40.8591682
          ],
          [
            -73.9341185,
            40.8591781
          ],
          [
            -73.9341474,
            40.8591845
          ],
          [
            -73.9342337,
            40.8592036
          ],
          [
            -73.9342827,
            40.8592144
          ],
          [
            -73.9343283,
            40.8592223
          ],
          [
            -73.9343375,
            40.8592335
          ],
          [
            -73.9343474,
            40.8592417
          ],
          [
            -73.934366,
            40.8592524
          ],
          [
            -73.934384,
            40.8592604
          ],
          [
            -73.9345615,
            40.8593094
          ],
          [
            -73.9346813,
            40.8593435
          ],
          [
            -73.934721,
            40.859351
          ],
          [
            -73.9347457,
            40.8593517
          ],
          [
            -73.9347703,
            40.8593504
          ],
          [
            -73.9348123,
            40.8593452
          ],
          [
            -73.9348537,
            40.8593326
          ],
          [
            -73.9348894,
            40.8593164
          ],
          [
            -73.9349707,
            40.8592689
          ],
          [
            -73.935075,
            40.8592
          ],
          [
            -73.9351827,
            40.8591229
          ],
          [
            -73.9352447,
            40.8590745
          ],
          [
            -73.9353837,
            40.8589645
          ],
          [
            -73.9356649,
            40.8586748
          ],
          [
            -73.935784,
            40.8585258
          ],
          [
            -73.9358727,
            40.8584018
          ],
          [
            -73.9359488,
            40.8582882
          ],
          [
            -73.936067,
            40.8580696
          ],
          [
            -73.9360984,
            40.8580111
          ],
          [
            -73.9361613,
            40.8578941
          ],
          [
            -73.9361679,
            40.8578811
          ],
          [
            -73.9362508,
            40.8577167
          ],
          [
            -73.9362748,
            40.8576718
          ],
          [
            -73.9363,
            40.8576246
          ],
          [
            -73.9363228,
            40.8575846
          ],
          [
            -73.9363883,
            40.8574808
          ],
          [
            -73.9364527,
            40.8573886
          ],
          [
            -73.9364612,
            40.8573765
          ],
          [
            -73.9365005,
            40.8573312
          ],
          [
            -73.9365344,
            40.8572887
          ],
          [
            -73.9365489,
            40.8572708
          ],
          [
            -73.936799,
            40.8569628
          ],
          [
            -73.9368372,
            40.8569131
          ],
          [
            -73.9369049,
            40.856825
          ],
          [
            -73.9369745,
            40.8568565
          ],
          [
            -73.9369049,
            40.856825
          ],
          [
            -73.9368372,
            40.8569131
          ],
          [
            -73.936799,
            40.8569628
          ],
          [
            -73.9365489,
            40.8572708
          ],
          [
            -73.9365344,
            40.8572887
          ],
          [
            -73.9365005,
            40.8573312
          ],
          [
            -73.9364612,
            40.8573765
          ],
          [
            -73.9364527,
            40.8573886
          ],
          [
            -73.9363883,
            40.8574808
          ],
          [
            -73.9363228,
            40.8575846
          ],
          [
            -73.9363,
            40.8576246
          ],
          [
            -73.9362748,
            40.8576718
          ],
          [
            -73.9362508,
            40.8577167
          ],
          [
            -73.9361679,
            40.8578811
          ],
          [
            -73.9361613,
            40.8578941
          ],
          [
            -73.9360984,
            40.8580111
          ],
          [
            -73.936067,
            40.8580696
          ],
          [
            -73.9359488,
            40.8582882
          ],
          [
            -73.9358727,
            40.8584018
          ],
          [
            -73.935784,
            40.8585258
          ],
          [
            -73.9356649,
            40.8586748
          ],
          [
            -73.9353837,
            40.8589645
          ],
          [
            -73.9352447,
            40.8590745
          ],
          [
            -73.9351827,
            40.8591229
          ],
          [
            -73.935075,
            40.8592
          ],
          [
            -73.9349707,
            40.8592689
          ],
          [
            -73.9348894,
            40.8593164
          ],
          [
            -73.9348537,
            40.8593326
          ],
          [
            -73.9348123,
            40.8593452
          ],
          [
            -73.9347703,
            40.8593504
          ],
          [
            -73.9347457,
            40.8593517
          ],
          [
            -73.934721,
            40.859351
          ],
          [
            -73.9346813,
            40.8593435
          ],
          [
            -73.9345615,
            40.8593094
          ],
          [
            -73.934384,
            40.8592604
          ],
          [
            -73.934366,
            40.8592524
          ],
          [
            -73.9343474,
            40.8592417
          ],
          [
            -73.9343375,
            40.8592335
          ],
          [
            -73.9343283,
            40.8592223
          ],
          [
            -73.9342827,
            40.8592144
          ],
          [
            -73.9342337,
            40.8592036
          ],
          [
            -73.9341474,
            40.8591845
          ],
          [
            -73.9341185,
            40.8591781
          ],
          [
            -73.9340607,
            40.8591682
          ],
          [
            -73.9340432,
            40.8591658
          ],
          [
            -73.9338859,
            40.8591269
          ],
          [
            -73.9338776,
            40.8591255
          ],
          [
            -73.933871,
            40.859125
          ],
          [
            -73.9338613,
            40.8591255
          ],
          [
            -73.9338502,
            40.8591271
          ],
          [
            -73.9338402,
            40.8591295
          ],
          [
            -73.9338303,
            40.859133
          ],
          [
            -73.9338244,
            40.859136
          ],
          [
            -73.9338196,
            40.8591396
          ],
          [
            -73.9338154,
            40.8591451
          ],
          [
            -73.9337298,
            40.8593309
          ],
          [
            -73.9336561,
            40.8593088
          ],
          [
            -73.9336276,
            40.8593716
          ],
          [
            -73.9335874,
            40.8593918
          ],
          [
            -73.9334594,
            40.859453
          ],
          [
            -73.9333441,
            40.8595138
          ],
          [
            -73.9333104,
            40.859527
          ],
          [
            -73.9332758,
            40.8595364
          ],
          [
            -73.9331805,
            40.8595503
          ],
          [
            -73.9330317,
            40.8595723
          ],
          [
            -73.9329585,
            40.8595941
          ],
          [
            -73.9328878,
            40.8596265
          ],
          [
            -73.932803,
            40.8596676
          ],
          [
            -73.932755,
            40.8596746
          ],
          [
            -73.932653,
            40.8597011
          ],
          [
            -73.9325508,
            40.8597571
          ],
          [
            -73.9324564,
            40.8598401
          ],
          [
            -73.9324475,
            40.8598469
          ],
          [
            -73.9324135,
            40.8598675
          ],
          [
            -73.9323912,
            40.8598859
          ],
          [
            -73.932374,
            40.8599054
          ],
          [
            -73.932371,
            40.8599105
          ],
          [
            -73.9323646,
            40.8599217
          ],
          [
            -73.93235,
            40.8599522
          ],
          [
            -73.9323314,
            40.8599963
          ],
          [
            -73.9323025,
            40.8600268
          ],
          [
            -73.9322572,
            40.8600429
          ],
          [
            -73.9321972,
            40.8600555
          ],
          [
            -73.9321842,
            40.8600624
          ],
          [
            -73.9321411,
            40.8601067
          ],
          [
            -73.9320977,
            40.8601656
          ],
          [
            -73.932022,
            40.8602448
          ],
          [
            -73.9320048,
            40.8602957
          ],
          [
            -73.931975,
            40.8603346
          ],
          [
            -73.931925,
            40.8603737
          ],
          [
            -73.9318477,
            40.8604341
          ],
          [
            -73.9317938,
            40.8604939
          ],
          [
            -73.9316773,
            40.8607201
          ],
          [
            -73.9316336,
            40.8607806
          ],
          [
            -73.9315679,
            40.860842
          ],
          [
            -73.9315158,
            40.860893
          ],
          [
            -73.9314625,
            40.8609567
          ],
          [
            -73.9313879,
            40.8610364
          ],
          [
            -73.9313209,
            40.8610861
          ],
          [
            -73.9312615,
            40.8611268
          ],
          [
            -73.9312277,
            40.8611389
          ],
          [
            -73.9311916,
            40.8611404
          ],
          [
            -73.9311192,
            40.8611113
          ],
          [
            -73.9310669,
            40.8612979
          ],
          [
            -73.931022,
            40.8612941
          ],
          [
            -73.9309757,
            40.8613361
          ],
          [
            -73.930745,
            40.8615546
          ],
          [
            -73.9306807,
            40.861587
          ],
          [
            -73.9306109,
            40.8616296
          ],
          [
            -73.9305479,
            40.861657
          ],
          [
            -73.9304969,
            40.8616702
          ],
          [
            -73.9304272,
            40.8617899
          ],
          [
            -73.9302856,
            40.8617399
          ],
          [
            -73.9301695,
            40.8620422
          ],
          [
            -73.9301141,
            40.8622388
          ],
          [
            -73.9300902,
            40.8625349
          ],
          [
            -73.9301101,
            40.8626789
          ],
          [
            -73.930163,
            40.863064
          ],
          [
            -73.9301892,
            40.8632989
          ],
          [
            -73.930185,
            40.8633245
          ],
          [
            -73.9301802,
            40.8633541
          ],
          [
            -73.9301114,
            40.8635412
          ],
          [
            -73.9299818,
            40.8637992
          ],
          [
            -73.9296576,
            40.8641904
          ],
          [
            -73.9294606,
            40.8643815
          ],
          [
            -73.929233,
            40.864569
          ],
          [
            -73.9291886,
            40.8646031
          ],
          [
            -73.9290352,
            40.8647226
          ],
          [
            -73.9289299,
            40.8647849
          ],
          [
            -73.9287266,
            40.8648997
          ],
          [
            -73.9282884,
            40.8651302
          ],
          [
            -73.9281272,
            40.8652149
          ],
          [
            -73.9279083,
            40.865329
          ],
          [
            -73.9278865,
            40.8653403
          ],
          [
            -73.9278578,
            40.8653587
          ],
          [
            -73.92782,
            40.8653796
          ],
          [
            -73.9278078,
            40.8653879
          ],
          [
            -73.9277915,
            40.865368
          ],
          [
            -73.9277762,
            40.8653645
          ],
          [
            -73.9277609,
            40.8653672
          ],
          [
            -73.9275983,
            40.8654515
          ],
          [
            -73.9275773,
            40.8654449
          ],
          [
            -73.9274931,
            40.8654184
          ],
          [
            -73.9272948,
            40.8655188
          ],
          [
            -73.9272714,
            40.8655306
          ],
          [
            -73.9272475,
            40.865539
          ],
          [
            -73.9271619,
            40.8655693
          ],
          [
            -73.9265267,
            40.8657937
          ],
          [
            -73.9263199,
            40.8658667
          ],
          [
            -73.925967,
            40.8659914
          ],
          [
            -73.925872,
            40.866025
          ],
          [
            -73.9257983,
            40.8660514
          ],
          [
            -73.9251166,
            40.8662959
          ],
          [
            -73.925005,
            40.866336
          ],
          [
            -73.9249072,
            40.8663711
          ],
          [
            -73.9232126,
            40.8669792
          ],
          [
            -73.92311,
            40.867016
          ],
          [
            -73.9230078,
            40.8670533
          ],
          [
            -73.9213249,
            40.8676676
          ],
          [
            -73.9212171,
            40.867707
          ]
        ]
      }
    },
    {
      "type": "Feature",
      "properties": {
        "scenario": "Inwood Hill Park | 2.5mi | out_and_back | moderate | no-amenity",
        "shape": "out_and_back",
        "target_miles": 2.5,
        "distance_m": 3899.3590681936544,
        "candidate_index": 1
      },
      "geometry": {
        "type": "LineString",
        "coordinates": [
          [
            -73.9212171,
            40.867707
          ],
          [
            -73.9211514,
            40.8676035
          ],
          [
            -73.9209918,
            40.867349
          ],
          [
            -73.9208274,
            40.8670932
          ],
          [
            -73.9206665,
            40.8668436
          ],
          [
            -73.920612,
            40.866759
          ],
          [
            -73.9205663,
            40.8666878
          ],
          [
            -73.9204924,
            40.8665723
          ],
          [
            -73.9204108,
            40.8664448
          ],
          [
            -73.9202099,
            40.8661311
          ],
          [
            -73.920064,
            40.8659033
          ],
          [
            -73.9202099,
            40.8661311
          ],
          [
            -73.9204108,
            40.8664448
          ],
          [
            -73.9204924,
            40.8665723
          ],
          [
            -73.9205663,
            40.8666878
          ],
          [
            -73.920612,
            40.866759
          ],
          [
            -73.9206665,
            40.8668436
          ],
          [
            -73.9208274,
            40.8670932
          ],
          [
            -73.9209918,
            40.867349
          ],
          [
            -73.9211514,
            40.8676035
          ],
          [
            -73.9212171,
            40.867707
          ],
          [
            -73.921279,
            40.8678061
          ],
          [
            -73.9212163,
            40.8678258
          ],
          [
            -73.921183,
            40.8678399
          ],
          [
            -73.9208766,
            40.8679499
          ],
          [
            -73.9202559,
            40.868105
          ],
          [
            -73.9199304,
            40.8681899
          ],
          [
            -73.9198938,
            40.868198
          ],
          [
            -73.9198194,
            40.8682186
          ],
          [
            -73.9197517,
            40.8682353
          ],
          [
            -73.9197188,
            40.8682446
          ],
          [
            -73.9191619,
            40.8683891
          ],
          [
            -73.9188404,
            40.8685004
          ],
          [
            -73.9186615,
            40.8685709
          ],
          [
            -73.9184864,
            40.8686398
          ],
          [
            -73.9184808,
            40.8686422
          ],
          [
            -73.917736,
            40.8689638
          ],
          [
            -73.9176193,
            40.8690142
          ],
          [
            -73.9175624,
            40.8690444
          ],
          [
            -73.9174735,
            40.8690918
          ],
          [
            -73.9171987,
            40.869238
          ],
          [
            -73.9167358,
            40.869469
          ],
          [
            -73.9163926,
            40.8696732
          ],
          [
            -73.9163134,
            40.8697203
          ],
          [
            -73.9160287,
            40.8698911
          ],
          [
            -73.9158469,
            40.8700345
          ],
          [
            -73.9154671,
            40.8703269
          ],
          [
            -73.9149634,
            40.870715
          ],
          [
            -73.914348,
            40.8712096
          ],
          [
            -73.9143319,
            40.8712226
          ],
          [
            -73.9142504,
            40.8712707
          ],
          [
            -73.9141813,
            40.8713114
          ],
          [
            -73.9141567,
            40.8713312
          ],
          [
            -73.9139231,
            40.8715189
          ],
          [
            -73.912848,
            40.8723804
          ],
          [
            -73.9119497,
            40.8731241
          ],
          [
            -73.9117384,
            40.8732943
          ],
          [
            -73.9116269,
            40.8733842
          ],
          [
            -73.9108912,
            40.8739769
          ],
          [
            -73.9105511,
            40.8742509
          ],
          [
            -73.9104873,
            40.8742973
          ],
          [
            -73.9107098,
            40.8744117
          ],
          [
            -73.9109782,
            40.8745423
          ],
          [
            -73.9114142,
            40.8747214
          ],
          [
            -73.9115128,
            40.874754
          ],
          [
            -73.9115931,
            40.8747806
          ],
          [
            -73.9124155,
            40.8750245
          ],
          [
            -73.9124755,
            40.8750462
          ],
          [
            -73.9125566,
            40.8750954
          ],
          [
            -73.9126182,
            40.875142
          ],
          [
            -73.9126892,
            40.8752129
          ],
          [
            -73.9127077,
            40.875242
          ],
          [
            -73.9127348,
            40.8752845
          ],
          [
            -73.912783,
            40.8753931
          ],
          [
            -73.9128478,
            40.8756145
          ],
          [
            -73.9128205,
            40.8756209
          ],
          [
            -73.9127879,
            40.8756287
          ],
          [
            -73.9127231,
            40.875644
          ],
          [
            -73.9126812,
            40.8756539
          ],
          [
            -73.9126658,
            40.875639
          ],
          [
            -73.9126701,
            40.8756197
          ],
          [
            -73.9126719,
            40.8756114
          ],
          [
            -73.9126699,
            40.875566
          ],
          [
            -73.9126627,
            40.8755268
          ],
          [
            -73.9126394,
            40.8754438
          ],
          [
            -73.9126089,
            40.8753747
          ],
          [
            -73.9125763,
            40.8753124
          ],
          [
            -73.9125296,
            40.8752532
          ],
          [
            -73.9124839,
            40.8752125
          ],
          [
            -73.9124188,
            40.8751726
          ],
          [
            -73.9123313,
            40.8751332
          ],
          [
            -73.9123144,
            40.8751274
          ],
          [
            -73.912301,
            40.875127
          ],
          [
            -73.9122929,
            40.8751287
          ],
          [
            -73.9122846,
            40.8751305
          ],
          [
            -73.9122676,
            40.8751254
          ],
          [
            -73.9121986,
            40.8751047
          ],
          [
            -73.9121369,
            40.8750863
          ],
          [
            -73.9120939,
            40.8750734
          ],
          [
            -73.9120929,
            40.8750692
          ],
          [
            -73.9120901,
            40.8750647
          ],
          [
            -73.9120851,
            40.8750604
          ],
          [
            -73.912073,
            40.8750553
          ],
          [
            -73.9118984,
            40.8750065
          ],
          [
            -73.911713,
            40.8749497
          ],
          [
            -73.9115941,
            40.8749128
          ],
          [
            -73.9114721,
            40.8748705
          ],
          [
            -73.9111332,
            40.8747486
          ],
          [
            -73.9111203,
            40.874746
          ],
          [
            -73.9110838,
            40.8747307
          ],
          [
            -73.911044,
            40.874714
          ],
          [
            -73.9109813,
            40.8746876
          ],
          [
            -73.910947,
            40.8746732
          ],
          [
            -73.9109421,
            40.8746585
          ],
          [
            -73.9109293,
            40.8746483
          ],
          [
            -73.910558,
            40.8744626
          ],
          [
            -73.9104171,
            40.8743843
          ],
          [
            -73.91035,
            40.8743262
          ],
          [
            -73.9104171,
            40.8743843
          ],
          [
            -73.910558,
            40.8744626
          ],
          [
            -73.9109293,
            40.8746483
          ],
          [
            -73.9109421,
            40.8746585
          ],
          [
            -73.910947,
            40.8746732
          ],
          [
            -73.9109813,
            40.8746876
          ],
          [
            -73.911044,
            40.874714
          ],
          [
            -73.9110838,
            40.8747307
          ],
          [
            -73.9111203,
            40.874746
          ],
          [
            -73.9111332,
            40.8747486
          ],
          [
            -73.9114721,
            40.8748705
          ],
          [
            -73.9115941,
            40.8749128
          ],
          [
            -73.911713,
            40.8749497
          ],
          [
            -73.9118984,
            40.8750065
          ],
          [
            -73.912073,
            40.8750553
          ],
          [
            -73.9120851,
            40.8750604
          ],
          [
            -73.9120901,
            40.8750647
          ],
          [
            -73.9120929,
            40.8750692
          ],
          [
            -73.9120939,
            40.8750734
          ],
          [
            -73.9121369,
            40.8750863
          ],
          [
            -73.9121986,
            40.8751047
          ],
          [
            -73.9122676,
            40.8751254
          ],
          [
            -73.9122846,
            40.8751305
          ],
          [
            -73.9122929,
            40.8751287
          ],
          [
            -73.912301,
            40.875127
          ],
          [
            -73.9123144,
            40.8751274
          ],
          [
            -73.9123313,
            40.8751332
          ],
          [
            -73.9124188,
            40.8751726
          ],
          [
            -73.9124839,
            40.8752125
          ],
          [
            -73.9125296,
            40.8752532
          ],
          [
            -73.9125763,
            40.8753124
          ],
          [
            -73.9126089,
            40.8753747
          ],
          [
            -73.9126394,
            40.8754438
          ],
          [
            -73.9126627,
            40.8755268
          ],
          [
            -73.9126699,
            40.875566
          ],
          [
            -73.9126719,
            40.8756114
          ],
          [
            -73.9126701,
            40.8756197
          ],
          [
            -73.9126658,
            40.875639
          ],
          [
            -73.9126812,
            40.8756539
          ],
          [
            -73.9127231,
            40.875644
          ],
          [
            -73.9127879,
            40.8756287
          ],
          [
            -73.9128205,
            40.8756209
          ],
          [
            -73.9128478,
            40.8756145
          ],
          [
            -73.912783,
            40.8753931
          ],
          [
            -73.9127348,
            40.8752845
          ],
          [
            -73.9127077,
            40.875242
          ],
          [
            -73.9126892,
            40.8752129
          ],
          [
            -73.9126182,
            40.875142
          ],
          [
            -73.9125566,
            40.8750954
          ],
          [
            -73.9124755,
            40.8750462
          ],
          [
            -73.9124155,
            40.8750245
          ],
          [
            -73.9115931,
            40.8747806
          ],
          [
            -73.9115128,
            40.874754
          ],
          [
            -73.9114142,
            40.8747214
          ],
          [
            -73.9109782,
            40.8745423
          ],
          [
            -73.9107098,
            40.8744117
          ],
          [
            -73.9104873,
            40.8742973
          ],
          [
            -73.9105511,
            40.8742509
          ],
          [
            -73.9108912,
            40.8739769
          ],
          [
            -73.9116269,
            40.8733842
          ],
          [
            -73.9117384,
            40.8732943
          ],
          [
            -73.9119497,
            40.8731241
          ],
          [
            -73.912848,
            40.8723804
          ],
          [
            -73.9139231,
            40.8715189
          ],
          [
            -73.9141567,
            40.8713312
          ],
          [
            -73.9141813,
            40.8713114
          ],
          [
            -73.9142504,
            40.8712707
          ],
          [
            -73.9143319,
            40.8712226
          ],
          [
            -73.914348,
            40.8712096
          ],
          [
            -73.9149634,
            40.870715
          ],
          [
            -73.9154671,
            40.8703269
          ],
          [
            -73.9158469,
            40.8700345
          ],
          [
            -73.9160287,
            40.8698911
          ],
          [
            -73.9163134,
            40.8697203
          ],
          [
            -73.9163926,
            40.8696732
          ],
          [
            -73.9167358,
            40.869469
          ],
          [
            -73.9171987,
            40.869238
          ],
          [
            -73.9174735,
            40.8690918
          ],
          [
            -73.9175624,
            40.8690444
          ],
          [
            -73.9176193,
            40.8690142
          ],
          [
            -73.917736,
            40.8689638
          ],
          [
            -73.9184808,
            40.8686422
          ],
          [
            -73.9184864,
            40.8686398
          ],
          [
            -73.9186615,
            40.8685709
          ],
          [
            -73.9188404,
            40.8685004
          ],
          [
            -73.9191619,
            40.8683891
          ],
          [
            -73.9197188,
            40.8682446
          ],
          [
            -73.9197517,
            40.8682353
          ],
          [
            -73.9198194,
            40.8682186
          ],
          [
            -73.9198938,
            40.868198
          ],
          [
            -73.9199304,
            40.8681899
          ],
          [
            -73.9202559,
            40.868105
          ],
          [
            -73.9208766,
            40.8679499
          ],
          [
            -73.921183,
            40.8678399
          ],
          [
            -73.9212163,
            40.8678258
          ],
          [
            -73.921279,
            40.8678061
          ],
          [
            -73.9212171,
            40.867707
          ]
        ]
      }
    },
    {
      "type": "Feature",
      "properties": {
        "scenario": "Inwood Hill Park | 2.5mi | out_and_back | moderate | no-amenity",
        "shape": "out_and_back",
        "target_miles": 2.5,
        "distance_m": 4015.256835110524,
        "candidate_index": 2
      },
      "geometry": {
        "type": "LineString",
        "coordinates": [
          [
            -73.9212171,
            40.867707
          ],
          [
            -73.921279,
            40.8678061
          ],
          [
            -73.9216842,
            40.8684555
          ],
          [
            -73.9217178,
            40.868509
          ],
          [
            -73.9217591,
            40.8685712
          ],
          [
            -73.9220982,
            40.8690799
          ],
          [
            -73.922145,
            40.86915
          ],
          [
            -73.9222427,
            40.8691149
          ],
          [
            -73.9222846,
            40.8691772
          ],
          [
            -73.922298,
            40.8691958
          ],
          [
            -73.9227381,
            40.8690349
          ],
          [
            -73.923415,
            40.8687982
          ],
          [
            -73.923435,
            40.8687912
          ],
          [
            -73.9234916,
            40.8687711
          ],
          [
            -73.9235074,
            40.8687911
          ],
          [
            -73.9235533,
            40.8688398
          ],
          [
            -73.9236086,
            40.8688872
          ],
          [
            -73.9236945,
            40.86894
          ],
          [
            -73.9237394,
            40.8689623
          ],
          [
            -73.9237954,
            40.8689781
          ],
          [
            -73.9238758,
            40.868989
          ],
          [
            -73.9239522,
            40.8689939
          ],
          [
            -73.9240171,
            40.868991
          ],
          [
            -73.924115,
            40.8689775
          ],
          [
            -73.9242605,
            40.868948
          ],
          [
            -73.9245514,
            40.868871
          ],
          [
            -73.9245707,
            40.8688673
          ],
          [
            -73.9248688,
            40.8688104
          ],
          [
            -73.9251354,
            40.8687545
          ],
          [
            -73.925508,
            40.868673
          ],
          [
            -73.9257121,
            40.8686284
          ],
          [
            -73.9258919,
            40.8685873
          ],
          [
            -73.926062,
            40.8685353
          ],
          [
            -73.9262387,
            40.8684686
          ],
          [
            -73.9265748,
            40.8682644
          ],
          [
            -73.9267994,
            40.8681044
          ],
          [
            -73.9269228,
            40.868006
          ],
          [
            -73.9269852,
            40.8679563
          ],
          [
            -73.9270519,
            40.8679097
          ],
          [
            -73.9270813,
            40.8679446
          ],
          [
            -73.927107,
            40.8679598
          ],
          [
            -73.9271512,
            40.867997
          ],
          [
            -73.927269,
            40.8679963
          ],
          [
            -73.9274002,
            40.8679738
          ],
          [
            -73.9276068,
            40.8679202
          ],
          [
            -73.9277894,
            40.8678925
          ],
          [
            -73.9279187,
            40.8679051
          ],
          [
            -73.9281535,
            40.8679415
          ],
          [
            -73.9285124,
            40.8680192
          ],
          [
            -73.9286941,
            40.8681337
          ],
          [
            -73.9287855,
            40.8682494
          ],
          [
            -73.9289101,
            40.8683789
          ],
          [
            -73.9291151,
            40.8684731
          ],
          [
            -73.9293367,
            40.8685433
          ],
          [
            -73.92944,
            40.8686124
          ],
          [
            -73.9294856,
            40.8687526
          ],
          [
            -73.9294805,
            40.8689604
          ],
          [
            -73.9293794,
            40.8691246
          ],
          [
            -73.9293889,
            40.8696835
          ],
          [
            -73.9293763,
            40.8699011
          ],
          [
            -73.9293213,
            40.8702828
          ],
          [
            -73.9292564,
            40.8705996
          ],
          [
            -73.9291976,
            40.8706868
          ],
          [
            -73.9292531,
            40.8707792
          ],
          [
            -73.9293029,
            40.8708906
          ],
          [
            -73.9293434,
            40.8709444
          ],
          [
            -73.9293216,
            40.8710525
          ],
          [
            -73.9292767,
            40.8711243
          ],
          [
            -73.9292635,
            40.8711453
          ],
          [
            -73.9294347,
            40.8712121
          ],
          [
            -73.9293684,
            40.8714675
          ],
          [
            -73.9292644,
            40.8718959
          ],
          [
            -73.9291874,
            40.8721315
          ],
          [
            -73.9290232,
            40.8725309
          ],
          [
            -73.9286839,
            40.8730121
          ],
          [
            -73.9285077,
            40.873477
          ],
          [
            -73.9282281,
            40.873806
          ],
          [
            -73.9282064,
            40.8738274
          ],
          [
            -73.9281607,
            40.8738726
          ],
          [
            -73.9281541,
            40.8738791
          ],
          [
            -73.9281391,
            40.873894
          ],
          [
            -73.9282926,
            40.8739658
          ],
          [
            -73.9284077,
            40.8739897
          ],
          [
            -73.9284989,
            40.8739796
          ],
          [
            -73.9285546,
            40.873951
          ],
          [
            -73.9287391,
            40.8737997
          ],
          [
            -73.9288028,
            40.8737472
          ],
          [
            -73.928981,
            40.8737186
          ],
          [
            -73.9290236,
            40.8737324
          ],
          [
            -73.9290296,
            40.8737351
          ],
          [
            -73.9293489,
            40.8738475
          ],
          [
            -73.9293605,
            40.8738516
          ],
          [
            -73.9293749,
            40.8738566
          ],
          [
            -73.9293791,
            40.8738581
          ],
          [
            -73.9294131,
            40.8738006
          ],
          [
            -73.9294529,
            40.8738144
          ],
          [
            -73.9294192,
            40.87387
          ],
          [
            -73.929482,
            40.8738932
          ],
          [
            -73.9296758,
            40.8739715
          ],
          [
            -73.92963,
            40.8740583
          ],
          [
            -73.9294031,
            40.8744599
          ],
          [
            -73.9296787,
            40.8745563
          ],
          [
            -73.9296427,
            40.8746033
          ],
          [
            -73.9294427,
            40.8749512
          ],
          [
            -73.9292192,
            40.875355
          ],
          [
            -73.9291493,
            40.8754712
          ],
          [
            -73.9290583,
            40.8755887
          ],
          [
            -73.9289659,
            40.875707
          ],
          [
            -73.92887,
            40.8757834
          ],
          [
            -73.9287867,
            40.8758654
          ],
          [
            -73.9286618,
            40.8759737
          ],
          [
            -73.9284497,
            40.8761425
          ],
          [
            -73.9282515,
            40.8762827
          ],
          [
            -73.9280977,
            40.8763802
          ],
          [
            -73.9282515,
            40.8762827
          ],
          [
            -73.9284497,
            40.8761425
          ],
          [
            -73.9286618,
            40.8759737
          ],
          [
            -73.9287867,
            40.8758654
          ],
          [
            -73.92887,
            40.8757834
          ],
          [
            -73.9289659,
            40.875707
          ],
          [
            -73.9290583,
            40.8755887
          ],
          [
            -73.9291493,
            40.8754712
          ],
          [
            -73.9292192,
            40.875355
          ],
          [
            -73.9294427,
            40.8749512
          ],
          [
            -73.9296427,
            40.8746033
          ],
          [
            -73.9296787,
            40.8745563
          ],
          [
            -73.9294031,
            40.8744599
          ],
          [
            -73.92963,
            40.8740583
          ],
          [
            -73.9296758,
            40.8739715
          ],
          [
            -73.929482,
            40.8738932
          ],
          [
            -73.9294192,
            40.87387
          ],
          [
            -73.9294529,
            40.8738144
          ],
          [
            -73.9294131,
            40.8738006
          ],
          [
            -73.9293791,
            40.8738581
          ],
          [
            -73.9293749,
            40.8738566
          ],
          [
            -73.9293605,
            40.8738516
          ],
          [
            -73.9293489,
            40.8738475
          ],
          [
            -73.9290296,
            40.8737351
          ],
          [
            -73.9290236,
            40.8737324
          ],
          [
            -73.928981,
            40.8737186
          ],
          [
            -73.9288028,
            40.8737472
          ],
          [
            -73.9287391,
            40.8737997
          ],
          [
            -73.9285546,
            40.873951
          ],
          [
            -73.9284989,
            40.8739796
          ],
          [
            -73.9284077,
            40.8739897
          ],
          [
            -73.9282926,
            40.8739658
          ],
          [
            -73.9281391,
            40.873894
          ],
          [
            -73.9281541,
            40.8738791
          ],
          [
            -73.9281607,
            40.8738726
          ],
          [
            -73.9282064,
            40.8738274
          ],
          [
            -73.9282281,
            40.873806
          ],
          [
            -73.9285077,
            40.873477
          ],
          [
            -73.9286839,
            40.8730121
          ],
          [
            -73.9290232,
            40.8725309
          ],
          [
            -73.9291874,
            40.8721315
          ],
          [
            -73.9292644,
            40.8718959
          ],
          [
            -73.9293684,
            40.8714675
          ],
          [
            -73.9294347,
            40.8712121
          ],
          [
            -73.9292635,
            40.8711453
          ],
          [
            -73.9292767,
            40.8711243
          ],
          [
            -73.9293216,
            40.8710525
          ],
          [
            -73.9293434,
            40.8709444
          ],
          [
            -73.9293029,
            40.8708906
          ],
          [
            -73.9292531,
            40.8707792
          ],
          [
            -73.9291976,
            40.8706868
          ],
          [
            -73.9292564,
            40.8705996
          ],
          [
            -73.9293213,
            40.8702828
          ],
          [
            -73.9293763,
            40.8699011
          ],
          [
            -73.9293889,
            40.8696835
          ],
          [
            -73.9293794,
            40.8691246
          ],
          [
            -73.9294805,
            40.8689604
          ],
          [
            -73.9294856,
            40.8687526
          ],
          [
            -73.92944,
            40.8686124
          ],
          [
            -73.9293367,
            40.8685433
          ],
          [
            -73.9291151,
            40.8684731
          ],
          [
            -73.9289101,
            40.8683789
          ],
          [
            -73.9287855,
            40.8682494
          ],
          [
            -73.9286941,
            40.8681337
          ],
          [
            -73.9285124,
            40.8680192
          ],
          [
            -73.9281535,
            40.8679415
          ],
          [
            -73.9279187,
            40.8679051
          ],
          [
            -73.9277894,
            40.8678925
          ],
          [
            -73.9276068,
            40.8679202
          ],
          [
            -73.9274002,
            40.8679738
          ],
          [
            -73.927269,
            40.8679963
          ],
          [
            -73.9271512,
            40.867997
          ],
          [
            -73.927107,
            40.8679598
          ],
          [
            -73.9270813,
            40.8679446
          ],
          [
            -73.9270519,
            40.8679097
          ],
          [
            -73.9269852,
            40.8679563
          ],
          [
            -73.9269228,
            40.868006
          ],
          [
            -73.9267994,
            40.8681044
          ],
          [
            -73.9265748,
            40.8682644
          ],
          [
            -73.9262387,
            40.8684686
          ],
          [
            -73.926062,
            40.8685353
          ],
          [
            -73.9258919,
            40.8685873
          ],
          [
            -73.9257121,
            40.8686284
          ],
          [
            -73.925508,
            40.868673
          ],
          [
            -73.9251354,
            40.8687545
          ],
          [
            -73.9248688,
            40.8688104
          ],
          [
            -73.9245707,
            40.8688673
          ],
          [
            -73.9245514,
            40.868871
          ],
          [
            -73.9242605,
            40.868948
          ],
          [
            -73.924115,
            40.8689775
          ],
          [
            -73.9240171,
            40.868991
          ],
          [
            -73.9239522,
            40.8689939
          ],
          [
            -73.9238758,
            40.868989
          ],
          [
            -73.9237954,
            40.8689781
          ],
          [
            -73.9237394,
            40.8689623
          ],
          [
            -73.9236945,
            40.86894
          ],
          [
            -73.9236086,
            40.8688872
          ],
          [
            -73.9235533,
            40.8688398
          ],
          [
            -73.9235074,
            40.8687911
          ],
          [
            -73.9234916,
            40.8687711
          ],
          [
            -73.923435,
            40.8687912
          ],
          [
            -73.923415,
            40.8687982
          ],
          [
            -73.9227381,
            40.8690349
          ],
          [
            -73.922298,
            40.8691958
          ],
          [
            -73.9222846,
            40.8691772
          ],
          [
            -73.9222427,
            40.8691149
          ],
          [
            -73.922145,
            40.86915
          ],
          [
            -73.9220982,
            40.8690799
          ],
          [
            -73.9217591,
            40.8685712
          ],
          [
            -73.9217178,
            40.868509
          ],
          [
            -73.9216842,
            40.8684555
          ],
          [
            -73.921279,
            40.8678061
          ],
          [
            -73.9212171,
            40.867707
          ]
        ]
      }
    },
    {
      "type": "Feature",
      "properties": {
        "scenario": "Inwood Hill Park | 2.5mi | out_and_back | moderate | no-amenity",
        "shape": "out_and_back",
        "target_miles": 2.5,
        "distance_m": 4024.866988089962,
        "candidate_index": 3
      },
      "geometry": {
        "type": "LineString",
        "coordinates": [
          [
            -73.9212171,
            40.867707
          ],
          [
            -73.9211514,
            40.8676035
          ],
          [
            -73.9209918,
            40.867349
          ],
          [
            -73.9208274,
            40.8670932
          ],
          [
            -73.9206665,
            40.8668436
          ],
          [
            -73.920612,
            40.866759
          ],
          [
            -73.9205663,
            40.8666878
          ],
          [
            -73.9204924,
            40.8665723
          ],
          [
            -73.9204108,
            40.8664448
          ],
          [
            -73.9202099,
            40.8661311
          ],
          [
            -73.920064,
            40.8659033
          ],
          [
            -73.919996,
            40.865797
          ],
          [
            -73.9199365,
            40.8657043
          ],
          [
            -73.9197976,
            40.8654878
          ],
          [
            -73.9194168,
            40.8648944
          ],
          [
            -73.919362,
            40.864809
          ],
          [
            -73.9193195,
            40.864744
          ],
          [
            -73.9192802,
            40.8646838
          ],
          [
            -73.9192173,
            40.8646211
          ],
          [
            -73.9192034,
            40.8646072
          ],
          [
            -73.9191015,
            40.8645495
          ],
          [
            -73.919069,
            40.8645354
          ],
          [
            -73.9191602,
            40.864406
          ],
          [
            -73.9191767,
            40.86438
          ],
          [
            -73.9194063,
            40.8640193
          ],
          [
            -73.9194966,
            40.8639107
          ],
          [
            -73.9195823,
            40.8638078
          ],
          [
            -73.9196959,
            40.8636712
          ],
          [
            -73.9202647,
            40.8633911
          ],
          [
            -73.9205847,
            40.8632833
          ],
          [
            -73.9205728,
            40.8632637
          ],
          [
            -73.9205064,
            40.8631631
          ],
          [
            -73.9204518,
            40.8630592
          ],
          [
            -73.9204396,
            40.8630391
          ],
          [
            -73.9204627,
            40.8630249
          ],
          [
            -73.9205334,
            40.8629936
          ],
          [
            -73.9206092,
            40.8629584
          ],
          [
            -73.9206344,
            40.8629494
          ],
          [
            -73.9211718,
            40.8627564
          ],
          [
            -73.921535,
            40.8626196
          ],
          [
            -73.9217335,
            40.8625448
          ],
          [
            -73.9222299,
            40.8623562
          ],
          [
            -73.9223022,
            40.8623287
          ],
          [
            -73.9225091,
            40.8622501
          ],
          [
            -73.9225788,
            40.8622236
          ],
          [
            -73.9229244,
            40.8621003
          ],
          [
            -73.9231219,
            40.8620298
          ],
          [
            -73.9235188,
            40.8618881
          ],
          [
            -73.9235996,
            40.8618524
          ],
          [
            -73.923972,
            40.8616878
          ],
          [
            -73.9241536,
            40.8615919
          ],
          [
            -73.9244863,
            40.8614163
          ],
          [
            -73.9245083,
            40.8614121
          ],
          [
            -73.9246067,
            40.8614012
          ],
          [
            -73.9247435,
            40.8613881
          ],
          [
            -73.924761,
            40.861382
          ],
          [
            -73.9247987,
            40.8613719
          ],
          [
            -73.9248223,
            40.8610731
          ],
          [
            -73.9248412,
            40.8609092
          ],
          [
            -73.9248634,
            40.8607897
          ],
          [
            -73.924877,
            40.8607334
          ],
          [
            -73.9249152,
            40.8606141
          ],
          [
            -73.9249552,
            40.860498
          ],
          [
            -73.9250062,
            40.860381
          ],
          [
            -73.9250712,
            40.8602662
          ],
          [
            -73.9251252,
            40.8601763
          ],
          [
            -73.9252453,
            40.8600051
          ],
          [
            -73.9253643,
            40.8598467
          ],
          [
            -73.9254856,
            40.8597168
          ],
          [
            -73.9256064,
            40.8596058
          ],
          [
            -73.9256971,
            40.8595354
          ],
          [
            -73.9258285,
            40.8594385
          ],
          [
            -73.9259136,
            40.8593858
          ],
          [
            -73.9261946,
            40.8592235
          ],
          [
            -73.9264447,
            40.859084
          ],
          [
            -73.926558,
            40.8590059
          ],
          [
            -73.926662,
            40.8589095
          ],
          [
            -73.9267606,
            40.8587741
          ],
          [
            -73.9268021,
            40.858659
          ],
          [
            -73.9268766,
            40.8584445
          ],
          [
            -73.9269295,
            40.8582726
          ],
          [
            -73.9269684,
            40.858162
          ],
          [
            -73.9270113,
            40.8580829
          ],
          [
            -73.9271387,
            40.857878
          ],
          [
            -73.9272534,
            40.8577311
          ],
          [
            -73.9274306,
            40.857576
          ],
          [
            -73.9275592,
            40.8574838
          ],
          [
            -73.9277285,
            40.8573773
          ],
          [
            -73.9279082,
            40.8572763
          ],
          [
            -73.9280616,
            40.8571334
          ],
          [
            -73.9280787,
            40.8571175
          ],
          [
            -73.9281489,
            40.8570094
          ],
          [
            -73.9281532,
            40.8570029
          ],
          [
            -73.928182,
            40.8569585
          ],
          [
            -73.9281333,
            40.8568705
          ],
          [
            -73.9280631,
            40.856806
          ],
          [
            -73.9280294,
            40.8567914
          ],
          [
            -73.9270234,
            40.8563565
          ],
          [
            -73.9269348,
            40.8563198
          ],
          [
            -73.9269462,
            40.8563009
          ],
          [
            -73.9269654,
            40.8562721
          ],
          [
            -73.926863,
            40.85623
          ],
          [
            -73.9269053,
            40.8561713
          ],
          [
            -73.9270811,
            40.8559276
          ],
          [
            -73.9271832,
            40.8557862
          ],
          [
            -73.927319,
            40.855598
          ],
          [
            -73.9275475,
            40.855294
          ],
          [
            -73.9276019,
            40.8552171
          ],
          [
            -73.9276761,
            40.8551173
          ],
          [
            -73.927781,
            40.854976
          ],
          [
            -73.9278682,
            40.8548552
          ],
          [
            -73.9279904,
            40.854686
          ],
          [
            -73.9280789,
            40.8545635
          ],
          [
            -73.9281966,
            40.8544004
          ],
          [
            -73.9281404,
            40.8543769
          ],
          [
            -73.9281009,
            40.8543604
          ],
          [
            -73.9281404,
            40.8543769
          ],
          [
            -73.9281966,
            40.8544004
          ],
          [
            -73.9280789,
            40.8545635
          ],
          [
            -73.9279904,
            40.854686
          ],
          [
            -73.9278682,
            40.8548552
          ],
          [
            -73.927781,
            40.854976
          ],
          [
            -73.9276761,
            40.8551173
          ],
          [
            -73.9276019,
            40.8552171
          ],
          [
            -73.9275475,
            40.855294
          ],
          [
            -73.927319,
            40.855598
          ],
          [
            -73.9271832,
            40.8557862
          ],
          [
            -73.9270811,
            40.8559276
          ],
          [
            -73.9269053,
            40.8561713
          ],
          [
            -73.926863,
            40.85623
          ],
          [
            -73.9269654,
            40.8562721
          ],
          [
            -73.9269462,
            40.8563009
          ],
          [
            -73.9269348,
            40.8563198
          ],
          [
            -73.9270234,
            40.8563565
          ],
          [
            -73.9280294,
            40.8567914
          ],
          [
            -73.9280631,
            40.856806
          ],
          [
            -73.9281333,
            40.8568705
          ],
          [
            -73.928182,
            40.8569585
          ],
          [
            -73.9281532,
            40.8570029
          ],
          [
            -73.9281489,
            40.8570094
          ],
          [
            -73.9280787,
            40.8571175
          ],
          [
            -73.9280616,
            40.8571334
          ],
          [
            -73.9279082,
            40.8572763
          ],
          [
            -73.9277285,
            40.8573773
          ],
          [
            -73.9275592,
            40.8574838
          ],
          [
            -73.9274306,
            40.857576
          ],
          [
            -73.9272534,
            40.8577311
          ],
          [
            -73.9271387,
            40.857878
          ],
          [
            -73.9270113,
            40.8580829
          ],
          [
            -73.9269684,
            40.858162
          ],
          [
            -73.9269295,
            40.8582726
          ],
          [
            -73.9268766,
            40.8584445
          ],
          [
            -73.9268021,
            40.858659
          ],
          [
            -73.9267606,
            40.8587741
          ],
          [
            -73.926662,
            40.8589095
          ],
          [
            -73.926558,
            40.8590059
          ],
          [
            -73.9264447,
            40.859084
          ],
          [
            -73.9261946,
            40.8592235
          ],
          [
            -73.9259136,
            40.8593858
          ],
          [
            -73.9258285,
            40.8594385
          ],
          [
            -73.9256971,
            40.8595354
          ],
          [
            -73.9256064,
            40.8596058
          ],
          [
            -73.9254856,
            40.8597168
          ],
          [
            -73.9253643,
            40.8598467
          ],
          [
            -73.9252453,
            40.8600051
          ],
          [
            -73.9251252,
            40.8601763
          ],
          [
            -73.9250712,
            40.8602662
          ],
          [
            -73.9250062,
            40.860381
          ],
          [
            -73.9249552,
            40.860498
          ],
          [
            -73.9249152,
            40.8606141
          ],
          [
            -73.924877,
            40.8607334
          ],
          [
            -73.9248634,
            40.8607897
          ],
          [
            -73.9248412,
            40.8609092
          ],
          [
            -73.9248223,
            40.8610731
          ],
          [
            -73.9247987,
            40.8613719
          ],
          [
            -73.924761,
            40.861382
          ],
          [
            -73.9247435,
            40.8613881
          ],
          [
            -73.9246067,
            40.8614012
          ],
          [
            -73.9245083,
            40.8614121
          ],
          [
            -73.9244863,
            40.8614163
          ],
          [
            -73.9241536,
            40.8615919
          ],
          [
            -73.923972,
            40.8616878
          ],
          [
            -73.9235996,
            40.8618524
          ],
          [
            -73.9235188,
            40.8618881
          ],
          [
            -73.9231219,
            40.8620298
          ],
          [
            -73.9229244,
            40.8621003
          ],
          [
            -73.9225788,
            40.8622236
          ],
          [
            -73.9225091,
            40.8622501
          ],
          [
            -73.9223022,
            40.8623287
          ],
          [
            -73.9222299,
            40.8623562
          ],
          [
            -73.9217335,
            40.8625448
          ],
          [
            -73.921535,
            40.8626196
          ],
          [
            -73.9211718,
            40.8627564
          ],
          [
            -73.9206344,
            40.8629494
          ],
          [
            -73.9206092,
            40.8629584
          ],
          [
            -73.9205334,
            40.8629936
          ],
          [
            -73.9204627,
            40.8630249
          ],
          [
            -73.9204396,
            40.8630391
          ],
          [
            -73.9204518,
            40.8630592
          ],
          [
            -73.9205064,
            40.8631631
          ],
          [
            -73.9205728,
            40.8632637
          ],
          [
            -73.9205847,
            40.8632833
          ],
          [
            -73.9202647,
            40.8633911
          ],
          [
            -73.9196959,
            40.8636712
          ],
          [
            -73.9195823,
            40.8638078
          ],
          [
            -73.9194966,
            40.8639107
          ],
          [
            -73.9194063,
            40.8640193
          ],
          [
            -73.9191767,
            40.86438
          ],
          [
            -73.9191602,
            40.864406
          ],
          [
            -73.919069,
            40.8645354
          ],
          [
            -73.9191015,
            40.8645495
          ],
          [
            -73.9192034,
            40.8646072
          ],
          [
            -73.9192173,
            40.8646211
          ],
          [
            -73.9192802,
            40.8646838
          ],
          [
            -73.9193195,
            40.864744
          ],
          [
            -73.919362,
            40.864809
          ],
          [
            -73.9194168,
            40.8648944
          ],
          [
            -73.9197976,
            40.8654878
          ],
          [
            -73.9199365,
            40.8657043
          ],
          [
            -73.919996,
            40.865797
          ],
          [
            -73.920064,
            40.8659033
          ],
          [
            -73.9202099,
            40.8661311
          ],
          [
            -73.9204108,
            40.8664448
          ],
          [
            -73.9204924,
            40.8665723
          ],
          [
            -73.9205663,
            40.8666878
          ],
          [
            -73.920612,
            40.866759
          ],
          [
            -73.9206665,
            40.8668436
          ],
          [
            -73.9208274,
            40.8670932
          ],
          [
            -73.9209918,
            40.867349
          ],
          [
            -73.9211514,
            40.8676035
          ],
          [
            -73.9212171,
            40.867707
          ]
        ]
      }
    },
    {
      "type": "Feature",
      "properties": {
        "scenario": "Inwood Hill Park | 2.5mi | out_and_back | moderate | no-amenity",
        "shape": "out_and_back",
        "target_miles": 2.5,
        "distance_m": 3894.8350070258894,
        "candidate_index": 4
      },
      "geometry": {
        "type": "LineString",
        "coordinates": [
          [
            -73.9212171,
            40.867707
          ],
          [
            -73.9211514,
            40.8676035
          ],
          [
            -73.9209918,
            40.867349
          ],
          [
            -73.9208274,
            40.8670932
          ],
          [
            -73.9206665,
            40.8668436
          ],
          [
            -73.920612,
            40.866759
          ],
          [
            -73.9205663,
            40.8666878
          ],
          [
            -73.9204924,
            40.8665723
          ],
          [
            -73.9204108,
            40.8664448
          ],
          [
            -73.9202099,
            40.8661311
          ],
          [
            -73.920064,
            40.8659033
          ],
          [
            -73.9202099,
            40.8661311
          ],
          [
            -73.9204108,
            40.8664448
          ],
          [
            -73.9204924,
            40.8665723
          ],
          [
            -73.9205663,
            40.8666878
          ],
          [
            -73.920612,
            40.866759
          ],
          [
            -73.9206665,
            40.8668436
          ],
          [
            -73.9208274,
            40.8670932
          ],
          [
            -73.9209918,
            40.867349
          ],
          [
            -73.9211514,
            40.8676035
          ],
          [
            -73.9212171,
            40.867707
          ],
          [
            -73.921279,
            40.8678061
          ],
          [
            -73.9212163,
            40.8678258
          ],
          [
            -73.921183,
            40.8678399
          ],
          [
            -73.9208766,
            40.8679499
          ],
          [
            -73.9202559,
            40.868105
          ],
          [
            -73.9199304,
            40.8681899
          ],
          [
            -73.9198938,
            40.868198
          ],
          [
            -73.9198194,
            40.8682186
          ],
          [
            -73.9197517,
            40.8682353
          ],
          [
            -73.9197188,
            40.8682446
          ],
          [
            -73.9191619,
            40.8683891
          ],
          [
            -73.9188404,
            40.8685004
          ],
          [
            -73.9186615,
            40.8685709
          ],
          [
            -73.9184864,
            40.8686398
          ],
          [
            -73.9184808,
            40.8686422
          ],
          [
            -73.917736,
            40.8689638
          ],
          [
            -73.9176193,
            40.8690142
          ],
          [
            -73.9175624,
            40.8690444
          ],
          [
            -73.9174735,
            40.8690918
          ],
          [
            -73.9171987,
            40.869238
          ],
          [
            -73.9167358,
            40.869469
          ],
          [
            -73.9163926,
            40.8696732
          ],
          [
            -73.9163134,
            40.8697203
          ],
          [
            -73.9160287,
            40.8698911
          ],
          [
            -73.9158469,
            40.8700345
          ],
          [
            -73.9154671,
            40.8703269
          ],
          [
            -73.9149634,
            40.870715
          ],
          [
            -73.914348,
            40.8712096
          ],
          [
            -73.9143319,
            40.8712226
          ],
          [
            -73.9142504,
            40.8712707
          ],
          [
            -73.9141813,
            40.8713114
          ],
          [
            -73.9141567,
            40.8713312
          ],
          [
            -73.9139231,
            40.8715189
          ],
          [
            -73.912848,
            40.8723804
          ],
          [
            -73.9119497,
            40.8731241
          ],
          [
            -73.9117384,
            40.8732943
          ],
          [
            -73.9116269,
            40.8733842
          ],
          [
            -73.9108912,
            40.8739769
          ],
          [
            -73.9105511,
            40.8742509
          ],
          [
            -73.9104873,
            40.8742973
          ],
          [
            -73.9104341,
            40.874336
          ],
          [
            -73.9101097,
            40.8744936
          ],
          [
            -73.9099323,
            40.8746351
          ],
          [
            -73.9097321,
            40.8747853
          ],
          [
            -73.9094352,
            40.8750231
          ],
          [
            -73.9085542,
            40.875711
          ],
          [
            -73.9085243,
            40.8757343
          ],
          [
            -73.9085149,
            40.8757445
          ],
          [
            -73.9085103,
            40.875767
          ],
          [
            -73.9085097,
            40.8757953
          ],
          [
            -73.9085299,
            40.8760038
          ],
          [
            -73.9093303,
            40.8759512
          ],
          [
            -73.9093255,
            40.8759616
          ],
          [
            -73.9093232,
            40.875989
          ],
          [
            -73.9093238,
            40.8760146
          ],
          [
            -73.9093437,
            40.8761746
          ],
          [
            -73.9094008,
            40.8766347
          ],
          [
            -73.9093991,
            40.8766763
          ],
          [
            -73.9094227,
            40.8766775
          ],
          [
            -73.9094915,
            40.876681
          ],
          [
            -73.9095353,
            40.8766832
          ],
          [
            -73.9095505,
            40.876684
          ],
          [
            -73.9095555,
            40.8766782
          ],
          [
            -73.9095632,
            40.8766752
          ],
          [
            -73.9095718,
            40.8766755
          ],
          [
            -73.9095865,
            40.8766805
          ],
          [
            -73.9096048,
            40.8766909
          ],
          [
            -73.9096343,
            40.8767151
          ],
          [
            -73.9100683,
            40.877041
          ],
          [
            -73.9104821,
            40.8773517
          ],
          [
            -73.910487,
            40.8773583
          ],
          [
            -73.9104887,
            40.8773671
          ],
          [
            -73.910487,
            40.8773583
          ],
          [
            -73.9104821,
            40.8773517
          ],
          [
            -73.9100683,
            40.877041
          ],
          [
            -73.9096343,
            40.8767151
          ],
          [
            -73.9096048,
            40.8766909
          ],
          [
            -73.9095865,
            40.8766805
          ],
          [
            -73.9095718,
            40.8766755
          ],
          [
            -73.9095632,
            40.8766752
          ],
          [
            -73.9095555,
            40.8766782
          ],
          [
            -73.9095505,
            40.876684
          ],
          [
            -73.9095353,
            40.8766832
          ],
          [
            -73.9094915,
            40.876681
          ],
          [
            -73.9094227,
            40.8766775
          ],
          [
            -73.9093991,
            40.8766763
          ],
          [
            -73.9094008,
            40.8766347
          ],
          [
            -73.9093437,
            40.8761746
          ],
          [
            -73.9093238,
            40.8760146
          ],
          [
            -73.9093232,
            40.875989
          ],
          [
            -73.9093255,
            40.8759616
          ],
          [
            -73.9093303,
            40.8759512
          ],
          [
            -73.9085299,
            40.8760038
          ],
          [
            -73.9085097,
            40.8757953
          ],
          [
            -73.9085103,
            40.875767
          ],
          [
            -73.9085149,
            40.8757445
          ],
          [
            -73.9085243,
            40.8757343
          ],
          [
            -73.9085542,
            40.875711
          ],
          [
            -73.9094352,
            40.8750231
          ],
          [
            -73.9097321,
            40.8747853
          ],
          [
            -73.9099323,
            40.8746351
          ],
          [
            -73.9101097,
            40.8744936
          ],
          [
            -73.9104341,
            40.874336
          ],
          [
            -73.9104873,
            40.8742973
          ],
          [
            -73.9105511,
            40.8742509
          ],
          [
            -73.9108912,
            40.8739769
          ],
          [
            -73.9116269,
            40.8733842
          ],
          [
            -73.9117384,
            40.8732943
          ],
          [
            -73.9119497,
            40.8731241
          ],
          [
            -73.912848,
            40.8723804
          ],
          [
            -73.9139231,
            40.8715189
          ],
          [
            -73.9141567,
            40.8713312
          ],
          [
            -73.9141813,
            40.8713114
          ],
          [
            -73.9142504,
            40.8712707
          ],
          [
            -73.9143319,
            40.8712226
          ],
          [
            -73.914348,
            40.8712096
          ],
          [
            -73.9149634,
            40.870715
          ],
          [
            -73.9154671,
            40.8703269
          ],
          [
            -73.9158469,
            40.8700345
          ],
          [
            -73.9160287,
            40.8698911
          ],
          [
            -73.9163134,
            40.8697203
          ],
          [
            -73.9163926,
            40.8696732
          ],
          [
            -73.9167358,
            40.869469
          ],
          [
            -73.9171987,
            40.869238
          ],
          [
            -73.9174735,
            40.8690918
          ],
          [
            -73.9175624,
            40.8690444
          ],
          [
            -73.9176193,
            40.8690142
          ],
          [
            -73.917736,
            40.8689638
          ],
          [
            -73.9184808,
            40.8686422
          ],
          [
            -73.9184864,
            40.8686398
          ],
          [
            -73.9186615,
            40.8685709
          ],
          [
            -73.9188404,
            40.8685004
          ],
          [
            -73.9191619,
            40.8683891
          ],
          [
            -73.9197188,
            40.8682446
          ],
          [
            -73.9197517,
            40.8682353
          ],
          [
            -73.9198194,
            40.8682186
          ],
          [
            -73.9198938,
            40.868198
          ],
          [
            -73.9199304,
            40.8681899
          ],
          [
            -73.9202559,
            40.868105
          ],
          [
            -73.9208766,
            40.8679499
          ],
          [
            -73.921183,
            40.8678399
          ],
          [
            -73.9212163,
            40.8678258
          ],
          [
            -73.921279,
            40.8678061
          ],
          [
            -73.9212171,
            40.867707
          ]
        ]
      }
    }
  ]
}
