{
  "type": "FeatureCollection",
  "features": [
    {
      "type": "Feature",
      "properties": {
        "scenario": "HARD - Battery Park tip, tiny target",
        "shape": "mix",
        "target_miles": 1.0,
        "distance_m": 1608.5252651344429,
        "candidate_index": 0
      },
      "geometry": {
        "type": "LineString",
        "coordinates": [
          [
            -74.0160745,
            40.7016814
          ],
          [
            -74.0160434,
            40.7017026
          ],
          [
            -74.0161585,
            40.7018056
          ],
          [
            -74.0162979,
            40.7019492
          ],
          [
            -74.0163975,
            40.7020562
          ],
          [
            -74.0163759,
            40.7020662
          ],
          [
            -74.0163632,
            40.7020766
          ],
          [
            -74.0163581,
            40.7020917
          ],
          [
            -74.0163632,
            40.7021082
          ],
          [
            -74.0164444,
            40.7022259
          ],
          [
            -74.0164107,
            40.7022397
          ],
          [
            -74.0163886,
            40.7022477
          ],
          [
            -74.0163666,
            40.7022541
          ],
          [
            -74.0162919,
            40.7022655
          ],
          [
            -74.0162033,
            40.7022851
          ],
          [
            -74.0162429,
            40.7023375
          ],
          [
            -74.016317,
            40.7024429
          ],
          [
            -74.0163355,
            40.7024726
          ],
          [
            -74.0163849,
            40.7025517
          ],
          [
            -74.0164155,
            40.7026023
          ],
          [
            -74.0163728,
            40.7026217
          ],
          [
            -74.0163078,
            40.7026584
          ],
          [
            -74.0162463,
            40.7027083
          ],
          [
            -74.0162053,
            40.7027552
          ],
          [
            -74.0161839,
            40.7027898
          ],
          [
            -74.0162109,
            40.7028531
          ],
          [
            -74.0162368,
            40.7029193
          ],
          [
            -74.016252,
            40.7029799
          ],
          [
            -74.016261,
            40.7030333
          ],
          [
            -74.0162776,
            40.7031256
          ],
          [
            -74.0162827,
            40.7031704
          ],
          [
            -74.016277,
            40.703245
          ],
          [
            -74.016221,
            40.7033117
          ],
          [
            -74.0162024,
            40.7033338
          ],
          [
            -74.0161831,
            40.7033629
          ],
          [
            -74.0161644,
            40.7033979
          ],
          [
            -74.0161355,
            40.7034528
          ],
          [
            -74.0161253,
            40.7035145
          ],
          [
            -74.0161273,
            40.7035725
          ],
          [
            -74.0161253,
            40.7035145
          ],
          [
            -74.0161355,
            40.7034528
          ],
          [
            -74.0161644,
            40.7033979
          ],
          [
            -74.0161831,
            40.7033629
          ],
          [
            -74.0162024,
            40.7033338
          ],
          [
            -74.016221,
            40.7033117
          ],
          [
            -74.016277,
            40.703245
          ],
          [
            -74.0162827,
            40.7031704
          ],
          [
            -74.0162776,
            40.7031256
          ],
          [
            -74.016261,
            40.7030333
          ],
          [
            -74.016252,
            40.7029799
          ],
          [
            -74.0162368,
            40.7029193
          ],
          [
            -74.0162109,
            40.7028531
          ],
          [
            -74.0161839,
            40.7027898
          ],
          [
            -74.0162053,
            40.7027552
          ],
          [
            -74.0162463,
            40.7027083
          ],
          [
            -74.0163078,
            40.7026584
          ],
          [
            -74.0163728,
            40.7026217
          ],
          [
            -74.0164155,
            40.7026023
          ],
          [
            -74.0163849,
            40.7025517
          ],
          [
            -74.0163355,
            40.7024726
          ],
          [
            -74.016317,
            40.7024429
          ],
          [
            -74.0162429,
            40.7023375
          ],
          [
            -74.0162033,
            40.7022851
          ],
          [
            -74.0162919,
            40.7022655
          ],
          [
            -74.0163666,
            40.7022541
          ],
          [
            -74.0163886,
            40.7022477
          ],
          [
            -74.0164107,
            40.7022397
          ],
          [
            -74.0164444,
            40.7022259
          ],
          [
            -74.0163632,
            40.7021082
          ],
          [
            -74.0163581,
            40.7020917
          ],
          [
            -74.0163632,
            40.7020766
          ],
          [
            -74.0163759,
            40.7020662
          ],
          [
            -74.0163975,
            40.7020562
          ],
          [
            -74.0162979,
            40.7019492
          ],
          [
            -74.0161585,
            40.7018056
          ],
          [
            -74.0160434,
            40.7017026
          ],
          [
            -74.0160745,
            40.7016814
          ],
          [
            -74.0160434,
            40.7017026
          ],
          [
            -74.0161585,
            40.7018056
          ],
          [
            -74.0162979,
            40.7019492
          ],
          [
            -74.0163975,
            40.7020562
          ],
          [
            -74.016432,
            40.7020933
          ],
          [
            -74.0167975,
            40.7024925
          ],
          [
            -74.0170844,
            40.7028238
          ],
          [
            -74.0171574,
            40.702908
          ],
          [
            -74.0172058,
            40.7029639
          ],
          [
            -74.0172082,
            40.7029743
          ],
          [
            -74.0172023,
            40.7029848
          ],
          [
            -74.0171444,
            40.7030596
          ],
          [
            -74.0170907,
            40.7031304
          ],
          [
            -74.0171356,
            40.703168
          ],
          [
            -74.0171728,
            40.7032131
          ],
          [
            -74.0172241,
            40.7032857
          ],
          [
            -74.0172712,
            40.7033631
          ],
          [
            -74.01729,
            40.7034113
          ],
          [
            -74.0172959,
            40.7034486
          ],
          [
            -74.0172938,
            40.703488
          ],
          [
            -74.0172832,
            40.7035375
          ],
          [
            -74.0172669,
            40.7035893
          ],
          [
            -74.0172957,
            40.7035944
          ],
          [
            -74.0173053,
            40.7035963
          ],
          [
            -74.0173739,
            40.7036076
          ],
          [
            -74.0173934,
            40.7036129
          ],
          [
            -74.0174051,
            40.7036199
          ],
          [
            -74.0174137,
            40.703633
          ],
          [
            -74.0174151,
            40.7036375
          ],
          [
            -74.0174213,
            40.7036576
          ],
          [
            -74.0174274,
            40.7036942
          ],
          [
            -74.0174325,
            40.7037493
          ],
          [
            -74.017434,
            40.7038017
          ],
          [
            -74.0174314,
            40.7038317
          ],
          [
            -74.01743,
            40.7038472
          ],
          [
            -74.0174229,
            40.7038969
          ],
          [
            -74.0174137,
            40.7039362
          ],
          [
            -74.0173998,
            40.7039715
          ],
          [
            -74.017366,
            40.7040063
          ],
          [
            -74.017328,
            40.7040405
          ],
          [
            -74.0172822,
            40.7040752
          ],
          [
            -74.0172293,
            40.7041067
          ],
          [
            -74.0171814,
            40.7041262
          ],
          [
            -74.0172136,
            40.7041713
          ],
          [
            -74.0172246,
            40.704188
          ],
          [
            -74.0172382,
            40.7042072
          ],
          [
            -74.0172986,
            40.7042924
          ],
          [
            -74.0172492,
            40.7043165
          ],
          [
            -74.0172107,
            40.7043487
          ],
          [
            -74.017199,
            40.7043586
          ],
          [
            -74.0171656,
            40.7044082
          ],
          [
            -74.01715,
            40.7044598
          ],
          [
            -74.0171476,
            40.7045079
          ],
          [
            -74.0171483,
            40.7045382
          ],
          [
            -74.0171705,
            40.7046173
          ],
          [
            -74.0172106,
            40.7046727
          ],
          [
            -74.0172679,
            40.7047185
          ],
          [
            -74.0173321,
            40.7047496
          ],
          [
            -74.0174041,
            40.7047685
          ],
          [
            -74.0174795,
            40.704774
          ],
          [
            -74.0175734,
            40.7048365
          ],
          [
            -74.017843,
            40.7050052
          ],
          [
            -74.0179986,
            40.7051069
          ],
          [
            -74.0180087,
            40.7051175
          ],
          [
            -74.018122,
            40.7052359
          ],
          [
            -74.0181504,
            40.7052036
          ],
          [
            -74.0182038,
            40.705238
          ],
          [
            -74.0182898,
            40.7052916
          ],
          [
            -74.0183066,
            40.7053012
          ],
          [
            -74.018322,
            40.7052895
          ],
          [
            -74.0183649,
            40.7052992
          ],
          [
            -74.018391,
            40.7053044
          ],
          [
            -74.0184005,
            40.7052814
          ],
          [
            -74.0183126,
            40.7051879
          ],
          [
            -74.018322,
            40.7051823
          ],
          [
            -74.0183368,
            40.7051726
          ],
          [
            -74.0183485,
            40.7051668
          ],
          [
            -74.0183368,
            40.7051726
          ],
          [
            -74.018322,
            40.7051823
          ],
          [
            -74.0183126,
            40.7051879
          ],
          [
            -74.0184005,
            40.7052814
          ],
          [
            -74.018391,
            40.7053044
          ],
          [
            -74.0183649,
            40.7052992
          ],
          [
            -74.018322,
            40.7052895
          ],
          [
            -74.0183066,
            40.7053012
          ],
          [
            -74.0182898,
            40.7052916
          ],
          [
            -74.0182038,
            40.705238
          ],
          [
            -74.0181504,
            40.7052036
          ],
          [
            -74.018122,
            40.7052359
          ],
          [
            -74.0180087,
            40.7051175
          ],
          [
            -74.0179986,
            40.7051069
          ],
          [
            -74.017843,
            40.7050052
          ],
          [
            -74.0175734,
            40.7048365
          ],
          [
            -74.0174795,
            40.704774
          ],
          [
            -74.0174041,
            40.7047685
          ],
          [
            -74.0173321,
            40.7047496
          ],
          [
            -74.0172679,
            40.7047185
          ],
          [
            -74.0172106,
            40.7046727
          ],
          [
            -74.0171705,
            40.7046173
          ],
          [
            -74.0171483,
            40.7045382
          ],
          [
            -74.0171476,
            40.7045079
          ],
          [
            -74.01715,
            40.7044598
          ],
          [
            -74.0171656,
            40.7044082
          ],
          [
            -74.017199,
            40.7043586
          ],
          [
            -74.0172107,
            40.7043487
          ],
          [
            -74.0172492,
            40.7043165
          ],
          [
            -74.0172986,
            40.7042924
          ],
          [
            -74.0172382,
            40.7042072
          ],
          [
            -74.0172246,
            40.704188
          ],
          [
            -74.0172136,
            40.7041713
          ],
          [
            -74.0171814,
            40.7041262
          ],
          [
            -74.0172293,
            40.7041067
          ],
          [
            -74.0172822,
            40.7040752
          ],
          [
            -74.017328,
            40.7040405
          ],
          [
            -74.017366,
            40.7040063
          ],
          [
            -74.0173998,
            40.7039715
          ],
          [
            -74.0174137,
            40.7039362
          ],
          [
            -74.0174229,
            40.7038969
          ],
          [
            -74.01743,
            40.7038472
          ],
          [
            -74.0174314,
            40.7038317
          ],
          [
            -74.017434,
            40.7038017
          ],
          [
            -74.0174325,
            40.7037493
          ],
          [
            -74.0174274,
            40.7036942
          ],
          [
            -74.0174213,
            40.7036576
          ],
          [
            -74.0174151,
            40.7036375
          ],
          [
            -74.0174137,
            40.703633
          ],
          [
            -74.0174051,
            40.7036199
          ],
          [
            -74.0173934,
            40.7036129
          ],
          [
            -74.0173739,
            40.7036076
          ],
          [
            -74.0173053,
            40.7035963
          ],
          [
            -74.0172957,
            40.7035944
          ],
          [
            -74.0172669,
            40.7035893
          ],
          [
            -74.0172832,
            40.7035375
          ],
          [
            -74.0172938,
            40.703488
          ],
          [
            -74.0172959,
            40.7034486
          ],
          [
            -74.01729,
            40.7034113
          ],
          [
            -74.0172712,
            40.7033631
          ],
          [
            -74.0172241,
            40.7032857
          ],
          [
            -74.0171728,
            40.7032131
          ],
          [
            -74.0171356,
            40.703168
          ],
          [
            -74.0170907,
            40.7031304
          ],
          [
            -74.0171444,
            40.7030596
          ],
          [
            -74.0172023,
            40.7029848
          ],
          [
            -74.0172082,
            40.7029743
          ],
          [
            -74.0172058,
            40.7029639
          ],
          [
            -74.0171574,
            40.702908
          ],
          [
            -74.0170844,
            40.7028238
          ],
          [
            -74.0167975,
            40.7024925
          ],
          [
            -74.016432,
            40.7020933
          ],
          [
            -74.0163975,
            40.7020562
          ],
          [
            -74.0162979,
            40.7019492
          ],
          [
            -74.0161585,
            40.7018056
          ],
          [
            -74.0160434,
            40.7017026
          ],
          [
            -74.0160745,
            40.7016814
          ]
        ]
      }
    },
    {
      "type": "Feature",
      "properties": {
        "scenario": "HARD - Battery Park tip, tiny target",
        "shape": "mix",
        "target_miles": 1.0,
        "distance_m": 1611.163407870956,
        "candidate_index": 1
      },
      "geometry": {
        "type": "LineString",
        "coordinates": [
          [
            -74.0160745,
            40.7016814
          ],
          [
            -74.0160434,
            40.7017026
          ],
          [
            -74.0158253,
            40.7015143
          ],
          [
            -74.0156109,
            40.7013443
          ],
          [
            -74.0155924,
            40.7013585
          ],
          [
            -74.0155751,
            40.7013718
          ],
          [
            -74.0155698,
            40.7013751
          ],
          [
            -74.0155216,
            40.7014059
          ],
          [
            -74.0154894,
            40.7013938
          ],
          [
            -74.0154565,
            40.7013876
          ],
          [
            -74.0154267,
            40.7013909
          ],
          [
            -74.0153948,
            40.7014008
          ],
          [
            -74.0153326,
            40.701443
          ],
          [
            -74.0152387,
            40.7015068
          ],
          [
            -74.0153326,
            40.701443
          ],
          [
            -74.0153948,
            40.7014008
          ],
          [
            -74.0154267,
            40.7013909
          ],
          [
            -74.0154565,
            40.7013876
          ],
          [
            -74.0154894,
            40.7013938
          ],
          [
            -74.0155216,
            40.7014059
          ],
          [
            -74.0155698,
            40.7013751
          ],
          [
            -74.0155751,
            40.7013718
          ],
          [
            -74.0155924,
            40.7013585
          ],
          [
            -74.0156109,
            40.7013443
          ],
          [
            -74.0158253,
            40.7015143
          ],
          [
            -74.0160434,
            40.7017026
          ],
          [
            -74.0160745,
            40.7016814
          ],
          [
            -74.0160434,
            40.7017026
          ],
          [
            -74.0161585,
            40.7018056
          ],
          [
            -74.0162979,
            40.7019492
          ],
          [
            -74.0163975,
            40.7020562
          ],
          [
            -74.016432,
            40.7020933
          ],
          [
            -74.0167975,
            40.7024925
          ],
          [
            -74.0170844,
            40.7028238
          ],
          [
            -74.0171574,
            40.702908
          ],
          [
            -74.0172058,
            40.7029639
          ],
          [
            -74.0172082,
            40.7029743
          ],
          [
            -74.0172023,
            40.7029848
          ],
          [
            -74.0171444,
            40.7030596
          ],
          [
            -74.0170907,
            40.7031304
          ],
          [
            -74.0171356,
            40.703168
          ],
          [
            -74.0171728,
            40.7032131
          ],
          [
            -74.0172241,
            40.7032857
          ],
          [
            -74.0172712,
            40.7033631
          ],
          [
            -74.01729,
            40.7034113
          ],
          [
            -74.0172959,
            40.7034486
          ],
          [
            -74.0172938,
            40.703488
          ],
          [
            -74.0172832,
            40.7035375
          ],
          [
            -74.0172669,
            40.7035893
          ],
          [
            -74.0172957,
            40.7035944
          ],
          [
            -74.0173053,
            40.7035963
          ],
          [
            -74.0173739,
            40.7036076
          ],
          [
            -74.0173934,
            40.7036129
          ],
          [
            -74.0174051,
            40.7036199
          ],
          [
            -74.0174137,
            40.703633
          ],
          [
            -74.0174151,
            40.7036375
          ],
          [
            -74.0174213,
            40.7036576
          ],
          [
            -74.0174274,
            40.7036942
          ],
          [
            -74.0174325,
            40.7037493
          ],
          [
            -74.017434,
            40.7038017
          ],
          [
            -74.0174314,
            40.7038317
          ],
          [
            -74.01743,
            40.7038472
          ],
          [
            -74.0174229,
            40.7038969
          ],
          [
            -74.0174137,
            40.7039362
          ],
          [
            -74.0173998,
            40.7039715
          ],
          [
            -74.017366,
            40.7040063
          ],
          [
            -74.017328,
            40.7040405
          ],
          [
            -74.0172822,
            40.7040752
          ],
          [
            -74.0172293,
            40.7041067
          ],
          [
            -74.0171814,
            40.7041262
          ],
          [
            -74.0172136,
            40.7041713
          ],
          [
            -74.0172246,
            40.704188
          ],
          [
            -74.0172382,
            40.7042072
          ],
          [
            -74.0172986,
            40.7042924
          ],
          [
            -74.0172492,
            40.7043165
          ],
          [
            -74.0172107,
            40.7043487
          ],
          [
            -74.017199,
            40.7043586
          ],
          [
            -74.0171656,
            40.7044082
          ],
          [
            -74.01715,
            40.7044598
          ],
          [
            -74.0171476,
            40.7045079
          ],
          [
            -74.0171483,
            40.7045382
          ],
          [
            -74.0171705,
            40.7046173
          ],
          [
            -74.0172106,
            40.7046727
          ],
          [
            -74.0172679,
            40.7047185
          ],
          [
            -74.0172421,
            40.7047831
          ],
          [
            -74.0172285,
            40.7048171
          ],
          [
            -74.0172033,
            40.7048771
          ],
          [
            -74.0171794,
            40.704933
          ],
          [
            -74.0171567,
            40.7049892
          ],
          [
            -74.0171488,
            40.7050094
          ],
          [
            -74.0168779,
            40.7057044
          ],
          [
            -74.0168284,
            40.7058314
          ],
          [
            -74.0166097,
            40.7063931
          ],
          [
            -74.0165584,
            40.7065238
          ],
          [
            -74.016331,
            40.7071044
          ],
          [
            -74.0162921,
            40.7072047
          ],
          [
            -74.0164224,
            40.7072569
          ],
          [
            -74.016415,
            40.7072815
          ],
          [
            -74.0164224,
            40.7072569
          ],
          [
            -74.0162921,
            40.7072047
          ],
          [
            -74.016331,
            40.7071044
          ],
          [
            -74.0165584,
            40.7065238
          ],
          [
            -74.0166097,
            40.7063931
          ],
          [
            -74.0168284,
            40.7058314
          ],
          [
            -74.0168779,
            40.7057044
          ],
          [
            -74.0171488,
            40.7050094
          ],
          [
            -74.0171567,
            40.7049892
          ],
          [
            -74.0171794,
            40.704933
          ],
          [
            -74.0172033,
            40.7048771
          ],
          [
            -74.0172285,
            40.7048171
          ],
          [
            -74.0172421,
            40.7047831
          ],
          [
            -74.0172679,
            40.7047185
          ],
          [
            -74.0172106,
            40.7046727
          ],
          [
            -74.0171705,
            40.7046173
          ],
          [
            -74.0171483,
            40.7045382
          ],
          [
            -74.0171476,
            40.7045079
          ],
          [
            -74.01715,
            40.7044598
          ],
          [
            -74.0171656,
            40.7044082
          ],
          [
            -74.017199,
            40.7043586
          ],
          [
            -74.0172107,
            40.7043487
          ],
          [
            -74.0172492,
            40.7043165
          ],
          [
            -74.0172986,
            40.7042924
          ],
          [
            -74.0172382,
            40.7042072
          ],
          [
            -74.0172246,
            40.704188
          ],
          [
            -74.0172136,
            40.7041713
          ],
          [
            -74.0171814,
            40.7041262
          ],
          [
            -74.0172293,
            40.7041067
          ],
          [
            -74.0172822,
            40.7040752
          ],
          [
            -74.017328,
            40.7040405
          ],
          [
            -74.017366,
            40.7040063
          ],
          [
            -74.0173998,
            40.7039715
          ],
          [
            -74.0174137,
            40.7039362
          ],
          [
            -74.0174229,
            40.7038969
          ],
          [
            -74.01743,
            40.7038472
          ],
          [
            -74.0174314,
            40.7038317
          ],
          [
            -74.017434,
            40.7038017
          ],
          [
            -74.0174325,
            40.7037493
          ],
          [
            -74.0174274,
            40.7036942
          ],
          [
            -74.0174213,
            40.7036576
          ],
          [
            -74.0174151,
            40.7036375
          ],
          [
            -74.0174137,
            40.703633
          ],
          [
            -74.0174051,
            40.7036199
          ],
          [
            -74.0173934,
            40.7036129
          ],
          [
            -74.0173739,
            40.7036076
          ],
          [
            -74.0173053,
            40.7035963
          ],
          [
            -74.0172957,
            40.7035944
          ],
          [
            -74.0172669,
            40.7035893
          ],
          [
            -74.0172832,
            40.7035375
          ],
          [
            -74.0172938,
            40.703488
          ],
          [
            -74.0172959,
            40.7034486
          ],
          [
            -74.01729,
            40.7034113
          ],
          [
            -74.0172712,
            40.7033631
          ],
          [
            -74.0172241,
            40.7032857
          ],
          [
            -74.0171728,
            40.7032131
          ],
          [
            -74.0171356,
            40.703168
          ],
          [
            -74.0170907,
            40.7031304
          ],
          [
            -74.0171444,
            40.7030596
          ],
          [
            -74.0172023,
            40.7029848
          ],
          [
            -74.0172082,
            40.7029743
          ],
          [
            -74.0172058,
            40.7029639
          ],
          [
            -74.0171574,
            40.702908
          ],
          [
            -74.0170844,
            40.7028238
          ],
          [
            -74.0167975,
            40.7024925
          ],
          [
            -74.016432,
            40.7020933
          ],
          [
            -74.0163975,
            40.7020562
          ],
          [
            -74.0162979,
            40.7019492
          ],
          [
            -74.0161585,
            40.7018056
          ],
          [
            -74.0160434,
            40.7017026
          ],
          [
            -74.0160745,
            40.7016814
          ]
        ]
      }
    },
    {
      "type": "Feature",
      "properties": {
        "scenario": "HARD - Battery Park tip, tiny target",
        "shape": "mix",
        "target_miles": 1.0,
        "distance_m": 1611.258641636037,
        "candidate_index": 2
      },
      "geometry": {
        "type": "LineString",
        "coordinates": [
          [
            -74.0160745,
            40.7016814
          ],
          [
            -74.0160434,
            40.7017026
          ],
          [
            -74.0161585,
            40.7018056
          ],
          [
            -74.0162979,
            40.7019492
          ],
          [
            -74.0163975,
            40.7020562
          ],
          [
            -74.016432,
            40.7020933
          ],
          [
            -74.0167975,
            40.7024925
          ],
          [
            -74.016432,
            40.7020933
          ],
          [
            -74.0163975,
            40.7020562
          ],
          [
            -74.0162979,
            40.7019492
          ],
          [
            -74.0161585,
            40.7018056
          ],
          [
            -74.0160434,
            40.7017026
          ],
          [
            -74.0160745,
            40.7016814
          ],
          [
            -74.0160434,
            40.7017026
          ],
          [
            -74.0161585,
            40.7018056
          ],
          [
            -74.0162979,
            40.7019492
          ],
          [
            -74.0163975,
            40.7020562
          ],
          [
            -74.016432,
            40.7020933
          ],
          [
            -74.0167975,
            40.7024925
          ],
          [
            -74.0170844,
            40.7028238
          ],
          [
            -74.0171574,
            40.702908
          ],
          [
            -74.0172058,
            40.7029639
          ],
          [
            -74.0172082,
            40.7029743
          ],
          [
            -74.0172023,
            40.7029848
          ],
          [
            -74.0171444,
            40.7030596
          ],
          [
            -74.0170907,
            40.7031304
          ],
          [
            -74.0171356,
            40.703168
          ],
          [
            -74.0171728,
            40.7032131
          ],
          [
            -74.0172241,
            40.7032857
          ],
          [
            -74.0172712,
            40.7033631
          ],
          [
            -74.01729,
            40.7034113
          ],
          [
            -74.0172959,
            40.7034486
          ],
          [
            -74.0172938,
            40.703488
          ],
          [
            -74.0172832,
            40.7035375
          ],
          [
            -74.0172669,
            40.7035893
          ],
          [
            -74.0172957,
            40.7035944
          ],
          [
            -74.0173053,
            40.7035963
          ],
          [
            -74.0173739,
            40.7036076
          ],
          [
            -74.0173934,
            40.7036129
          ],
          [
            -74.0174051,
            40.7036199
          ],
          [
            -74.0174137,
            40.703633
          ],
          [
            -74.0174151,
            40.7036375
          ],
          [
            -74.0174213,
            40.7036576
          ],
          [
            -74.0174274,
            40.7036942
          ],
          [
            -74.0174325,
            40.7037493
          ],
          [
            -74.017434,
            40.7038017
          ],
          [
            -74.0174314,
            40.7038317
          ],
          [
            -74.01743,
            40.7038472
          ],
          [
            -74.0174229,
            40.7038969
          ],
          [
            -74.0174137,
            40.7039362
          ],
          [
            -74.0173998,
            40.7039715
          ],
          [
            -74.017366,
            40.7040063
          ],
          [
            -74.017328,
            40.7040405
          ],
          [
            -74.0172822,
            40.7040752
          ],
          [
            -74.0172293,
            40.7041067
          ],
          [
            -74.0171814,
            40.7041262
          ],
          [
            -74.0172136,
            40.7041713
          ],
          [
            -74.0172246,
            40.704188
          ],
          [
            -74.0172382,
            40.7042072
          ],
          [
            -74.0172986,
            40.7042924
          ],
          [
            -74.0172492,
            40.7043165
          ],
          [
            -74.0172107,
            40.7043487
          ],
          [
            -74.017199,
            40.7043586
          ],
          [
            -74.0171656,
            40.7044082
          ],
          [
            -74.01715,
            40.7044598
          ],
          [
            -74.0171476,
            40.7045079
          ],
          [
            -74.0171483,
            40.7045382
          ],
          [
            -74.0171705,
            40.7046173
          ],
          [
            -74.0172106,
            40.7046727
          ],
          [
            -74.0172679,
            40.7047185
          ],
          [
            -74.0172421,
            40.7047831
          ],
          [
            -74.0172285,
            40.7048171
          ],
          [
            -74.0172033,
            40.7048771
          ],
          [
            -74.0171794,
            40.704933
          ],
          [
            -74.0171567,
            40.7049892
          ],
          [
            -74.0171488,
            40.7050094
          ],
          [
            -74.0168779,
            40.7057044
          ],
          [
            -74.0168284,
            40.7058314
          ],
          [
            -74.0166097,
            40.7063931
          ],
          [
            -74.0165584,
            40.7065238
          ],
          [
            -74.016331,
            40.7071044
          ],
          [
            -74.0162921,
            40.7072047
          ],
          [
            -74.016331,
            40.7071044
          ],
          [
            -74.0165584,
            40.7065238
          ],
          [
            -74.0166097,
            40.7063931
          ],
          [
            -74.0168284,
            40.7058314
          ],
          [
            -74.0168779,
            40.7057044
          ],
          [
            -74.0171488,
            40.7050094
          ],
          [
            -74.0171567,
            40.7049892
          ],
          [
            -74.0171794,
            40.704933
          ],
          [
            -74.0172033,
            40.7048771
          ],
          [
            -74.0172285,
            40.7048171
          ],
          [
            -74.0172421,
            40.7047831
          ],
          [
            -74.0172679,
            40.7047185
          ],
          [
            -74.0172106,
            40.7046727
          ],
          [
            -74.0171705,
            40.7046173
          ],
          [
            -74.0171483,
            40.7045382
          ],
          [
            -74.0171476,
            40.7045079
          ],
          [
            -74.01715,
            40.7044598
          ],
          [
            -74.0171656,
            40.7044082
          ],
          [
            -74.017199,
            40.7043586
          ],
          [
            -74.0172107,
            40.7043487
          ],
          [
            -74.0172492,
            40.7043165
          ],
          [
            -74.0172986,
            40.7042924
          ],
          [
            -74.0172382,
            40.7042072
          ],
          [
            -74.0172246,
            40.704188
          ],
          [
            -74.0172136,
            40.7041713
          ],
          [
            -74.0171814,
            40.7041262
          ],
          [
            -74.0172293,
            40.7041067
          ],
          [
            -74.0172822,
            40.7040752
          ],
          [
            -74.017328,
            40.7040405
          ],
          [
            -74.017366,
            40.7040063
          ],
          [
            -74.0173998,
            40.7039715
          ],
          [
            -74.0174137,
            40.7039362
          ],
          [
            -74.0174229,
            40.7038969
          ],
          [
            -74.01743,
            40.7038472
          ],
          [
            -74.0174314,
            40.7038317
          ],
          [
            -74.017434,
            40.7038017
          ],
          [
            -74.0174325,
            40.7037493
          ],
          [
            -74.0174274,
            40.7036942
          ],
          [
            -74.0174213,
            40.7036576
          ],
          [
            -74.0174151,
            40.7036375
          ],
          [
            -74.0174137,
            40.703633
          ],
          [
            -74.0174051,
            40.7036199
          ],
          [
            -74.0173934,
            40.7036129
          ],
          [
            -74.0173739,
            40.7036076
          ],
          [
            -74.0173053,
            40.7035963
          ],
          [
            -74.0172957,
            40.7035944
          ],
          [
            -74.0172669,
            40.7035893
          ],
          [
            -74.0172832,
            40.7035375
          ],
          [
            -74.0172938,
            40.703488
          ],
          [
            -74.0172959,
            40.7034486
          ],
          [
            -74.01729,
            40.7034113
          ],
          [
            -74.0172712,
            40.7033631
          ],
          [
            -74.0172241,
            40.7032857
          ],
          [
            -74.0171728,
            40.7032131
          ],
          [
            -74.0171356,
            40.703168
          ],
          [
            -74.0170907,
            40.7031304
          ],
          [
            -74.0171444,
            40.7030596
          ],
          [
            -74.0172023,
            40.7029848
          ],
          [
            -74.0172082,
            40.7029743
          ],
          [
            -74.0172058,
            40.7029639
          ],
          [
            -74.0171574,
            40.702908
          ],
          [
            -74.0170844,
            40.7028238
          ],
          [
            -74.0167975,
            40.7024925
          ],
          [
            -74.016432,
            40.7020933
          ],
          [
            -74.0163975,
            40.7020562
          ],
          [
            -74.0162979,
            40.7019492
          ],
          [
            -74.0161585,
            40.7018056
          ],
          [
            -74.0160434,
            40.7017026
          ],
          [
            -74.0160745,
            40.7016814
          ]
        ]
      }
    },
    {
      "type": "Feature",
      "properties": {
        "scenario": "HARD - Battery Park tip, tiny target",
        "shape": "mix",
        "target_miles": 1.0,
        "distance_m": 1612.8340083166975,
        "candidate_index": 3
      },
      "geometry": {
        "type": "LineString",
        "coordinates": [
          [
            -74.0160745,
            40.7016814
          ],
          [
            -74.0160434,
            40.7017026
          ],
          [
            -74.0158253,
            40.7015143
          ],
          [
            -74.0156109,
            40.7013443
          ],
          [
            -74.0158253,
            40.7015143
          ],
          [
            -74.0160434,
            40.7017026
          ],
          [
            -74.0160745,
            40.7016814
          ],
          [
            -74.0160434,
            40.7017026
          ],
          [
            -74.0161585,
            40.7018056
          ],
          [
            -74.0162979,
            40.7019492
          ],
          [
            -74.0163975,
            40.7020562
          ],
          [
            -74.0163759,
            40.7020662
          ],
          [
            -74.0163632,
            40.7020766
          ],
          [
            -74.0163581,
            40.7020917
          ],
          [
            -74.0163632,
            40.7021082
          ],
          [
            -74.0164444,
            40.7022259
          ],
          [
            -74.0164107,
            40.7022397
          ],
          [
            -74.0163886,
            40.7022477
          ],
          [
            -74.0163666,
            40.7022541
          ],
          [
            -74.0162919,
            40.7022655
          ],
          [
            -74.0162033,
            40.7022851
          ],
          [
            -74.0162429,
            40.7023375
          ],
          [
            -74.016317,
            40.7024429
          ],
          [
            -74.0163355,
            40.7024726
          ],
          [
            -74.0163849,
            40.7025517
          ],
          [
            -74.0164155,
            40.7026023
          ],
          [
            -74.0163728,
            40.7026217
          ],
          [
            -74.0163078,
            40.7026584
          ],
          [
            -74.0162463,
            40.7027083
          ],
          [
            -74.0162053,
            40.7027552
          ],
          [
            -74.0161839,
            40.7027898
          ],
          [
            -74.0162109,
            40.7028531
          ],
          [
            -74.0162368,
            40.7029193
          ],
          [
            -74.016252,
            40.7029799
          ],
          [
            -74.016261,
            40.7030333
          ],
          [
            -74.0162776,
            40.7031256
          ],
          [
            -74.0162827,
            40.7031704
          ],
          [
            -74.016277,
            40.703245
          ],
          [
            -74.016221,
            40.7033117
          ],
          [
            -74.0162024,
            40.7033338
          ],
          [
            -74.0161831,
            40.7033629
          ],
          [
            -74.0161644,
            40.7033979
          ],
          [
            -74.0161355,
            40.7034528
          ],
          [
            -74.0161253,
            40.7035145
          ],
          [
            -74.0161273,
            40.7035725
          ],
          [
            -74.0160285,
            40.7035588
          ],
          [
            -74.0159468,
            40.7035563
          ],
          [
            -74.0158757,
            40.703558
          ],
          [
            -74.0157812,
            40.7035592
          ],
          [
            -74.0156975,
            40.7035624
          ],
          [
            -74.015621,
            40.7035688
          ],
          [
            -74.0155284,
            40.7035822
          ],
          [
            -74.0154363,
            40.7036023
          ],
          [
            -74.0153431,
            40.7036295
          ],
          [
            -74.0152474,
            40.7036633
          ],
          [
            -74.0151538,
            40.7037025
          ],
          [
            -74.0150737,
            40.7037446
          ],
          [
            -74.0150018,
            40.7037901
          ],
          [
            -74.0149305,
            40.7038477
          ],
          [
            -74.0148623,
            40.703913
          ],
          [
            -74.0148093,
            40.703966
          ],
          [
            -74.0147693,
            40.7039965
          ],
          [
            -74.0147372,
            40.7040149
          ],
          [
            -74.0146958,
            40.7040263
          ],
          [
            -74.0146512,
            40.704028
          ],
          [
            -74.0145826,
            40.7040158
          ],
          [
            -74.014556,
            40.7040087
          ],
          [
            -74.0144469,
            40.7039836
          ],
          [
            -74.0144012,
            40.7042144
          ],
          [
            -74.0143709,
            40.7043388
          ],
          [
            -74.0143622,
            40.7043847
          ],
          [
            -74.0143636,
            40.7044049
          ],
          [
            -74.0143721,
            40.7044429
          ],
          [
            -74.0143842,
            40.7044715
          ],
          [
            -74.0143892,
            40.7044793
          ],
          [
            -74.014414,
            40.7045062
          ],
          [
            -74.0144435,
            40.7045217
          ],
          [
            -74.0144657,
            40.7045303
          ],
          [
            -74.0144942,
            40.704539
          ],
          [
            -74.0145403,
            40.7045503
          ],
          [
            -74.01462,
            40.7045672
          ],
          [
            -74.0147095,
            40.7045854
          ],
          [
            -74.0149135,
            40.7046288
          ],
          [
            -74.0148975,
            40.7046753
          ],
          [
            -74.014887,
            40.7047069
          ],
          [
            -74.0148771,
            40.7047367
          ],
          [
            -74.0148671,
            40.7047666
          ],
          [
            -74.014852,
            40.7048114
          ],
          [
            -74.0148363,
            40.7048582
          ],
          [
            -74.014828,
            40.7048785
          ],
          [
            -74.0148087,
            40.7049258
          ],
          [
            -74.0142729,
            40.7061829
          ],
          [
            -74.0142775,
            40.7061927
          ],
          [
            -74.0143485,
            40.7062168
          ],
          [
            -74.0144094,
            40.7062375
          ],
          [
            -74.0144322,
            40.7062467
          ],
          [
            -74.0144082,
            40.7062866
          ],
          [
            -74.0143801,
            40.7063356
          ],
          [
            -74.0143666,
            40.706363
          ],
          [
            -74.0143569,
            40.7063842
          ],
          [
            -74.014347,
            40.7064022
          ],
          [
            -74.0143337,
            40.7064197
          ],
          [
            -74.0143178,
            40.7064363
          ],
          [
            -74.0142839,
            40.7064588
          ],
          [
            -74.0142407,
            40.7064822
          ],
          [
            -74.0142839,
            40.7064588
          ],
          [
            -74.0143178,
            40.7064363
          ],
          [
            -74.0143337,
            40.7064197
          ],
          [
            -74.014347,
            40.7064022
          ],
          [
            -74.0143569,
            40.7063842
          ],
          [
            -74.0143666,
            40.706363
          ],
          [
            -74.0143801,
            40.7063356
          ],
          [
            -74.0144082,
            40.7062866
          ],
          [
            -74.0144322,
            40.7062467
          ],
          [
            -74.0144094,
            40.7062375
          ],
          [
            -74.0143485,
            40.7062168
          ],
          [
            -74.0142775,
            40.7061927
          ],
          [
            -74.0142729,
            40.7061829
          ],
          [
            -74.0148087,
            40.7049258
          ],
          [
            -74.014828,
            40.7048785
          ],
          [
            -74.0148363,
            40.7048582
          ],
          [
            -74.014852,
            40.7048114
          ],
          [
            -74.0148671,
            40.7047666
          ],
          [
            -74.0148771,
            40.7047367
          ],
          [
            -74.014887,
            40.7047069
          ],
          [
            -74.0148975,
            40.7046753
          ],
          [
            -74.0149135,
            40.7046288
          ],
          [
            -74.0147095,
            40.7045854
          ],
          [
            -74.01462,
            40.7045672
          ],
          [
            -74.0145403,
            40.7045503
          ],
          [
            -74.0144942,
            40.704539
          ],
          [
            -74.0144657,
            40.7045303
          ],
          [
            -74.0144435,
            40.7045217
          ],
          [
            -74.014414,
            40.7045062
          ],
          [
            -74.0143892,
            40.7044793
          ],
          [
            -74.0143842,
            40.7044715
          ],
          [
            -74.0143721,
            40.7044429
          ],
          [
            -74.0143636,
            40.7044049
          ],
          [
            -74.0143622,
            40.7043847
          ],
          [
            -74.0143709,
            40.7043388
          ],
          [
            -74.0144012,
            40.7042144
          ],
          [
            -74.0144469,
            40.7039836
          ],
          [
            -74.014556,
            40.7040087
          ],
          [
            -74.0145826,
            40.7040158
          ],
          [
            -74.0146512,
            40.704028
          ],
          [
            -74.0146958,
            40.7040263
          ],
          [
            -74.0147372,
            40.7040149
          ],
          [
            -74.0147693,
            40.7039965
          ],
          [
            -74.0148093,
            40.703966
          ],
          [
            -74.0148623,
            40.703913
          ],
          [
            -74.0149305,
            40.7038477
          ],
          [
            -74.0150018,
            40.7037901
          ],
          [
            -74.0150737,
            40.7037446
          ],
          [
            -74.0151538,
            40.7037025
          ],
          [
            -74.0152474,
            40.7036633
          ],
          [
            -74.0153431,
            40.7036295
          ],
          [
            -74.0154363,
            40.7036023
          ],
          [
            -74.0155284,
            40.7035822
          ],
          [
            -74.015621,
            40.7035688
          ],
          [
            -74.0156975,
            40.7035624
          ],
          [
            -74.0157812,
            40.7035592
          ],
          [
            -74.0158757,
            40.703558
          ],
          [
            -74.0159468,
            40.7035563
          ],
          [
            -74.0160285,
            40.7035588
          ],
          [
            -74.0161273,
            40.7035725
          ],
          [
            -74.0161253,
            40.7035145
          ],
          [
            -74.0161355,
            40.7034528
          ],
          [
            -74.0161644,
            40.7033979
          ],
          [
            -74.0161831,
            40.7033629
          ],
          [
            -74.0162024,
            40.7033338
          ],
          [
            -74.016221,
            40.7033117
          ],
          [
            -74.016277,
            40.703245
          ],
          [
            -74.0162827,
            40.7031704
          ],
          [
            -74.0162776,
            40.7031256
          ],
          [
            -74.016261,
            40.7030333
          ],
          [
            -74.016252,
            40.7029799
          ],
          [
            -74.0162368,
            40.7029193
          ],
          [
            -74.0162109,
            40.7028531
          ],
          [
            -74.0161839,
            40.7027898
          ],
          [
            -74.0162053,
            40.7027552
          ],
          [
            -74.0162463,
            40.7027083
          ],
          [
            -74.0163078,
            40.7026584
          ],
          [
            -74.0163728,
            40.7026217
          ],
          [
            -74.0164155,
            40.7026023
          ],
          [
            -74.0163849,
            40.7025517
          ],
          [
            -74.0163355,
            40.7024726
          ],
          [
            -74.016317,
            40.7024429
          ],
          [
            -74.0162429,
            40.7023375
          ],
          [
            -74.0162033,
            40.7022851
          ],
          [
            -74.0162919,
            40.7022655
          ],
          [
            -74.0163666,
            40.7022541
          ],
          [
            -74.0163886,
            40.7022477
          ],
          [
            -74.0164107,
            40.7022397
          ],
          [
            -74.0164444,
            40.7022259
          ],
          [
            -74.0163632,
            40.7021082
          ],
          [
            -74.0163581,
            40.7020917
          ],
          [
            -74.0163632,
            40.7020766
          ],
          [
            -74.0163759,
            40.7020662
          ],
          [
            -74.0163975,
            40.7020562
          ],
          [
            -74.0162979,
            40.7019492
          ],
          [
            -74.0161585,
            40.7018056
          ],
          [
            -74.0160434,
            40.7017026
          ],
          [
            -74.0160745,
            40.7016814
          ]
        ]
      }
    },
    {
      "type": "Feature",
      "properties": {
        "scenario": "HARD - Battery Park tip, tiny target",
        "shape": "mix",
        "target_miles": 1.0,
        "distance_m": 1620.6092161521021,
        "candidate_index": 4
      },
      "geometry": {
        "type": "LineString",
        "coordinates": [
          [
            -74.0160745,
            40.7016814
          ],
          [
            -74.0160434,
            40.7017026
          ],
          [
            -74.0158253,
            40.7015143
          ],
          [
            -74.0156109,
            40.7013443
          ],
          [
            -74.0154503,
            40.7012176
          ],
          [
            -74.0156109,
            40.7013443
          ],
          [
            -74.0158253,
            40.7015143
          ],
          [
            -74.0160434,
            40.7017026
          ],
          [
            -74.0160745,
            40.7016814
          ],
          [
            -74.0160434,
            40.7017026
          ],
          [
            -74.0161585,
            40.7018056
          ],
          [
            -74.0162979,
            40.7019492
          ],
          [
            -74.0163975,
            40.7020562
          ],
          [
            -74.016432,
            40.7020933
          ],
          [
            -74.0167975,
            40.7024925
          ],
          [
            -74.0170844,
            40.7028238
          ],
          [
            -74.0171574,
            40.702908
          ],
          [
            -74.0172058,
            40.7029639
          ],
          [
            -74.0172082,
            40.7029743
          ],
          [
            -74.0172023,
            40.7029848
          ],
          [
            -74.0171444,
            40.7030596
          ],
          [
            -74.0170907,
            40.7031304
          ],
          [
            -74.0171356,
            40.703168
          ],
          [
            -74.0171728,
            40.7032131
          ],
          [
            -74.0172241,
            40.7032857
          ],
          [
            -74.0172712,
            40.7033631
          ],
          [
            -74.01729,
            40.7034113
          ],
          [
            -74.0172959,
            40.7034486
          ],
          [
            -74.0172938,
            40.703488
          ],
          [
            -74.0172832,
            40.7035375
          ],
          [
            -74.0172669,
            40.7035893
          ],
          [
            -74.0172957,
            40.7035944
          ],
          [
            -74.0173053,
            40.7035963
          ],
          [
            -74.0173739,
            40.7036076
          ],
          [
            -74.0173934,
            40.7036129
          ],
          [
            -74.0174051,
            40.7036199
          ],
          [
            -74.0174137,
            40.703633
          ],
          [
            -74.0174151,
            40.7036375
          ],
          [
            -74.0174213,
            40.7036576
          ],
          [
            -74.0174274,
            40.7036942
          ],
          [
            -74.0174325,
            40.7037493
          ],
          [
            -74.017434,
            40.7038017
          ],
          [
            -74.0174314,
            40.7038317
          ],
          [
            -74.01743,
            40.7038472
          ],
          [
            -74.0174229,
            40.7038969
          ],
          [
            -74.0174137,
            40.7039362
          ],
          [
            -74.0173998,
            40.7039715
          ],
          [
            -74.017366,
            40.7040063
          ],
          [
            -74.017328,
            40.7040405
          ],
          [
            -74.0172822,
            40.7040752
          ],
          [
            -74.0172293,
            40.7041067
          ],
          [
            -74.0171814,
            40.7041262
          ],
          [
            -74.0172136,
            40.7041713
          ],
          [
            -74.0172246,
            40.704188
          ],
          [
            -74.0172382,
            40.7042072
          ],
          [
            -74.0172986,
            40.7042924
          ],
          [
            -74.0172492,
            40.7043165
          ],
          [
            -74.0172107,
            40.7043487
          ],
          [
            -74.017199,
            40.7043586
          ],
          [
            -74.0171656,
            40.7044082
          ],
          [
            -74.01715,
            40.7044598
          ],
          [
            -74.0171476,
            40.7045079
          ],
          [
            -74.0171483,
            40.7045382
          ],
          [
            -74.0171705,
            40.7046173
          ],
          [
            -74.0172106,
            40.7046727
          ],
          [
            -74.0172679,
            40.7047185
          ],
          [
            -74.0172421,
            40.7047831
          ],
          [
            -74.0173459,
            40.7048199
          ],
          [
            -74.0174035,
            40.7048487
          ],
          [
            -74.0175018,
            40.7049014
          ],
          [
            -74.0175892,
            40.7049564
          ],
          [
            -74.0177106,
            40.7050392
          ],
          [
            -74.0177197,
            40.7050454
          ],
          [
            -74.0177329,
            40.7050555
          ],
          [
            -74.0177676,
            40.7050821
          ],
          [
            -74.017817,
            40.7051305
          ],
          [
            -74.0178482,
            40.7051628
          ],
          [
            -74.0178887,
            40.7052122
          ],
          [
            -74.017914,
            40.7052443
          ],
          [
            -74.0179381,
            40.7052788
          ],
          [
            -74.0179818,
            40.7053412
          ],
          [
            -74.018022,
            40.7054129
          ],
          [
            -74.0180529,
            40.7054993
          ],
          [
            -74.0180761,
            40.7055897
          ],
          [
            -74.01808,
            40.7056048
          ],
          [
            -74.0180945,
            40.7057337
          ],
          [
            -74.0181015,
            40.7058406
          ],
          [
            -74.0181032,
            40.7058663
          ],
          [
            -74.0180762,
            40.7060748
          ],
          [
            -74.0180413,
            40.7061816
          ],
          [
            -74.0180243,
            40.7062451
          ],
          [
            -74.0180121,
            40.7062869
          ],
          [
            -74.0180049,
            40.7063106
          ],
          [
            -74.0179788,
            40.7063768
          ],
          [
            -74.0178712,
            40.7065948
          ],
          [
            -74.017716,
            40.7068201
          ],
          [
            -74.017768,
            40.706842
          ],
          [
            -74.017967,
            40.7069246
          ],
          [
            -74.0179865,
            40.7069364
          ],
          [
            -74.0179992,
            40.706949
          ],
          [
            -74.0180038,
            40.7069627
          ],
          [
            -74.0180029,
            40.7069802
          ],
          [
            -74.0180002,
            40.7069875
          ],
          [
            -74.0179962,
            40.706998
          ],
          [
            -74.0179857,
            40.7070143
          ],
          [
            -74.0180038,
            40.7070214
          ],
          [
            -74.0181772,
            40.7070935
          ],
          [
            -74.0182294,
            40.7071145
          ],
          [
            -74.0181772,
            40.7070935
          ],
          [
            -74.0180038,
            40.7070214
          ],
          [
            -74.0179857,
            40.7070143
          ],
          [
            -74.0179962,
            40.706998
          ],
          [
            -74.0180002,
            40.7069875
          ],
          [
            -74.0180029,
            40.7069802
          ],
          [
            -74.0180038,
            40.7069627
          ],
          [
            -74.0179992,
            40.706949
          ],
          [
            -74.0179865,
            40.7069364
          ],
          [
            -74.017967,
            40.7069246
          ],
          [
            -74.017768,
            40.706842
          ],
          [
            -74.017716,
            40.7068201
          ],
          [
            -74.0178712,
            40.7065948
          ],
          [
            -74.0179788,
            40.7063768
          ],
          [
            -74.0180049,
            40.7063106
          ],
          [
            -74.0180121,
            40.7062869
          ],
          [
            -74.0180243,
            40.7062451
          ],
          [
            -74.0180413,
            40.7061816
          ],
          [
            -74.0180762,
            40.7060748
          ],
          [
            -74.0181032,
            40.7058663
          ],
          [
            -74.0181015,
            40.7058406
          ],
          [
            -74.0180945,
            40.7057337
          ],
          [
            -74.01808,
            40.7056048
          ],
          [
            -74.0180761,
            40.7055897
          ],
          [
            -74.0180529,
            40.7054993
          ],
          [
            -74.018022,
            40.7054129
          ],
          [
            -74.0179818,
            40.7053412
          ],
          [
            -74.0179381,
            40.7052788
          ],
          [
            -74.017914,
            40.7052443
          ],
          [
            -74.0178887,
            40.7052122
          ],
          [
            -74.0178482,
            40.7051628
          ],
          [
            -74.017817,
            40.7051305
          ],
          [
            -74.0177676,
            40.7050821
          ],
          [
            -74.0177329,
            40.7050555
          ],
          [
            -74.0177197,
            40.7050454
          ],
          [
            -74.0177106,
            40.7050392
          ],
          [
            -74.0175892,
            40.7049564
          ],
          [
            -74.0175018,
            40.7049014
          ],
          [
            -74.0174035,
            40.7048487
          ],
          [
            -74.0173459,
            40.7048199
          ],
          [
            -74.0172421,
            40.7047831
          ],
          [
            -74.0172679,
            40.7047185
          ],
          [
            -74.0172106,
            40.7046727
          ],
          [
            -74.0171705,
            40.7046173
          ],
          [
            -74.0171483,
            40.7045382
          ],
          [
            -74.0171476,
            40.7045079
          ],
          [
            -74.01715,
            40.7044598
          ],
          [
            -74.0171656,
            40.7044082
          ],
          [
            -74.017199,
            40.7043586
          ],
          [
            -74.0172107,
            40.7043487
          ],
          [
            -74.0172492,
            40.7043165
          ],
          [
            -74.0172986,
            40.7042924
          ],
          [
            -74.0172382,
            40.7042072
          ],
          [
            -74.0172246,
            40.704188
          ],
          [
            -74.0172136,
            40.7041713
          ],
          [
            -74.0171814,
            40.7041262
          ],
          [
            -74.0172293,
            40.7041067
          ],
          [
            -74.0172822,
            40.7040752
          ],
          [
            -74.017328,
            40.7040405
          ],
          [
            -74.017366,
            40.7040063
          ],
          [
            -74.0173998,
            40.7039715
          ],
          [
            -74.0174137,
            40.7039362
          ],
          [
            -74.0174229,
            40.7038969
          ],
          [
            -74.01743,
            40.7038472
          ],
          [
            -74.0174314,
            40.7038317
          ],
          [
            -74.017434,
            40.7038017
          ],
          [
            -74.0174325,
            40.7037493
          ],
          [
            -74.0174274,
            40.7036942
          ],
          [
            -74.0174213,
            40.7036576
          ],
          [
            -74.0174151,
            40.7036375
          ],
          [
            -74.0174137,
            40.703633
          ],
          [
            -74.0174051,
            40.7036199
          ],
          [
            -74.0173934,
            40.7036129
          ],
          [
            -74.0173739,
            40.7036076
          ],
          [
            -74.0173053,
            40.7035963
          ],
          [
            -74.0172957,
            40.7035944
          ],
          [
            -74.0172669,
            40.7035893
          ],
          [
            -74.0172832,
            40.7035375
          ],
          [
            -74.0172938,
            40.703488
          ],
          [
            -74.0172959,
            40.7034486
          ],
          [
            -74.01729,
            40.7034113
          ],
          [
            -74.0172712,
            40.7033631
          ],
          [
            -74.0172241,
            40.7032857
          ],
          [
            -74.0171728,
            40.7032131
          ],
          [
            -74.0171356,
            40.703168
          ],
          [
            -74.0170907,
            40.7031304
          ],
          [
            -74.0171444,
            40.7030596
          ],
          [
            -74.0172023,
            40.7029848
          ],
          [
            -74.0172082,
            40.7029743
          ],
          [
            -74.0172058,
            40.7029639
          ],
          [
            -74.0171574,
            40.702908
          ],
          [
            -74.0170844,
            40.7028238
          ],
          [
            -74.0167975,
            40.7024925
          ],
          [
            -74.016432,
            40.7020933
          ],
          [
            -74.0163975,
            40.7020562
          ],
          [
            -74.0162979,
            40.7019492
          ],
          [
            -74.0161585,
            40.7018056
          ],
          [
            -74.0160434,
            40.7017026
          ],
          [
            -74.0160745,
            40.7016814
          ]
        ]
      }
    }
  ]
}
