{
  "type": "FeatureCollection",
  "features": [
    {
      "type": "Feature",
      "properties": {
        "scenario": "Washington Heights - Bennett Park | 2.5mi | round | flat | amenity",
        "shape": "round",
        "target_miles": 2.5,
        "distance_m": 3929.693477087389,
        "candidate_index": 0
      },
      "geometry": {
        "type": "LineString",
        "coordinates": [
          [
            -73.9371064,
            40.8513337
          ],
          [
            -73.9370279,
            40.8513053
          ],
          [
            -73.9367652,
            40.8519515
          ],
          [
            -73.937692,
            40.8521675
          ],
          [
            -73.9374686,
            40.8528974
          ],
          [
            -73.9373457,
            40.8532967
          ],
          [
            -73.9373065,
            40.8534236
          ],
          [
            -73.9368105,
            40.855029
          ],
          [
            -73.9367841,
            40.8551134
          ],
          [
            -73.9367707,
            40.8551572
          ],
          [
            -73.9366972,
            40.8553842
          ],
          [
            -73.9365953,
            40.8556153
          ],
          [
            -73.9365006,
            40.8557599
          ],
          [
            -73.9363291,
            40.8559775
          ],
          [
            -73.9361933,
            40.85616
          ],
          [
            -73.9360736,
            40.8563154
          ],
          [
            -73.9355427,
            40.8570294
          ],
          [
            -73.9355311,
            40.857045
          ],
          [
            -73.9355001,
            40.857085
          ],
          [
            -73.9354645,
            40.8571308
          ],
          [
            -73.9354512,
            40.8571484
          ],
          [
            -73.9352429,
            40.8574248
          ],
          [
            -73.9351187,
            40.8575923
          ],
          [
            -73.9348878,
            40.8579039
          ],
          [
            -73.9346947,
            40.8581606
          ],
          [
            -73.9346771,
            40.858184
          ],
          [
            -73.9345621,
            40.8583496
          ],
          [
            -73.9343982,
            40.8585855
          ],
          [
            -73.93433,
            40.8587308
          ],
          [
            -73.9342364,
            40.8589024
          ],
          [
            -73.9340789,
            40.8591567
          ],
          [
            -73.9340757,
            40.85916
          ],
          [
            -73.9340721,
            40.8591628
          ],
          [
            -73.9340666,
            40.8591659
          ],
          [
            -73.9340607,
            40.8591682
          ],
          [
            -73.9340432,
            40.8591658
          ],
          [
            -73.9338859,
            40.8591269
          ],
          [
            -73.9338776,
            40.8591255
          ],
          [
            -73.933871,
            40.859125
          ],
          [
            -73.9338613,
            40.8591255
          ],
          [
            -73.9338502,
            40.8591271
          ],
          [
            -73.9338402,
            40.8591295
          ],
          [
            -73.9338303,
            40.859133
          ],
          [
            -73.9338244,
            40.859136
          ],
          [
            -73.9338196,
            40.8591396
          ],
          [
            -73.9338154,
            40.8591451
          ],
          [
            -73.9337298,
            40.8593309
          ],
          [
            -73.9336561,
            40.8593088
          ],
          [
            -73.9336276,
            40.8593716
          ],
          [
            -73.9335874,
            40.8593918
          ],
          [
            -73.9334594,
            40.859453
          ],
          [
            -73.9333441,
            40.8595138
          ],
          [
            -73.9333104,
            40.859527
          ],
          [
            -73.9332758,
            40.8595364
          ],
          [
            -73.9331805,
            40.8595503
          ],
          [
            -73.9330317,
            40.8595723
          ],
          [
            -73.9329585,
            40.8595941
          ],
          [
            -73.9328878,
            40.8596265
          ],
          [
            -73.932803,
            40.8596676
          ],
          [
            -73.932755,
            40.8596746
          ],
          [
            -73.932653,
            40.8597011
          ],
          [
            -73.9325508,
            40.8597571
          ],
          [
            -73.9324564,
            40.8598401
          ],
          [
            -73.9324475,
            40.8598469
          ],
          [
            -73.9324135,
            40.8598675
          ],
          [
            -73.9323912,
            40.8598859
          ],
          [
            -73.932374,
            40.8599054
          ],
          [
            -73.932371,
            40.8599105
          ],
          [
            -73.9323646,
            40.8599217
          ],
          [
            -73.93235,
            40.8599522
          ],
          [
            -73.9323314,
            40.8599963
          ],
          [
            -73.9323025,
            40.8600268
          ],
          [
            -73.9322572,
            40.8600429
          ],
          [
            -73.9321972,
            40.8600555
          ],
          [
            -73.9321842,
            40.8600624
          ],
          [
            -73.9321411,
            40.8601067
          ],
          [
            -73.9320977,
            40.8601656
          ],
          [
            -73.932022,
            40.8602448
          ],
          [
            -73.9320048,
            40.8602957
          ],
          [
            -73.931975,
            40.8603346
          ],
          [
            -73.931925,
            40.8603737
          ],
          [
            -73.9318477,
            40.8604341
          ],
          [
            -73.9317938,
            40.8604939
          ],
          [
            -73.9316773,
            40.8607201
          ],
          [
            -73.9316336,
            40.8607806
          ],
          [
            -73.9315679,
            40.860842
          ],
          [
            -73.9315158,
            40.860893
          ],
          [
            -73.9314625,
            40.8609567
          ],
          [
            -73.9313879,
            40.8610364
          ],
          [
            -73.9313209,
            40.8610861
          ],
          [
            -73.9312615,
            40.8611268
          ],
          [
            -73.9312277,
            40.8611389
          ],
          [
            -73.9311916,
            40.8611404
          ],
          [
            -73.9311192,
            40.8611113
          ],
          [
            -73.9310669,
            40.8612979
          ],
          [
            -73.931022,
            40.8612941
          ],
          [
            -73.9309757,
            40.8613361
          ],
          [
            -73.930745,
            40.8615546
          ],
          [
            -73.9306807,
            40.861587
          ],
          [
            -73.9306109,
            40.8616296
          ],
          [
            -73.9305479,
            40.861657
          ],
          [
            -73.9304969,
            40.8616702
          ],
          [
            -73.9304272,
            40.8617899
          ],
          [
            -73.9303052,
            40.8622432
          ],
          [
            -73.9303105,
            40.8624278
          ],
          [
            -73.9303441,
            40.8625678
          ],
          [
            -73.9304473,
            40.8627625
          ],
          [
            -73.9305278,
            40.8628842
          ],
          [
            -73.9305841,
            40.8630262
          ],
          [
            -73.9305801,
            40.8631665
          ],
          [
            -73.9305784,
            40.8632085
          ],
          [
            -73.930568,
            40.8632504
          ],
          [
            -73.9305305,
            40.8633315
          ],
          [
            -73.9304355,
            40.863457
          ],
          [
            -73.9303518,
            40.8636463
          ],
          [
            -73.930336,
            40.8636804
          ],
          [
            -73.9302086,
            40.8639137
          ],
          [
            -73.9299431,
            40.8641023
          ],
          [
            -73.9297111,
            40.8643569
          ],
          [
            -73.9295153,
            40.8645587
          ],
          [
            -73.9293432,
            40.8646484
          ],
          [
            -73.9293416,
            40.8647
          ],
          [
            -73.9293811,
            40.8647707
          ],
          [
            -73.9293878,
            40.8648143
          ],
          [
            -73.9293905,
            40.8648488
          ],
          [
            -73.929383,
            40.8649179
          ],
          [
            -73.9292755,
            40.8649926
          ],
          [
            -73.9293271,
            40.8651471
          ],
          [
            -73.9293688,
            40.8652718
          ],
          [
            -73.9294833,
            40.8652487
          ],
          [
            -73.9294925,
            40.8652708
          ],
          [
            -73.9295312,
            40.8653129
          ],
          [
            -73.9295512,
            40.8652852
          ],
          [
            -73.9295616,
            40.8652632
          ],
          [
            -73.9295586,
            40.8652421
          ],
          [
            -73.9295502,
            40.8652192
          ],
          [
            -73.9295377,
            40.8651834
          ],
          [
            -73.9295355,
            40.8651772
          ],
          [
            -73.9295118,
            40.8651098
          ],
          [
            -73.9295295,
            40.8651065
          ],
          [
            -73.9296239,
            40.865093
          ],
          [
            -73.92966,
            40.8650865
          ],
          [
            -73.9295831,
            40.8650146
          ],
          [
            -73.9295262,
            40.8649273
          ],
          [
            -73.929475,
            40.8648123
          ],
          [
            -73.9294575,
            40.864714
          ],
          [
            -73.9293432,
            40.8646484
          ],
          [
            -73.9292595,
            40.8646484
          ],
          [
            -73.9292205,
            40.8646322
          ],
          [
            -73.9291886,
            40.8646031
          ],
          [
            -73.929233,
            40.864569
          ],
          [
            -73.9294606,
            40.8643815
          ],
          [
            -73.9296576,
            40.8641904
          ],
          [
            -73.9299818,
            40.8637992
          ],
          [
            -73.9301114,
            40.8635412
          ],
          [
            -73.9301802,
            40.8633541
          ],
          [
            -73.930185,
            40.8633245
          ],
          [
            -73.9301892,
            40.8632989
          ],
          [
            -73.930163,
            40.863064
          ],
          [
            -73.9301101,
            40.8626789
          ],
          [
            -73.9300902,
            40.8625349
          ],
          [
            -73.9301141,
            40.8622388
          ],
          [
            -73.9301695,
            40.8620422
          ],
          [
            -73.9302856,
            40.8617399
          ],
          [
            -73.9303764,
            40.861593
          ],
          [
            -73.9305358,
            40.8613221
          ],
          [
            -73.9307581,
            40.8609542
          ],
          [
            -73.9308693,
            40.8607589
          ],
          [
            -73.9308732,
            40.8607521
          ],
          [
            -73.9309312,
            40.8606528
          ],
          [
            -73.9309345,
            40.8606448
          ],
          [
            -73.9314183,
            40.8594799
          ],
          [
            -73.9314371,
            40.8594432
          ],
          [
            -73.9314426,
            40.8594224
          ],
          [
            -73.931462,
            40.8593709
          ],
          [
            -73.9314707,
            40.8593476
          ],
          [
            -73.9314804,
            40.8593207
          ],
          [
            -73.9320179,
            40.8594762
          ],
          [
            -73.9320734,
            40.859486
          ],
          [
            -73.9321289,
            40.8594778
          ],
          [
            -73.9321876,
            40.8594556
          ],
          [
            -73.9322268,
            40.859407
          ],
          [
            -73.9325106,
            40.8588487
          ],
          [
            -73.9325801,
            40.8587223
          ],
          [
            -73.932874,
            40.8581635
          ],
          [
            -73.9328817,
            40.858148
          ],
          [
            -73.932909,
            40.8580956
          ],
          [
            -73.9329266,
            40.8580619
          ],
          [
            -73.9329393,
            40.8580384
          ],
          [
            -73.9332856,
            40.8573964
          ],
          [
            -73.9335798,
            40.8568279
          ],
          [
            -73.9335917,
            40.8568049
          ],
          [
            -73.9336129,
            40.8567634
          ],
          [
            -73.9336333,
            40.8567233
          ],
          [
            -73.9336444,
            40.8567018
          ],
          [
            -73.9337416,
            40.8565127
          ],
          [
            -73.9338796,
            40.8562275
          ],
          [
            -73.9339966,
            40.8560529
          ],
          [
            -73.9340931,
            40.8558746
          ],
          [
            -73.9341672,
            40.8556483
          ],
          [
            -73.9341745,
            40.8556262
          ],
          [
            -73.934189,
            40.8555734
          ],
          [
            -73.9341999,
            40.8555337
          ],
          [
            -73.9342062,
            40.855515
          ],
          [
            -73.9345301,
            40.8545406
          ],
          [
            -73.9345377,
            40.8545196
          ],
          [
            -73.9345477,
            40.8544814
          ],
          [
            -73.9345611,
            40.85443
          ],
          [
            -73.9345725,
            40.854408
          ],
          [
            -73.9350261,
            40.8535269
          ],
          [
            -73.9350369,
            40.8535059
          ],
          [
            -73.9350616,
            40.8534578
          ],
          [
            -73.9350818,
            40.8534186
          ],
          [
            -73.9350925,
            40.8533979
          ],
          [
            -73.9356147,
            40.8523787
          ],
          [
            -73.9356242,
            40.8523604
          ],
          [
            -73.9356464,
            40.8523182
          ],
          [
            -73.9356642,
            40.8522845
          ],
          [
            -73.9356727,
            40.8522683
          ],
          [
            -73.9356962,
            40.8522754
          ],
          [
            -73.9357423,
            40.8522867
          ],
          [
            -73.9357988,
            40.8523005
          ],
          [
            -73.9358246,
            40.8523078
          ],
          [
            -73.9363699,
            40.8512481
          ],
          [
            -73.9367198,
            40.8505615
          ],
          [
            -73.9372573,
            40.8507152
          ],
          [
            -73.9370504,
            40.85125
          ],
          [
            -73.9370279,
            40.8513053
          ],
          [
            -73.9371064,
            40.8513337
          ]
        ]
      }
    },
    {
      "type": "Feature",
      "properties": {
        "scenario": "Washington Heights - Bennett Park | 2.5mi | round | flat | amenity",
        "shape": "round",
        "target_miles": 2.5,
        "distance_m": 3937.140331510051,
        "candidate_index": 1
      },
      "geometry": {
        "type": "LineString",
        "coordinates": [
          [
            -73.9371064,
            40.8513337
          ],
          [
            -73.9370279,
            40.8513053
          ],
          [
            -73.9367652,
            40.8519515
          ],
          [
            -73.937692,
            40.8521675
          ],
          [
            -73.9374686,
            40.8528974
          ],
          [
            -73.9373457,
            40.8532967
          ],
          [
            -73.9373065,
            40.8534236
          ],
          [
            -73.9368105,
            40.855029
          ],
          [
            -73.9367841,
            40.8551134
          ],
          [
            -73.9367707,
            40.8551572
          ],
          [
            -73.9366972,
            40.8553842
          ],
          [
            -73.9365953,
            40.8556153
          ],
          [
            -73.9365006,
            40.8557599
          ],
          [
            -73.9363291,
            40.8559775
          ],
          [
            -73.9361933,
            40.85616
          ],
          [
            -73.9360736,
            40.8563154
          ],
          [
            -73.9355427,
            40.8570294
          ],
          [
            -73.9355311,
            40.857045
          ],
          [
            -73.9355001,
            40.857085
          ],
          [
            -73.9354645,
            40.8571308
          ],
          [
            -73.9354512,
            40.8571484
          ],
          [
            -73.9352429,
            40.8574248
          ],
          [
            -73.9351187,
            40.8575923
          ],
          [
            -73.9348878,
            40.8579039
          ],
          [
            -73.9346947,
            40.8581606
          ],
          [
            -73.9346771,
            40.858184
          ],
          [
            -73.9345621,
            40.8583496
          ],
          [
            -73.9343982,
            40.8585855
          ],
          [
            -73.93433,
            40.8587308
          ],
          [
            -73.9342364,
            40.8589024
          ],
          [
            -73.9340789,
            40.8591567
          ],
          [
            -73.9340757,
            40.85916
          ],
          [
            -73.9340721,
            40.8591628
          ],
          [
            -73.9340666,
            40.8591659
          ],
          [
            -73.9340607,
            40.8591682
          ],
          [
            -73.9340432,
            40.8591658
          ],
          [
            -73.9338859,
            40.8591269
          ],
          [
            -73.9338776,
            40.8591255
          ],
          [
            -73.933871,
            40.859125
          ],
          [
            -73.9338613,
            40.8591255
          ],
          [
            -73.9338502,
            40.8591271
          ],
          [
            -73.9338402,
            40.8591295
          ],
          [
            -73.9338303,
            40.859133
          ],
          [
            -73.9338244,
            40.859136
          ],
          [
            -73.9338196,
            40.8591396
          ],
          [
            -73.9338154,
            40.8591451
          ],
          [
            -73.9337298,
            40.8593309
          ],
          [
            -73.9336561,
            40.8593088
          ],
          [
            -73.9336276,
            40.8593716
          ],
          [
            -73.9335874,
            40.8593918
          ],
          [
            -73.9334594,
            40.859453
          ],
          [
            -73.9333441,
            40.8595138
          ],
          [
            -73.9333104,
            40.859527
          ],
          [
            -73.9332758,
            40.8595364
          ],
          [
            -73.9331805,
            40.8595503
          ],
          [
            -73.9330317,
            40.8595723
          ],
          [
            -73.9329585,
            40.8595941
          ],
          [
            -73.9328878,
            40.8596265
          ],
          [
            -73.932803,
            40.8596676
          ],
          [
            -73.932755,
            40.8596746
          ],
          [
            -73.932653,
            40.8597011
          ],
          [
            -73.9325508,
            40.8597571
          ],
          [
            -73.9324564,
            40.8598401
          ],
          [
            -73.9324475,
            40.8598469
          ],
          [
            -73.9324135,
            40.8598675
          ],
          [
            -73.9323912,
            40.8598859
          ],
          [
            -73.932374,
            40.8599054
          ],
          [
            -73.932371,
            40.8599105
          ],
          [
            -73.9323646,
            40.8599217
          ],
          [
            -73.93235,
            40.8599522
          ],
          [
            -73.9323314,
            40.8599963
          ],
          [
            -73.9323025,
            40.8600268
          ],
          [
            -73.9322572,
            40.8600429
          ],
          [
            -73.9321972,
            40.8600555
          ],
          [
            -73.9321842,
            40.8600624
          ],
          [
            -73.9321411,
            40.8601067
          ],
          [
            -73.9320977,
            40.8601656
          ],
          [
            -73.932022,
            40.8602448
          ],
          [
            -73.9320048,
            40.8602957
          ],
          [
            -73.931975,
            40.8603346
          ],
          [
            -73.931925,
            40.8603737
          ],
          [
            -73.9318477,
            40.8604341
          ],
          [
            -73.9317938,
            40.8604939
          ],
          [
            -73.9316773,
            40.8607201
          ],
          [
            -73.9316336,
            40.8607806
          ],
          [
            -73.9315679,
            40.860842
          ],
          [
            -73.9315158,
            40.860893
          ],
          [
            -73.9314625,
            40.8609567
          ],
          [
            -73.9313879,
            40.8610364
          ],
          [
            -73.9313209,
            40.8610861
          ],
          [
            -73.9312615,
            40.8611268
          ],
          [
            -73.9312277,
            40.8611389
          ],
          [
            -73.9311916,
            40.8611404
          ],
          [
            -73.9311192,
            40.8611113
          ],
          [
            -73.9310669,
            40.8612979
          ],
          [
            -73.931022,
            40.8612941
          ],
          [
            -73.9309757,
            40.8613361
          ],
          [
            -73.930745,
            40.8615546
          ],
          [
            -73.9306807,
            40.861587
          ],
          [
            -73.9306109,
            40.8616296
          ],
          [
            -73.9305479,
            40.861657
          ],
          [
            -73.9304969,
            40.8616702
          ],
          [
            -73.9304272,
            40.8617899
          ],
          [
            -73.9303052,
            40.8622432
          ],
          [
            -73.9303105,
            40.8624278
          ],
          [
            -73.9303441,
            40.8625678
          ],
          [
            -73.9304473,
            40.8627625
          ],
          [
            -73.9305278,
            40.8628842
          ],
          [
            -73.9305841,
            40.8630262
          ],
          [
            -73.9305801,
            40.8631665
          ],
          [
            -73.9305784,
            40.8632085
          ],
          [
            -73.930568,
            40.8632504
          ],
          [
            -73.9305305,
            40.8633315
          ],
          [
            -73.9304355,
            40.863457
          ],
          [
            -73.9303518,
            40.8636463
          ],
          [
            -73.930336,
            40.8636804
          ],
          [
            -73.9302086,
            40.8639137
          ],
          [
            -73.9299431,
            40.8641023
          ],
          [
            -73.9297111,
            40.8643569
          ],
          [
            -73.9295153,
            40.8645587
          ],
          [
            -73.9293432,
            40.8646484
          ],
          [
            -73.9293416,
            40.8647
          ],
          [
            -73.9293811,
            40.8647707
          ],
          [
            -73.9293878,
            40.8648143
          ],
          [
            -73.9293905,
            40.8648488
          ],
          [
            -73.929383,
            40.8649179
          ],
          [
            -73.9292755,
            40.8649926
          ],
          [
            -73.9293271,
            40.8651471
          ],
          [
            -73.9293688,
            40.8652718
          ],
          [
            -73.9293759,
            40.865293
          ],
          [
            -73.9293426,
            40.8653297
          ],
          [
            -73.929506,
            40.8653478
          ],
          [
            -73.9295312,
            40.8653129
          ],
          [
            -73.9295512,
            40.8652852
          ],
          [
            -73.9295616,
            40.8652632
          ],
          [
            -73.9295586,
            40.8652421
          ],
          [
            -73.9295502,
            40.8652192
          ],
          [
            -73.9295377,
            40.8651834
          ],
          [
            -73.9295355,
            40.8651772
          ],
          [
            -73.9295118,
            40.8651098
          ],
          [
            -73.9295295,
            40.8651065
          ],
          [
            -73.9296239,
            40.865093
          ],
          [
            -73.92966,
            40.8650865
          ],
          [
            -73.9295831,
            40.8650146
          ],
          [
            -73.9295262,
            40.8649273
          ],
          [
            -73.929475,
            40.8648123
          ],
          [
            -73.9294575,
            40.864714
          ],
          [
            -73.9293432,
            40.8646484
          ],
          [
            -73.9292595,
            40.8646484
          ],
          [
            -73.9292205,
            40.8646322
          ],
          [
            -73.9291886,
            40.8646031
          ],
          [
            -73.929233,
            40.864569
          ],
          [
            -73.9294606,
            40.8643815
          ],
          [
            -73.9296576,
            40.8641904
          ],
          [
            -73.9299818,
            40.8637992
          ],
          [
            -73.9301114,
            40.8635412
          ],
          [
            -73.9301802,
            40.8633541
          ],
          [
            -73.930185,
            40.8633245
          ],
          [
            -73.9301892,
            40.8632989
          ],
          [
            -73.930163,
            40.863064
          ],
          [
            -73.9301101,
            40.8626789
          ],
          [
            -73.9300902,
            40.8625349
          ],
          [
            -73.9301141,
            40.8622388
          ],
          [
            -73.9301695,
            40.8620422
          ],
          [
            -73.9302856,
            40.8617399
          ],
          [
            -73.9303764,
            40.861593
          ],
          [
            -73.9305358,
            40.8613221
          ],
          [
            -73.9307581,
            40.8609542
          ],
          [
            -73.9308693,
            40.8607589
          ],
          [
            -73.9308732,
            40.8607521
          ],
          [
            -73.9309312,
            40.8606528
          ],
          [
            -73.9309345,
            40.8606448
          ],
          [
            -73.9314183,
            40.8594799
          ],
          [
            -73.9314371,
            40.8594432
          ],
          [
            -73.9314426,
            40.8594224
          ],
          [
            -73.931462,
            40.8593709
          ],
          [
            -73.9314707,
            40.8593476
          ],
          [
            -73.9314804,
            40.8593207
          ],
          [
            -73.9320179,
            40.8594762
          ],
          [
            -73.9320734,
            40.859486
          ],
          [
            -73.9321289,
            40.8594778
          ],
          [
            -73.9321876,
            40.8594556
          ],
          [
            -73.9322268,
            40.859407
          ],
          [
            -73.9325106,
            40.8588487
          ],
          [
            -73.9325801,
            40.8587223
          ],
          [
            -73.932874,
            40.8581635
          ],
          [
            -73.9328817,
            40.858148
          ],
          [
            -73.932909,
            40.8580956
          ],
          [
            -73.9329266,
            40.8580619
          ],
          [
            -73.9329393,
            40.8580384
          ],
          [
            -73.9332856,
            40.8573964
          ],
          [
            -73.9335798,
            40.8568279
          ],
          [
            -73.9335917,
            40.8568049
          ],
          [
            -73.9336129,
            40.8567634
          ],
          [
            -73.9336333,
            40.8567233
          ],
          [
            -73.9336444,
            40.8567018
          ],
          [
            -73.9337416,
            40.8565127
          ],
          [
            -73.9338796,
            40.8562275
          ],
          [
            -73.9339966,
            40.8560529
          ],
          [
            -73.9340931,
            40.8558746
          ],
          [
            -73.9341672,
            40.8556483
          ],
          [
            -73.9341745,
            40.8556262
          ],
          [
            -73.934189,
            40.8555734
          ],
          [
            -73.9341999,
            40.8555337
          ],
          [
            -73.9342062,
            40.855515
          ],
          [
            -73.9345301,
            40.8545406
          ],
          [
            -73.9345377,
            40.8545196
          ],
          [
            -73.9345477,
            40.8544814
          ],
          [
            -73.9345611,
            40.85443
          ],
          [
            -73.9345725,
            40.854408
          ],
          [
            -73.9350261,
            40.8535269
          ],
          [
            -73.9350369,
            40.8535059
          ],
          [
            -73.9350616,
            40.8534578
          ],
          [
            -73.9350818,
            40.8534186
          ],
          [
            -73.9350925,
            40.8533979
          ],
          [
            -73.9356147,
            40.8523787
          ],
          [
            -73.9356242,
            40.8523604
          ],
          [
            -73.9356464,
            40.8523182
          ],
          [
            -73.9356642,
            40.8522845
          ],
          [
            -73.9356727,
            40.8522683
          ],
          [
            -73.9356962,
            40.8522754
          ],
          [
            -73.9357423,
            40.8522867
          ],
          [
            -73.9357988,
            40.8523005
          ],
          [
            -73.9358246,
            40.8523078
          ],
          [
            -73.9363699,
            40.8512481
          ],
          [
            -73.9367198,
            40.8505615
          ],
          [
            -73.9372573,
            40.8507152
          ],
          [
            -73.9370504,
            40.85125
          ],
          [
            -73.9370279,
            40.8513053
          ],
          [
            -73.9371064,
            40.8513337
          ]
        ]
      }
    },
    {
      "type": "Feature",
      "properties": {
        "scenario": "Washington Heights - Bennett Park | 2.5mi | round | flat | amenity",
        "shape": "round",
        "target_miles": 2.5,
        "distance_m": 4022.6193516612316,
        "candidate_index": 2
      },
      "geometry": {
        "type": "LineString",
        "coordinates": [
          [
            -73.9371064,
            40.8513337
          ],
          [
            -73.9370279,
            40.8513053
          ],
          [
            -73.9370504,
            40.85125
          ],
          [
            -73.9372573,
            40.8507152
          ],
          [
            -73.9372807,
            40.8507218
          ],
          [
            -73.9373309,
            40.8507357
          ],
          [
            -73.937383,
            40.8507504
          ],
          [
            -73.9374137,
            40.8507592
          ],
          [
            -73.9381435,
            40.8509613
          ],
          [
            -73.93818,
            40.8509714
          ],
          [
            -73.9382533,
            40.8509905
          ],
          [
            -73.9383301,
            40.8510105
          ],
          [
            -73.9383662,
            40.8510214
          ],
          [
            -73.9391994,
            40.8512729
          ],
          [
            -73.9395352,
            40.8513627
          ],
          [
            -73.9397114,
            40.8514008
          ],
          [
            -73.9398592,
            40.8514198
          ],
          [
            -73.9400744,
            40.8514249
          ],
          [
            -73.9400976,
            40.8514254
          ],
          [
            -73.9401453,
            40.8514259
          ],
          [
            -73.9401939,
            40.8514263
          ],
          [
            -73.9402274,
            40.8514251
          ],
          [
            -73.9402558,
            40.8514054
          ],
          [
            -73.9403217,
            40.8513366
          ],
          [
            -73.9403961,
            40.8513344
          ],
          [
            -73.9406758,
            40.8513213
          ],
          [
            -73.940727,
            40.8513202
          ],
          [
            -73.9407815,
            40.8513206
          ],
          [
            -73.940837,
            40.8513234
          ],
          [
            -73.9408902,
            40.851328
          ],
          [
            -73.9409474,
            40.8513342
          ],
          [
            -73.9411264,
            40.8513601
          ],
          [
            -73.9412123,
            40.8513723
          ],
          [
            -73.9412819,
            40.851366
          ],
          [
            -73.9413168,
            40.851365
          ],
          [
            -73.9413471,
            40.8513652
          ],
          [
            -73.9413168,
            40.851365
          ],
          [
            -73.9412819,
            40.851366
          ],
          [
            -73.9412123,
            40.8513723
          ],
          [
            -73.9411264,
            40.8513601
          ],
          [
            -73.9409474,
            40.8513342
          ],
          [
            -73.9408902,
            40.851328
          ],
          [
            -73.940837,
            40.8513234
          ],
          [
            -73.9407815,
            40.8513206
          ],
          [
            -73.940727,
            40.8513202
          ],
          [
            -73.9406758,
            40.8513213
          ],
          [
            -73.9403961,
            40.8513344
          ],
          [
            -73.9403217,
            40.8513366
          ],
          [
            -73.9402558,
            40.8514054
          ],
          [
            -73.9402274,
            40.8514251
          ],
          [
            -73.9401939,
            40.8514263
          ],
          [
            -73.9401453,
            40.8514259
          ],
          [
            -73.9400976,
            40.8514254
          ],
          [
            -73.9400744,
            40.8514249
          ],
          [
            -73.9398592,
            40.8514198
          ],
          [
            -73.9397114,
            40.8514008
          ],
          [
            -73.9395352,
            40.8513627
          ],
          [
            -73.9391994,
            40.8512729
          ],
          [
            -73.9383662,
            40.8510214
          ],
          [
            -73.9383301,
            40.8510105
          ],
          [
            -73.9382533,
            40.8509905
          ],
          [
            -73.93818,
            40.8509714
          ],
          [
            -73.9381435,
            40.8509613
          ],
          [
            -73.9374137,
            40.8507592
          ],
          [
            -73.937383,
            40.8507504
          ],
          [
            -73.9373309,
            40.8507357
          ],
          [
            -73.9372807,
            40.8507218
          ],
          [
            -73.9372573,
            40.8507152
          ],
          [
            -73.9370504,
            40.85125
          ],
          [
            -73.9370279,
            40.8513053
          ],
          [
            -73.9371064,
            40.8513337
          ],
          [
            -73.9370279,
            40.8513053
          ],
          [
            -73.9370504,
            40.85125
          ],
          [
            -73.9372573,
            40.8507152
          ],
          [
            -73.9367198,
            40.8505615
          ],
          [
            -73.9366836,
            40.8505511
          ],
          [
            -73.9366346,
            40.8505398
          ],
          [
            -73.9365873,
            40.8505288
          ],
          [
            -73.9365569,
            40.85052
          ],
          [
            -73.935832,
            40.850308
          ],
          [
            -73.9358436,
            40.8502852
          ],
          [
            -73.9358662,
            40.8502323
          ],
          [
            -73.93589,
            40.8501768
          ],
          [
            -73.9359036,
            40.8501523
          ],
          [
            -73.9358707,
            40.8501336
          ],
          [
            -73.9357759,
            40.8500878
          ],
          [
            -73.9356877,
            40.8500452
          ],
          [
            -73.9356603,
            40.8500336
          ],
          [
            -73.935932,
            40.8497836
          ],
          [
            -73.9362042,
            40.8495372
          ],
          [
            -73.936229,
            40.8495148
          ],
          [
            -73.9362658,
            40.8494845
          ],
          [
            -73.9363025,
            40.8494542
          ],
          [
            -73.9363235,
            40.8494356
          ],
          [
            -73.9368338,
            40.8489771
          ],
          [
            -73.9368497,
            40.8489627
          ],
          [
            -73.9368957,
            40.8489192
          ],
          [
            -73.9369286,
            40.8488883
          ],
          [
            -73.9369426,
            40.848875
          ],
          [
            -73.9374588,
            40.8484051
          ],
          [
            -73.9374685,
            40.8483903
          ],
          [
            -73.9375238,
            40.8483423
          ],
          [
            -73.9375656,
            40.8482974
          ],
          [
            -73.9375879,
            40.8482767
          ],
          [
            -73.9378246,
            40.8477313
          ],
          [
            -73.937833,
            40.847712
          ],
          [
            -73.9378498,
            40.8476592
          ],
          [
            -73.9378618,
            40.8476274
          ],
          [
            -73.937872,
            40.8475953
          ],
          [
            -73.9380567,
            40.8470188
          ],
          [
            -73.9380655,
            40.8469954
          ],
          [
            -73.9380775,
            40.8469528
          ],
          [
            -73.9380919,
            40.8469016
          ],
          [
            -73.9380976,
            40.8468838
          ],
          [
            -73.9382888,
            40.8462626
          ],
          [
            -73.9383141,
            40.8461804
          ],
          [
            -73.9383295,
            40.8461304
          ],
          [
            -73.9385241,
            40.8454985
          ],
          [
            -73.9385344,
            40.8454642
          ],
          [
            -73.9385504,
            40.8454111
          ],
          [
            -73.9385609,
            40.8453762
          ],
          [
            -73.9385676,
            40.845354
          ],
          [
            -73.9385961,
            40.8452478
          ],
          [
            -73.9386304,
            40.8451197
          ],
          [
            -73.9387326,
            40.8447382
          ],
          [
            -73.9387362,
            40.8447168
          ],
          [
            -73.9387468,
            40.844654
          ],
          [
            -73.9387559,
            40.8445997
          ],
          [
            -73.9387608,
            40.8445708
          ],
          [
            -73.9388761,
            40.8439559
          ],
          [
            -73.9388819,
            40.8439336
          ],
          [
            -73.9388941,
            40.8438867
          ],
          [
            -73.9389049,
            40.8438455
          ],
          [
            -73.938911,
            40.843822
          ],
          [
            -73.9389715,
            40.8435584
          ],
          [
            -73.9390424,
            40.8432498
          ],
          [
            -73.9390441,
            40.8432249
          ],
          [
            -73.9390481,
            40.8431682
          ],
          [
            -73.9390518,
            40.8431159
          ],
          [
            -73.9390531,
            40.8430966
          ],
          [
            -73.9385891,
            40.8429049
          ],
          [
            -73.9385573,
            40.8428915
          ],
          [
            -73.938474,
            40.8428566
          ],
          [
            -73.9384604,
            40.8428509
          ],
          [
            -73.9383683,
            40.8428123
          ],
          [
            -73.9383392,
            40.8428001
          ],
          [
            -73.9378244,
            40.8425889
          ],
          [
            -73.9371681,
            40.8423072
          ],
          [
            -73.937142,
            40.8422959
          ],
          [
            -73.9370758,
            40.8422662
          ],
          [
            -73.9370089,
            40.8422362
          ],
          [
            -73.9369732,
            40.8422218
          ],
          [
            -73.935749,
            40.8417077
          ],
          [
            -73.9357209,
            40.8416953
          ],
          [
            -73.9356033,
            40.8416505
          ],
          [
            -73.9355163,
            40.8416174
          ],
          [
            -73.9354885,
            40.8416067
          ],
          [
            -73.9354649,
            40.8415975
          ],
          [
            -73.9354086,
            40.8415704
          ],
          [
            -73.9353317,
            40.8415085
          ],
          [
            -73.9352847,
            40.8414751
          ],
          [
            -73.9352454,
            40.8415459
          ],
          [
            -73.9352009,
            40.841612
          ],
          [
            -73.9351174,
            40.8417305
          ],
          [
            -73.9349487,
            40.8419136
          ],
          [
            -73.9348666,
            40.8420562
          ],
          [
            -73.9348132,
            40.8421806
          ],
          [
            -73.9347915,
            40.8422769
          ],
          [
            -73.9349006,
            40.8423763
          ],
          [
            -73.9349863,
            40.8422942
          ],
          [
            -73.9350155,
            40.8423066
          ],
          [
            -73.9350917,
            40.8423474
          ],
          [
            -73.9351967,
            40.8424036
          ],
          [
            -73.9352226,
            40.8424156
          ],
          [
            -73.9364508,
            40.8429377
          ],
          [
            -73.9364789,
            40.8429497
          ],
          [
            -73.9365525,
            40.8429815
          ],
          [
            -73.9366186,
            40.8430101
          ],
          [
            -73.9366521,
            40.8430241
          ],
          [
            -73.9378187,
            40.8435139
          ],
          [
            -73.9378478,
            40.8435257
          ],
          [
            -73.9379374,
            40.8435622
          ],
          [
            -73.9380393,
            40.8436037
          ],
          [
            -73.9380647,
            40.843614
          ],
          [
            -73.9388761,
            40.8439559
          ],
          [
            -73.9389098,
            40.8439713
          ],
          [
            -73.9390079,
            40.8440159
          ],
          [
            -73.9391135,
            40.8440639
          ],
          [
            -73.9391416,
            40.8440767
          ],
          [
            -73.9390183,
            40.8446671
          ],
          [
            -73.9390122,
            40.8446904
          ],
          [
            -73.9390003,
            40.8447357
          ],
          [
            -73.9389887,
            40.84478
          ],
          [
            -73.9389814,
            40.8448082
          ],
          [
            -73.9388486,
            40.8453915
          ],
          [
            -73.9388401,
            40.8454202
          ],
          [
            -73.9388285,
            40.8454593
          ],
          [
            -73.9400932,
            40.8459939
          ],
          [
            -73.9401462,
            40.8460149
          ],
          [
            -73.9401293,
            40.8460562
          ],
          [
            -73.9401209,
            40.8460755
          ],
          [
            -73.9399586,
            40.8464476
          ],
          [
            -73.9399504,
            40.8464664
          ],
          [
            -73.9399371,
            40.8465063
          ],
          [
            -73.9399241,
            40.8465454
          ],
          [
            -73.9399155,
            40.8465678
          ],
          [
            -73.9396982,
            40.8471296
          ],
          [
            -73.9396895,
            40.8471519
          ],
          [
            -73.9396708,
            40.8471901
          ],
          [
            -73.9396499,
            40.8472287
          ],
          [
            -73.939641,
            40.8472512
          ],
          [
            -73.9394394,
            40.8477618
          ],
          [
            -73.9394323,
            40.8477799
          ],
          [
            -73.9394188,
            40.8478182
          ],
          [
            -73.9393986,
            40.8478658
          ],
          [
            -73.9393913,
            40.8478861
          ],
          [
            -73.9393649,
            40.8479601
          ],
          [
            -73.9391039,
            40.8485888
          ],
          [
            -73.9390944,
            40.8486116
          ],
          [
            -73.9390765,
            40.8486619
          ],
          [
            -73.9390564,
            40.848715
          ],
          [
            -73.9390542,
            40.8487206
          ],
          [
            -73.939052,
            40.848726
          ],
          [
            -73.9390477,
            40.8487366
          ],
          [
            -73.938958,
            40.8489586
          ],
          [
            -73.9388587,
            40.8492043
          ],
          [
            -73.9388518,
            40.8492214
          ],
          [
            -73.9388499,
            40.8492259
          ],
          [
            -73.9388469,
            40.8492329
          ],
          [
            -73.9388238,
            40.8492927
          ],
          [
            -73.9388063,
            40.849338
          ],
          [
            -73.9387968,
            40.8493628
          ],
          [
            -73.9387113,
            40.8495985
          ],
          [
            -73.9385805,
            40.8499205
          ],
          [
            -73.9385722,
            40.849941
          ],
          [
            -73.9385527,
            40.8499793
          ],
          [
            -73.9385326,
            40.8500189
          ],
          [
            -73.9385246,
            40.8500382
          ],
          [
            -73.9382058,
            40.8508036
          ],
          [
            -73.9381962,
            40.8508267
          ],
          [
            -73.9381757,
            40.8508788
          ],
          [
            -73.9381523,
            40.8509382
          ],
          [
            -73.9381435,
            40.8509613
          ],
          [
            -73.9377366,
            40.8520448
          ],
          [
            -73.9377284,
            40.8520668
          ],
          [
            -73.9377149,
            40.8521026
          ],
          [
            -73.9376973,
            40.8521501
          ],
          [
            -73.937692,
            40.8521675
          ],
          [
            -73.9367652,
            40.8519515
          ],
          [
            -73.9370279,
            40.8513053
          ],
          [
            -73.9371064,
            40.8513337
          ]
        ]
      }
    },
    {
      "type": "Feature",
      "properties": {
        "scenario": "Washington Heights - Bennett Park | 2.5mi | round | flat | amenity",
        "shape": "round",
        "target_miles": 2.5,
        "distance_m": 4044.693159908319,
        "candidate_index": 3
      },
      "geometry": {
        "type": "LineString",
        "coordinates": [
          [
            -73.9371064,
            40.8513337
          ],
          [
            -73.9370279,
            40.8513053
          ],
          [
            -73.9370504,
            40.85125
          ],
          [
            -73.9372573,
            40.8507152
          ],
          [
            -73.9372807,
            40.8507218
          ],
          [
            -73.9373309,
            40.8507357
          ],
          [
            -73.937383,
            40.8507504
          ],
          [
            -73.9374137,
            40.8507592
          ],
          [
            -73.9381435,
            40.8509613
          ],
          [
            -73.9381523,
            40.8509382
          ],
          [
            -73.9381757,
            40.8508788
          ],
          [
            -73.9381962,
            40.8508267
          ],
          [
            -73.9382058,
            40.8508036
          ],
          [
            -73.9385246,
            40.8500382
          ],
          [
            -73.9385326,
            40.8500189
          ],
          [
            -73.9385527,
            40.8499793
          ],
          [
            -73.9385722,
            40.849941
          ],
          [
            -73.9385805,
            40.8499205
          ],
          [
            -73.9386089,
            40.8499259
          ],
          [
            -73.9386763,
            40.8499391
          ],
          [
            -73.9388049,
            40.8496208
          ],
          [
            -73.9388994,
            40.8493854
          ],
          [
            -73.9389291,
            40.8493131
          ],
          [
            -73.9389575,
            40.8492427
          ],
          [
            -73.9389647,
            40.8492248
          ],
          [
            -73.9390146,
            40.8491014
          ],
          [
            -73.9390645,
            40.8489777
          ],
          [
            -73.9391062,
            40.8488746
          ],
          [
            -73.9391532,
            40.848758
          ],
          [
            -73.9391578,
            40.8487467
          ],
          [
            -73.9391834,
            40.8486832
          ],
          [
            -73.9392228,
            40.8486779
          ],
          [
            -73.9392499,
            40.8486748
          ],
          [
            -73.9392777,
            40.8486739
          ],
          [
            -73.9392998,
            40.8486733
          ],
          [
            -73.939316,
            40.8486231
          ],
          [
            -73.9393314,
            40.8486224
          ],
          [
            -73.9396084,
            40.8479305
          ],
          [
            -73.9396158,
            40.8479122
          ],
          [
            -73.9396343,
            40.8478678
          ],
          [
            -73.9396503,
            40.8478232
          ],
          [
            -73.9396576,
            40.8478057
          ],
          [
            -73.9398699,
            40.8472966
          ],
          [
            -73.9398799,
            40.8472722
          ],
          [
            -73.9398917,
            40.8472341
          ],
          [
            -73.939907,
            40.8471943
          ],
          [
            -73.9399147,
            40.847175
          ],
          [
            -73.9401367,
            40.8466153
          ],
          [
            -73.940185,
            40.8464956
          ],
          [
            -73.9403296,
            40.8461379
          ],
          [
            -73.9403488,
            40.8460905
          ],
          [
            -73.9403789,
            40.846016
          ],
          [
            -73.9405954,
            40.8454781
          ],
          [
            -73.9406026,
            40.8454603
          ],
          [
            -73.9406197,
            40.8454183
          ],
          [
            -73.9406343,
            40.845375
          ],
          [
            -73.9406417,
            40.8453568
          ],
          [
            -73.9408701,
            40.8447988
          ],
          [
            -73.9408787,
            40.8447778
          ],
          [
            -73.9408997,
            40.8447376
          ],
          [
            -73.9409172,
            40.8446975
          ],
          [
            -73.9409278,
            40.8446715
          ],
          [
            -73.9410353,
            40.8444084
          ],
          [
            -73.9411947,
            40.8441566
          ],
          [
            -73.9412098,
            40.8441328
          ],
          [
            -73.9412391,
            40.8440897
          ],
          [
            -73.9412624,
            40.8440553
          ],
          [
            -73.9412764,
            40.8440382
          ],
          [
            -73.9416763,
            40.8435511
          ],
          [
            -73.9416936,
            40.8435289
          ],
          [
            -73.94172,
            40.8434949
          ],
          [
            -73.9417484,
            40.8434583
          ],
          [
            -73.9417622,
            40.8434406
          ],
          [
            -73.9419566,
            40.843195
          ],
          [
            -73.9420934,
            40.8429272
          ],
          [
            -73.9421016,
            40.8429083
          ],
          [
            -73.9421161,
            40.842861
          ],
          [
            -73.9421293,
            40.8428177
          ],
          [
            -73.942135,
            40.8428004
          ],
          [
            -73.9423442,
            40.8422759
          ],
          [
            -73.9423759,
            40.8422003
          ],
          [
            -73.9423968,
            40.8421504
          ],
          [
            -73.9425831,
            40.8416943
          ],
          [
            -73.9428151,
            40.8411259
          ],
          [
            -73.9429599,
            40.8407712
          ],
          [
            -73.9430191,
            40.8406263
          ],
          [
            -73.9431019,
            40.8404054
          ],
          [
            -73.9431301,
            40.8403417
          ],
          [
            -73.9431723,
            40.840362
          ],
          [
            -73.943704,
            40.8406408
          ],
          [
            -73.9438545,
            40.8407197
          ],
          [
            -73.9444531,
            40.8410335
          ],
          [
            -73.9444719,
            40.8410424
          ],
          [
            -73.9444886,
            40.8410508
          ],
          [
            -73.9446359,
            40.8411246
          ],
          [
            -73.944724,
            40.8411687
          ],
          [
            -73.9447555,
            40.8411847
          ],
          [
            -73.9448051,
            40.841139
          ],
          [
            -73.9452691,
            40.8406789
          ],
          [
            -73.945758,
            40.8402076
          ],
          [
            -73.9459149,
            40.8400407
          ],
          [
            -73.9461281,
            40.8397663
          ],
          [
            -73.9462951,
            40.8394868
          ],
          [
            -73.9464299,
            40.8391357
          ],
          [
            -73.9464097,
            40.8391309
          ],
          [
            -73.946299,
            40.8391065
          ],
          [
            -73.9462073,
            40.8390863
          ],
          [
            -73.946197,
            40.8390843
          ],
          [
            -73.9461562,
            40.8390965
          ],
          [
            -73.9461129,
            40.8391028
          ],
          [
            -73.9460644,
            40.8391098
          ],
          [
            -73.9459571,
            40.8391053
          ],
          [
            -73.9458626,
            40.8390718
          ],
          [
            -73.945916,
            40.8390288
          ],
          [
            -73.9458626,
            40.8390718
          ],
          [
            -73.9458109,
            40.8390348
          ],
          [
            -73.9458056,
            40.8389434
          ],
          [
            -73.9458042,
            40.8388704
          ],
          [
            -73.9458485,
            40.8387131
          ],
          [
            -73.9458928,
            40.8386279
          ],
          [
            -73.9459223,
            40.8386
          ],
          [
            -73.9459072,
            40.8385907
          ],
          [
            -73.945901,
            40.8385869
          ],
          [
            -73.9458663,
            40.8386304
          ],
          [
            -73.9458182,
            40.8386149
          ],
          [
            -73.9457767,
            40.8386015
          ],
          [
            -73.9457539,
            40.8385919
          ],
          [
            -73.945644,
            40.8387359
          ],
          [
            -73.9455789,
            40.8388592
          ],
          [
            -73.9455347,
            40.8389561
          ],
          [
            -73.9454837,
            40.8391403
          ],
          [
            -73.9445235,
            40.838737
          ],
          [
            -73.9439411,
            40.8384982
          ],
          [
            -73.9438655,
            40.8384648
          ],
          [
            -73.9438588,
            40.8384902
          ],
          [
            -73.9438526,
            40.8385072
          ],
          [
            -73.94383,
            40.8385695
          ],
          [
            -73.943823,
            40.8385869
          ],
          [
            -73.9438153,
            40.8386078
          ],
          [
            -73.943621,
            40.8390426
          ],
          [
            -73.9436018,
            40.8390468
          ],
          [
            -73.9435103,
            40.8390608
          ],
          [
            -73.943434,
            40.8390725
          ],
          [
            -73.943403,
            40.8390784
          ],
          [
            -73.9433943,
            40.8391011
          ],
          [
            -73.9433817,
            40.8391389
          ],
          [
            -73.9433651,
            40.8391887
          ],
          [
            -73.9433572,
            40.8392095
          ],
          [
            -73.9430383,
            40.8399842
          ],
          [
            -73.9430051,
            40.8400543
          ],
          [
            -73.9429923,
            40.8400813
          ],
          [
            -73.9429655,
            40.8401399
          ],
          [
            -73.9429428,
            40.8401896
          ],
          [
            -73.9429268,
            40.8402309
          ],
          [
            -73.9428899,
            40.8403249
          ],
          [
            -73.9428555,
            40.8404022
          ],
          [
            -73.9427059,
            40.8407858
          ],
          [
            -73.9426698,
            40.8408784
          ],
          [
            -73.9426406,
            40.8409532
          ],
          [
            -73.9424347,
            40.8414528
          ],
          [
            -73.9424161,
            40.8414997
          ],
          [
            -73.9423422,
            40.8417079
          ],
          [
            -73.9422242,
            40.8420095
          ],
          [
            -73.9422123,
            40.8420433
          ],
          [
            -73.9421944,
            40.8421071
          ],
          [
            -73.9421731,
            40.8421719
          ],
          [
            -73.9421617,
            40.842199
          ],
          [
            -73.9419422,
            40.8427107
          ],
          [
            -73.9419377,
            40.8427242
          ],
          [
            -73.9419173,
            40.8427789
          ],
          [
            -73.9419013,
            40.8428216
          ],
          [
            -73.9418929,
            40.8428415
          ],
          [
            -73.9417809,
            40.8430966
          ],
          [
            -73.9416032,
            40.8433279
          ],
          [
            -73.9415896,
            40.8433439
          ],
          [
            -73.9415785,
            40.8433569
          ],
          [
            -73.9415353,
            40.8434074
          ],
          [
            -73.9415033,
            40.8434449
          ],
          [
            -73.9414819,
            40.84347
          ],
          [
            -73.9410859,
            40.8439529
          ],
          [
            -73.9410721,
            40.8439697
          ],
          [
            -73.9410423,
            40.8440071
          ],
          [
            -73.941006,
            40.8440528
          ],
          [
            -73.9409962,
            40.8440709
          ],
          [
            -73.9407199,
            40.844584
          ],
          [
            -73.940708,
            40.8446064
          ],
          [
            -73.940689,
            40.8446485
          ],
          [
            -73.9406701,
            40.8446877
          ],
          [
            -73.9406601,
            40.8447129
          ],
          [
            -73.94044,
            40.8452697
          ],
          [
            -73.9404311,
            40.8452924
          ],
          [
            -73.9404152,
            40.8453302
          ],
          [
            -73.9403966,
            40.8453701
          ],
          [
            -73.940388,
            40.8453923
          ],
          [
            -73.9401723,
            40.8459498
          ],
          [
            -73.9401634,
            40.8459729
          ],
          [
            -73.9401462,
            40.8460149
          ],
          [
            -73.9401293,
            40.8460562
          ],
          [
            -73.9401209,
            40.8460755
          ],
          [
            -73.9399586,
            40.8464476
          ],
          [
            -73.9399504,
            40.8464664
          ],
          [
            -73.9399371,
            40.8465063
          ],
          [
            -73.9399241,
            40.8465454
          ],
          [
            -73.9399155,
            40.8465678
          ],
          [
            -73.9396982,
            40.8471296
          ],
          [
            -73.9396895,
            40.8471519
          ],
          [
            -73.9396708,
            40.8471901
          ],
          [
            -73.9396499,
            40.8472287
          ],
          [
            -73.939641,
            40.8472512
          ],
          [
            -73.9394394,
            40.8477618
          ],
          [
            -73.9394323,
            40.8477799
          ],
          [
            -73.9394188,
            40.8478182
          ],
          [
            -73.9393986,
            40.8478658
          ],
          [
            -73.9393913,
            40.8478861
          ],
          [
            -73.9393649,
            40.8479601
          ],
          [
            -73.9391039,
            40.8485888
          ],
          [
            -73.9390944,
            40.8486116
          ],
          [
            -73.9390765,
            40.8486619
          ],
          [
            -73.9390564,
            40.848715
          ],
          [
            -73.9390542,
            40.8487206
          ],
          [
            -73.939052,
            40.848726
          ],
          [
            -73.9390477,
            40.8487366
          ],
          [
            -73.9390731,
            40.848742
          ],
          [
            -73.9391532,
            40.848758
          ],
          [
            -73.9392236,
            40.8487723
          ],
          [
            -73.9392572,
            40.8487791
          ],
          [
            -73.9392517,
            40.848793
          ],
          [
            -73.9392337,
            40.8488387
          ],
          [
            -73.9390721,
            40.8492459
          ],
          [
            -73.9390664,
            40.8492583
          ],
          [
            -73.939042,
            40.849317
          ],
          [
            -73.9390326,
            40.849339
          ],
          [
            -73.9390105,
            40.8493901
          ],
          [
            -73.9390071,
            40.849398
          ],
          [
            -73.9387815,
            40.8499593
          ],
          [
            -73.9387507,
            40.8499533
          ],
          [
            -73.9386763,
            40.8499391
          ],
          [
            -73.9386521,
            40.8499993
          ],
          [
            -73.938627,
            40.8500578
          ],
          [
            -73.9385576,
            40.8502304
          ],
          [
            -73.9383147,
            40.8508331
          ],
          [
            -73.938284,
            40.850909
          ],
          [
            -73.9382533,
            40.8509905
          ],
          [
            -73.9381831,
            40.8511735
          ],
          [
            -73.9378419,
            40.852068
          ],
          [
            -73.9377522,
            40.8520483
          ],
          [
            -73.9377366,
            40.8520448
          ],
          [
            -73.9377284,
            40.8520668
          ],
          [
            -73.9377149,
            40.8521026
          ],
          [
            -73.9376973,
            40.8521501
          ],
          [
            -73.937692,
            40.8521675
          ],
          [
            -73.9367652,
            40.8519515
          ],
          [
            -73.9370279,
            40.8513053
          ],
          [
            -73.9371064,
            40.8513337
          ]
        ]
      }
    },
    {
      "type": "Feature",
      "properties": {
        "scenario": "Washington Heights - Bennett Park | 2.5mi | round | flat | amenity",
        "shape": "round",
        "target_miles": 2.5,
        "distance_m": 3945.1384547730568,
        "candidate_index": 4
      },
      "geometry": {
        "type": "LineString",
        "coordinates": [
          [
            -73.9371064,
            40.8513337
          ],
          [
            -73.9370279,
            40.8513053
          ],
          [
            -73.9369925,
            40.8512926
          ],
          [
            -73.9368772,
            40.8512514
          ],
          [
            -73.9369925,
            40.8512926
          ],
          [
            -73.9370279,
            40.8513053
          ],
          [
            -73.9371064,
            40.8513337
          ],
          [
            -73.9370279,
            40.8513053
          ],
          [
            -73.9370504,
            40.85125
          ],
          [
            -73.9372573,
            40.8507152
          ],
          [
            -73.9367198,
            40.8505615
          ],
          [
            -73.9366836,
            40.8505511
          ],
          [
            -73.9366346,
            40.8505398
          ],
          [
            -73.9365873,
            40.8505288
          ],
          [
            -73.9365569,
            40.85052
          ],
          [
            -73.935832,
            40.850308
          ],
          [
            -73.9358436,
            40.8502852
          ],
          [
            -73.9358662,
            40.8502323
          ],
          [
            -73.93589,
            40.8501768
          ],
          [
            -73.9359036,
            40.8501523
          ],
          [
            -73.9358707,
            40.8501336
          ],
          [
            -73.9357759,
            40.8500878
          ],
          [
            -73.9356877,
            40.8500452
          ],
          [
            -73.9356603,
            40.8500336
          ],
          [
            -73.935932,
            40.8497836
          ],
          [
            -73.9362042,
            40.8495372
          ],
          [
            -73.936229,
            40.8495148
          ],
          [
            -73.9362658,
            40.8494845
          ],
          [
            -73.9363025,
            40.8494542
          ],
          [
            -73.9363235,
            40.8494356
          ],
          [
            -73.9368338,
            40.8489771
          ],
          [
            -73.9368497,
            40.8489627
          ],
          [
            -73.9368957,
            40.8489192
          ],
          [
            -73.9369286,
            40.8488883
          ],
          [
            -73.9369426,
            40.848875
          ],
          [
            -73.9374588,
            40.8484051
          ],
          [
            -73.9374685,
            40.8483903
          ],
          [
            -73.9375238,
            40.8483423
          ],
          [
            -73.9375656,
            40.8482974
          ],
          [
            -73.9375879,
            40.8482767
          ],
          [
            -73.9378246,
            40.8477313
          ],
          [
            -73.937833,
            40.847712
          ],
          [
            -73.9378498,
            40.8476592
          ],
          [
            -73.9378618,
            40.8476274
          ],
          [
            -73.937872,
            40.8475953
          ],
          [
            -73.9380567,
            40.8470188
          ],
          [
            -73.9380655,
            40.8469954
          ],
          [
            -73.9380775,
            40.8469528
          ],
          [
            -73.9380919,
            40.8469016
          ],
          [
            -73.9380976,
            40.8468838
          ],
          [
            -73.9382888,
            40.8462626
          ],
          [
            -73.9383141,
            40.8461804
          ],
          [
            -73.9383295,
            40.8461304
          ],
          [
            -73.9385241,
            40.8454985
          ],
          [
            -73.9385344,
            40.8454642
          ],
          [
            -73.9385504,
            40.8454111
          ],
          [
            -73.9385609,
            40.8453762
          ],
          [
            -73.9385676,
            40.845354
          ],
          [
            -73.9385961,
            40.8452478
          ],
          [
            -73.9386304,
            40.8451197
          ],
          [
            -73.9387326,
            40.8447382
          ],
          [
            -73.9387362,
            40.8447168
          ],
          [
            -73.9387468,
            40.844654
          ],
          [
            -73.9387559,
            40.8445997
          ],
          [
            -73.9387608,
            40.8445708
          ],
          [
            -73.9388761,
            40.8439559
          ],
          [
            -73.9388819,
            40.8439336
          ],
          [
            -73.9388941,
            40.8438867
          ],
          [
            -73.9389049,
            40.8438455
          ],
          [
            -73.938911,
            40.843822
          ],
          [
            -73.9389715,
            40.8435584
          ],
          [
            -73.9390424,
            40.8432498
          ],
          [
            -73.9390441,
            40.8432249
          ],
          [
            -73.9390481,
            40.8431682
          ],
          [
            -73.9390518,
            40.8431159
          ],
          [
            -73.9390531,
            40.8430966
          ],
          [
            -73.9391131,
            40.8424609
          ],
          [
            -73.939115,
            40.8424374
          ],
          [
            -73.9391162,
            40.8424119
          ],
          [
            -73.9391174,
            40.8423864
          ],
          [
            -73.9391196,
            40.8423586
          ],
          [
            -73.9391218,
            40.8423308
          ],
          [
            -73.9391227,
            40.8423197
          ],
          [
            -73.9391257,
            40.8422791
          ],
          [
            -73.9391196,
            40.8419836
          ],
          [
            -73.9391578,
            40.8419095
          ],
          [
            -73.9391604,
            40.8418721
          ],
          [
            -73.9391645,
            40.8418125
          ],
          [
            -73.9392178,
            40.8417128
          ],
          [
            -73.9391901,
            40.8417007
          ],
          [
            -73.9391735,
            40.8416934
          ],
          [
            -73.93916,
            40.8416878
          ],
          [
            -73.9391667,
            40.8416653
          ],
          [
            -73.9391772,
            40.8416189
          ],
          [
            -73.9391874,
            40.8415731
          ],
          [
            -73.9391933,
            40.8415518
          ],
          [
            -73.9393496,
            40.8409947
          ],
          [
            -73.939355,
            40.8409758
          ],
          [
            -73.9393717,
            40.840913
          ],
          [
            -73.9393906,
            40.8408561
          ],
          [
            -73.9393982,
            40.840827
          ],
          [
            -73.9385171,
            40.8404668
          ],
          [
            -73.9384898,
            40.8404557
          ],
          [
            -73.9384124,
            40.8404219
          ],
          [
            -73.9383529,
            40.8403959
          ],
          [
            -73.9383195,
            40.8403825
          ],
          [
            -73.9380954,
            40.8402928
          ],
          [
            -73.9371084,
            40.8398679
          ],
          [
            -73.937311,
            40.8395711
          ],
          [
            -73.9372761,
            40.839556
          ],
          [
            -73.9371724,
            40.8395081
          ],
          [
            -73.9370945,
            40.8394721
          ],
          [
            -73.9370659,
            40.8394307
          ],
          [
            -73.9366369,
            40.8388098
          ],
          [
            -73.9366142,
            40.8387762
          ],
          [
            -73.9365898,
            40.8387468
          ],
          [
            -73.9365663,
            40.8387185
          ],
          [
            -73.9365555,
            40.8386808
          ],
          [
            -73.9362213,
            40.8382432
          ],
          [
            -73.9361923,
            40.8382131
          ],
          [
            -73.9361666,
            40.8381932
          ],
          [
            -73.9361351,
            40.8381688
          ],
          [
            -73.9360731,
            40.8381279
          ],
          [
            -73.9360047,
            40.8382011
          ],
          [
            -73.9358961,
            40.8383002
          ],
          [
            -73.9358461,
            40.8382638
          ],
          [
            -73.9358903,
            40.8382206
          ],
          [
            -73.9359345,
            40.8381775
          ],
          [
            -73.9359298,
            40.8381648
          ],
          [
            -73.9359345,
            40.8381775
          ],
          [
            -73.9358903,
            40.8382206
          ],
          [
            -73.9358461,
            40.8382638
          ],
          [
            -73.9358961,
            40.8383002
          ],
          [
            -73.9358136,
            40.8383767
          ],
          [
            -73.9356879,
            40.838479
          ],
          [
            -73.9353891,
            40.8386857
          ],
          [
            -73.935274,
            40.8387801
          ],
          [
            -73.9351759,
            40.8388766
          ],
          [
            -73.9350967,
            40.8389772
          ],
          [
            -73.9350122,
            40.8391048
          ],
          [
            -73.9349482,
            40.8392335
          ],
          [
            -73.9349056,
            40.8393588
          ],
          [
            -73.9348873,
            40.8394813
          ],
          [
            -73.9348812,
            40.8395279
          ],
          [
            -73.934877,
            40.8395706
          ],
          [
            -73.9348743,
            40.839659
          ],
          [
            -73.9348843,
            40.8397745
          ],
          [
            -73.9348985,
            40.8398533
          ],
          [
            -73.9349185,
            40.8399331
          ],
          [
            -73.9349499,
            40.8400152
          ],
          [
            -73.9350034,
            40.8401344
          ],
          [
            -73.935084,
            40.8402947
          ],
          [
            -73.9351175,
            40.8403611
          ],
          [
            -73.9351526,
            40.8404305
          ],
          [
            -73.9352659,
            40.8406498
          ],
          [
            -73.9354628,
            40.841047
          ],
          [
            -73.9355712,
            40.841264
          ],
          [
            -73.9355862,
            40.8413061
          ],
          [
            -73.935587,
            40.8413184
          ],
          [
            -73.935589,
            40.8413482
          ],
          [
            -73.9355819,
            40.8414097
          ],
          [
            -73.9355641,
            40.8414712
          ],
          [
            -73.9355334,
            40.8415397
          ],
          [
            -73.9354885,
            40.8416067
          ],
          [
            -73.9355163,
            40.8416174
          ],
          [
            -73.9356033,
            40.8416505
          ],
          [
            -73.9357209,
            40.8416953
          ],
          [
            -73.935749,
            40.8417077
          ],
          [
            -73.9369732,
            40.8422218
          ],
          [
            -73.9370089,
            40.8422362
          ],
          [
            -73.9370758,
            40.8422662
          ],
          [
            -73.937142,
            40.8422959
          ],
          [
            -73.9371681,
            40.8423072
          ],
          [
            -73.9378244,
            40.8425889
          ],
          [
            -73.9383392,
            40.8428001
          ],
          [
            -73.9383683,
            40.8428123
          ],
          [
            -73.9384604,
            40.8428509
          ],
          [
            -73.938474,
            40.8428566
          ],
          [
            -73.9385573,
            40.8428915
          ],
          [
            -73.9385891,
            40.8429049
          ],
          [
            -73.9390531,
            40.8430966
          ],
          [
            -73.9390805,
            40.8431077
          ],
          [
            -73.9391843,
            40.8431498
          ],
          [
            -73.9393043,
            40.8431984
          ],
          [
            -73.9393361,
            40.8432113
          ],
          [
            -73.9393318,
            40.8432391
          ],
          [
            -73.9393247,
            40.8432851
          ],
          [
            -73.939316,
            40.8433416
          ],
          [
            -73.9393126,
            40.8433635
          ],
          [
            -73.9391792,
            40.8439387
          ],
          [
            -73.9391733,
            40.8439601
          ],
          [
            -73.9391608,
            40.8440056
          ],
          [
            -73.9391483,
            40.8440521
          ],
          [
            -73.9391416,
            40.8440767
          ],
          [
            -73.9390183,
            40.8446671
          ],
          [
            -73.9390122,
            40.8446904
          ],
          [
            -73.9390003,
            40.8447357
          ],
          [
            -73.9389887,
            40.84478
          ],
          [
            -73.9389814,
            40.8448082
          ],
          [
            -73.9388486,
            40.8453915
          ],
          [
            -73.9388401,
            40.8454202
          ],
          [
            -73.9388285,
            40.8454593
          ],
          [
            -73.9400932,
            40.8459939
          ],
          [
            -73.9401462,
            40.8460149
          ],
          [
            -73.9401293,
            40.8460562
          ],
          [
            -73.9401209,
            40.8460755
          ],
          [
            -73.9399586,
            40.8464476
          ],
          [
            -73.9399504,
            40.8464664
          ],
          [
            -73.9399371,
            40.8465063
          ],
          [
            -73.9399241,
            40.8465454
          ],
          [
            -73.9399155,
            40.8465678
          ],
          [
            -73.9396982,
            40.8471296
          ],
          [
            -73.9396895,
            40.8471519
          ],
          [
            -73.9396708,
            40.8471901
          ],
          [
            -73.9396499,
            40.8472287
          ],
          [
            -73.939641,
            40.8472512
          ],
          [
            -73.9394394,
            40.8477618
          ],
          [
            -73.9394323,
            40.8477799
          ],
          [
            -73.9394188,
            40.8478182
          ],
          [
            -73.9393986,
            40.8478658
          ],
          [
            -73.9393913,
            40.8478861
          ],
          [
            -73.9393649,
            40.8479601
          ],
          [
            -73.9391039,
            40.8485888
          ],
          [
            -73.9390944,
            40.8486116
          ],
          [
            -73.9390765,
            40.8486619
          ],
          [
            -73.9390564,
            40.848715
          ],
          [
            -73.9390542,
            40.8487206
          ],
          [
            -73.939052,
            40.848726
          ],
          [
            -73.9390477,
            40.8487366
          ],
          [
            -73.938958,
            40.8489586
          ],
          [
            -73.9388587,
            40.8492043
          ],
          [
            -73.9388518,
            40.8492214
          ],
          [
            -73.9388499,
            40.8492259
          ],
          [
            -73.9388469,
            40.8492329
          ],
          [
            -73.9388238,
            40.8492927
          ],
          [
            -73.9388063,
            40.849338
          ],
          [
            -73.9387968,
            40.8493628
          ],
          [
            -73.9387113,
            40.8495985
          ],
          [
            -73.9385805,
            40.8499205
          ],
          [
            -73.9385722,
            40.849941
          ],
          [
            -73.9385527,
            40.8499793
          ],
          [
            -73.9385326,
            40.8500189
          ],
          [
            -73.9385246,
            40.8500382
          ],
          [
            -73.9382058,
            40.8508036
          ],
          [
            -73.9381962,
            40.8508267
          ],
          [
            -73.9381757,
            40.8508788
          ],
          [
            -73.9381523,
            40.8509382
          ],
          [
            -73.9381435,
            40.8509613
          ],
          [
            -73.9377366,
            40.8520448
          ],
          [
            -73.9377284,
            40.8520668
          ],
          [
            -73.9377149,
            40.8521026
          ],
          [
            -73.9376973,
            40.8521501
          ],
          [
            -73.937692,
            40.8521675
          ],
          [
            -73.9367652,
            40.8519515
          ],
          [
            -73.9370279,
            40.8513053
          ],
          [
            -73.9371064,
            40.8513337
          ]
        ]
      }
    }
  ]
}
