{
  "type": "FeatureCollection",
  "features": [
    {
      "type": "Feature",
      "properties": {
        "scenario": "HARD - Inwood tip, tiny target",
        "shape": "round",
        "target_miles": 1.0,
        "distance_m": 1865.309576888343,
        "candidate_index": 0
      },
      "geometry": {
        "type": "LineString",
        "coordinates": [
          [
            -73.9204046,
            40.8745438
          ],
          [
            -73.9203427,
            40.8744873
          ],
          [
            -73.9203611,
            40.8744641
          ],
          [
            -73.9203703,
            40.8744328
          ],
          [
            -73.9203671,
            40.8744073
          ],
          [
            -73.9203503,
            40.8743779
          ],
          [
            -73.9203211,
            40.8743546
          ],
          [
            -73.9203019,
            40.8743458
          ],
          [
            -73.9202612,
            40.8743369
          ],
          [
            -73.9202188,
            40.8743391
          ],
          [
            -73.9201388,
            40.8742555
          ],
          [
            -73.9200106,
            40.8741758
          ],
          [
            -73.9198094,
            40.8740587
          ],
          [
            -73.919886,
            40.8739777
          ],
          [
            -73.9197515,
            40.8738749
          ],
          [
            -73.9197655,
            40.8738219
          ],
          [
            -73.919766,
            40.8736734
          ],
          [
            -73.9197679,
            40.8735955
          ],
          [
            -73.9197707,
            40.8734776
          ],
          [
            -73.9198874,
            40.8733016
          ],
          [
            -73.9200095,
            40.8731752
          ],
          [
            -73.9202217,
            40.8729967
          ],
          [
            -73.9203518,
            40.8729544
          ],
          [
            -73.920568,
            40.8729157
          ],
          [
            -73.9207936,
            40.8729028
          ],
          [
            -73.9210058,
            40.8729078
          ],
          [
            -73.9211876,
            40.8729703
          ],
          [
            -73.9214139,
            40.8730414
          ],
          [
            -73.9215383,
            40.873097
          ],
          [
            -73.9216728,
            40.8729304
          ],
          [
            -73.9216958,
            40.8729114
          ],
          [
            -73.921846,
            40.8727876
          ],
          [
            -73.92193,
            40.8727457
          ],
          [
            -73.9220042,
            40.8727086
          ],
          [
            -73.9221893,
            40.8726262
          ],
          [
            -73.9224475,
            40.87258
          ],
          [
            -73.9226738,
            40.8725682
          ],
          [
            -73.9228377,
            40.8726057
          ],
          [
            -73.9230073,
            40.8726461
          ],
          [
            -73.9231734,
            40.8727181
          ],
          [
            -73.9233671,
            40.8728204
          ],
          [
            -73.923528,
            40.8729556
          ],
          [
            -73.9236125,
            40.8730975
          ],
          [
            -73.9236681,
            40.8732598
          ],
          [
            -73.9238157,
            40.8732942
          ],
          [
            -73.9239343,
            40.873335
          ],
          [
            -73.9240853,
            40.8733471
          ],
          [
            -73.9242529,
            40.8732289
          ],
          [
            -73.9244107,
            40.8730788
          ],
          [
            -73.9244902,
            40.8729552
          ],
          [
            -73.9245471,
            40.872703
          ],
          [
            -73.9246176,
            40.8724968
          ],
          [
            -73.9246798,
            40.8722723
          ],
          [
            -73.9248283,
            40.8718474
          ],
          [
            -73.9247243,
            40.8718867
          ],
          [
            -73.9246226,
            40.8719131
          ],
          [
            -73.9244531,
            40.8719103
          ],
          [
            -73.9243035,
            40.8719079
          ],
          [
            -73.9241216,
            40.8719051
          ],
          [
            -73.9239182,
            40.8719068
          ],
          [
            -73.9237575,
            40.8719163
          ],
          [
            -73.9236058,
            40.8719403
          ],
          [
            -73.9235452,
            40.8720008
          ],
          [
            -73.923313,
            40.8721682
          ],
          [
            -73.9230639,
            40.8722498
          ],
          [
            -73.9227278,
            40.8722732
          ],
          [
            -73.9224257,
            40.8722077
          ],
          [
            -73.9222237,
            40.8720626
          ],
          [
            -73.9221203,
            40.8718559
          ],
          [
            -73.9221198,
            40.8717132
          ],
          [
            -73.9220457,
            40.8715525
          ],
          [
            -73.921932,
            40.8713011
          ],
          [
            -73.9218653,
            40.8714545
          ],
          [
            -73.9218319,
            40.8715997
          ],
          [
            -73.9217879,
            40.8717617
          ],
          [
            -73.9217641,
            40.871932
          ],
          [
            -73.9218512,
            40.8720831
          ],
          [
            -73.9219045,
            40.8721822
          ],
          [
            -73.9219695,
            40.8722849
          ],
          [
            -73.9220282,
            40.872387
          ],
          [
            -73.9220301,
            40.8725346
          ],
          [
            -73.9219902,
            40.8726484
          ],
          [
            -73.92193,
            40.8727457
          ],
          [
            -73.9218435,
            40.872737
          ],
          [
            -73.9217255,
            40.8727106
          ],
          [
            -73.9216262,
            40.8726559
          ],
          [
            -73.9214814,
            40.8725524
          ],
          [
            -73.9213795,
            40.8724875
          ],
          [
            -73.9212856,
            40.8724591
          ],
          [
            -73.9212427,
            40.8724551
          ],
          [
            -73.9211095,
            40.8724461
          ],
          [
            -73.9210323,
            40.8724731
          ],
          [
            -73.9207329,
            40.8724921
          ],
          [
            -73.9204744,
            40.872478
          ],
          [
            -73.9203549,
            40.8725058
          ],
          [
            -73.9201939,
            40.8725849
          ],
          [
            -73.9201182,
            40.8726453
          ],
          [
            -73.9199965,
            40.8728162
          ],
          [
            -73.9198377,
            40.8729415
          ],
          [
            -73.9197142,
            40.8730016
          ],
          [
            -73.9194873,
            40.8730461
          ],
          [
            -73.9191903,
            40.8730725
          ],
          [
            -73.9190298,
            40.8730665
          ],
          [
            -73.9187937,
            40.8730404
          ],
          [
            -73.9187359,
            40.8730486
          ],
          [
            -73.9186039,
            40.8730674
          ],
          [
            -73.9187787,
            40.873103
          ],
          [
            -73.9190998,
            40.8733137
          ],
          [
            -73.9193035,
            40.8735975
          ],
          [
            -73.9193593,
            40.8736753
          ],
          [
            -73.9193882,
            40.8737125
          ],
          [
            -73.9193558,
            40.8738402
          ],
          [
            -73.9194522,
            40.8740418
          ],
          [
            -73.9195368,
            40.8741182
          ],
          [
            -73.9196642,
            40.8742007
          ],
          [
            -73.9197998,
            40.8742703
          ],
          [
            -73.9200453,
            40.8743411
          ],
          [
            -73.9200243,
            40.8744177
          ],
          [
            -73.9200476,
            40.8745047
          ],
          [
            -73.920128,
            40.8745666
          ],
          [
            -73.9202536,
            40.8746078
          ],
          [
            -73.9203412,
            40.8745807
          ],
          [
            -73.9204046,
            40.8745438
          ]
        ]
      }
    },
    {
      "type": "Feature",
      "properties": {
        "scenario": "HARD - Inwood tip, tiny target",
        "shape": "round",
        "target_miles": 1.0,
        "distance_m": 1947.0800492446615,
        "candidate_index": 1
      },
      "geometry": {
        "type": "LineString",
        "coordinates": [
          [
            -73.9204046,
            40.8745438
          ],
          [
            -73.9203427,
            40.8744873
          ],
          [
            -73.9203611,
            40.8744641
          ],
          [
            -73.9203703,
            40.8744328
          ],
          [
            -73.9203671,
            40.8744073
          ],
          [
            -73.9203503,
            40.8743779
          ],
          [
            -73.9203211,
            40.8743546
          ],
          [
            -73.9203019,
            40.8743458
          ],
          [
            -73.9202612,
            40.8743369
          ],
          [
            -73.9202188,
            40.8743391
          ],
          [
            -73.9201388,
            40.8742555
          ],
          [
            -73.9200106,
            40.8741758
          ],
          [
            -73.9198094,
            40.8740587
          ],
          [
            -73.919886,
            40.8739777
          ],
          [
            -73.9197515,
            40.8738749
          ],
          [
            -73.9197655,
            40.8738219
          ],
          [
            -73.919766,
            40.8736734
          ],
          [
            -73.9197679,
            40.8735955
          ],
          [
            -73.9197707,
            40.8734776
          ],
          [
            -73.9198874,
            40.8733016
          ],
          [
            -73.9200095,
            40.8731752
          ],
          [
            -73.9202217,
            40.8729967
          ],
          [
            -73.9201242,
            40.8729357
          ],
          [
            -73.9200947,
            40.8728546
          ],
          [
            -73.9200813,
            40.8727552
          ],
          [
            -73.9201182,
            40.8726453
          ],
          [
            -73.9201939,
            40.8725849
          ],
          [
            -73.9203549,
            40.8725058
          ],
          [
            -73.9204744,
            40.872478
          ],
          [
            -73.9207329,
            40.8724921
          ],
          [
            -73.9210323,
            40.8724731
          ],
          [
            -73.9211095,
            40.8724461
          ],
          [
            -73.9211976,
            40.8724153
          ],
          [
            -73.9214539,
            40.8722672
          ],
          [
            -73.9214924,
            40.8721847
          ],
          [
            -73.9215298,
            40.8720013
          ],
          [
            -73.9215497,
            40.8717137
          ],
          [
            -73.9215272,
            40.8714688
          ],
          [
            -73.9215484,
            40.8711802
          ],
          [
            -73.9216782,
            40.8709399
          ],
          [
            -73.921676,
            40.8708864
          ],
          [
            -73.921674,
            40.8708367
          ],
          [
            -73.9216513,
            40.8707851
          ],
          [
            -73.9216516,
            40.8707235
          ],
          [
            -73.9217029,
            40.8706516
          ],
          [
            -73.9224849,
            40.8701264
          ],
          [
            -73.9226151,
            40.8700419
          ],
          [
            -73.9227164,
            40.8699891
          ],
          [
            -73.922801,
            40.8700406
          ],
          [
            -73.9228421,
            40.8701442
          ],
          [
            -73.9228487,
            40.8702375
          ],
          [
            -73.9228412,
            40.8703681
          ],
          [
            -73.9227725,
            40.8704873
          ],
          [
            -73.9227506,
            40.8705745
          ],
          [
            -73.9227964,
            40.8706654
          ],
          [
            -73.9228621,
            40.8707378
          ],
          [
            -73.9230274,
            40.8708027
          ],
          [
            -73.923167,
            40.8708344
          ],
          [
            -73.92327,
            40.8708459
          ],
          [
            -73.9235247,
            40.8709121
          ],
          [
            -73.9237369,
            40.8709786
          ],
          [
            -73.923863,
            40.871055
          ],
          [
            -73.9240966,
            40.8711568
          ],
          [
            -73.9239273,
            40.8713966
          ],
          [
            -73.9238684,
            40.8715808
          ],
          [
            -73.9237636,
            40.8717828
          ],
          [
            -73.9236058,
            40.8719403
          ],
          [
            -73.9235452,
            40.8720008
          ],
          [
            -73.923313,
            40.8721682
          ],
          [
            -73.9230639,
            40.8722498
          ],
          [
            -73.9227278,
            40.8722732
          ],
          [
            -73.9224257,
            40.8722077
          ],
          [
            -73.9222237,
            40.8720626
          ],
          [
            -73.9221203,
            40.8718559
          ],
          [
            -73.9221198,
            40.8717132
          ],
          [
            -73.9220457,
            40.8715525
          ],
          [
            -73.921932,
            40.8713011
          ],
          [
            -73.9218653,
            40.8714545
          ],
          [
            -73.9218319,
            40.8715997
          ],
          [
            -73.9217879,
            40.8717617
          ],
          [
            -73.9217641,
            40.871932
          ],
          [
            -73.9218512,
            40.8720831
          ],
          [
            -73.9219045,
            40.8721822
          ],
          [
            -73.9219695,
            40.8722849
          ],
          [
            -73.9220282,
            40.872387
          ],
          [
            -73.9220301,
            40.8725346
          ],
          [
            -73.9219902,
            40.8726484
          ],
          [
            -73.92193,
            40.8727457
          ],
          [
            -73.921846,
            40.8727876
          ],
          [
            -73.9216958,
            40.8729114
          ],
          [
            -73.9216728,
            40.8729304
          ],
          [
            -73.9215383,
            40.873097
          ],
          [
            -73.9214139,
            40.8730414
          ],
          [
            -73.9211876,
            40.8729703
          ],
          [
            -73.9210058,
            40.8729078
          ],
          [
            -73.9207936,
            40.8729028
          ],
          [
            -73.920568,
            40.8729157
          ],
          [
            -73.9203518,
            40.8729544
          ],
          [
            -73.9202217,
            40.8729967
          ],
          [
            -73.9201242,
            40.8729357
          ],
          [
            -73.9200545,
            40.8729256
          ],
          [
            -73.9199499,
            40.8729256
          ],
          [
            -73.9198377,
            40.8729415
          ],
          [
            -73.9197142,
            40.8730016
          ],
          [
            -73.9194873,
            40.8730461
          ],
          [
            -73.9191903,
            40.8730725
          ],
          [
            -73.9190298,
            40.8730665
          ],
          [
            -73.9187937,
            40.8730404
          ],
          [
            -73.9187359,
            40.8730486
          ],
          [
            -73.9186039,
            40.8730674
          ],
          [
            -73.9187787,
            40.873103
          ],
          [
            -73.9190998,
            40.8733137
          ],
          [
            -73.9193035,
            40.8735975
          ],
          [
            -73.9193593,
            40.8736753
          ],
          [
            -73.9193882,
            40.8737125
          ],
          [
            -73.9193558,
            40.8738402
          ],
          [
            -73.9194522,
            40.8740418
          ],
          [
            -73.9195368,
            40.8741182
          ],
          [
            -73.9196642,
            40.8742007
          ],
          [
            -73.9197998,
            40.8742703
          ],
          [
            -73.9200453,
            40.8743411
          ],
          [
            -73.9200243,
            40.8744177
          ],
          [
            -73.9200476,
            40.8745047
          ],
          [
            -73.920128,
            40.8745666
          ],
          [
            -73.9202536,
            40.8746078
          ],
          [
            -73.9203412,
            40.8745807
          ],
          [
            -73.9204046,
            40.8745438
          ]
        ]
      }
    },
    {
      "type": "Feature",
      "properties": {
        "scenario": "HARD - Inwood tip, tiny target",
        "shape": "round",
        "target_miles": 1.0,
        "distance_m": 2613.2190700810906,
        "candidate_index": 2
      },
      "geometry": {
        "type": "LineString",
        "coordinates": [
          [
            -73.9204046,
            40.8745438
          ],
          [
            -73.9203427,
            40.8744873
          ],
          [
            -73.9203611,
            40.8744641
          ],
          [
            -73.9203703,
            40.8744328
          ],
          [
            -73.9203671,
            40.8744073
          ],
          [
            -73.9203503,
            40.8743779
          ],
          [
            -73.9203211,
            40.8743546
          ],
          [
            -73.9203019,
            40.8743458
          ],
          [
            -73.9202612,
            40.8743369
          ],
          [
            -73.9202188,
            40.8743391
          ],
          [
            -73.9201388,
            40.8742555
          ],
          [
            -73.9200106,
            40.8741758
          ],
          [
            -73.9198094,
            40.8740587
          ],
          [
            -73.919886,
            40.8739777
          ],
          [
            -73.9197515,
            40.8738749
          ],
          [
            -73.9197655,
            40.8738219
          ],
          [
            -73.919766,
            40.8736734
          ],
          [
            -73.9197679,
            40.8735955
          ],
          [
            -73.9197707,
            40.8734776
          ],
          [
            -73.9198874,
            40.8733016
          ],
          [
            -73.9200095,
            40.8731752
          ],
          [
            -73.9202217,
            40.8729967
          ],
          [
            -73.9203518,
            40.8729544
          ],
          [
            -73.920568,
            40.8729157
          ],
          [
            -73.9207936,
            40.8729028
          ],
          [
            -73.9210058,
            40.8729078
          ],
          [
            -73.9211876,
            40.8729703
          ],
          [
            -73.9214139,
            40.8730414
          ],
          [
            -73.9215383,
            40.873097
          ],
          [
            -73.9216728,
            40.8729304
          ],
          [
            -73.9216958,
            40.8729114
          ],
          [
            -73.921846,
            40.8727876
          ],
          [
            -73.92193,
            40.8727457
          ],
          [
            -73.9220042,
            40.8727086
          ],
          [
            -73.9221893,
            40.8726262
          ],
          [
            -73.9224475,
            40.87258
          ],
          [
            -73.9226738,
            40.8725682
          ],
          [
            -73.9228377,
            40.8726057
          ],
          [
            -73.9230073,
            40.8726461
          ],
          [
            -73.9231734,
            40.8727181
          ],
          [
            -73.9233671,
            40.8728204
          ],
          [
            -73.923528,
            40.8729556
          ],
          [
            -73.9236125,
            40.8730975
          ],
          [
            -73.9236681,
            40.8732598
          ],
          [
            -73.9238157,
            40.8732942
          ],
          [
            -73.9239343,
            40.873335
          ],
          [
            -73.9240853,
            40.8733471
          ],
          [
            -73.9242529,
            40.8732289
          ],
          [
            -73.9244107,
            40.8730788
          ],
          [
            -73.9242667,
            40.8733572
          ],
          [
            -73.9241994,
            40.8735811
          ],
          [
            -73.9241523,
            40.8737948
          ],
          [
            -73.9239908,
            40.8740644
          ],
          [
            -73.9238024,
            40.8742985
          ],
          [
            -73.9236948,
            40.8745682
          ],
          [
            -73.9236831,
            40.8747011
          ],
          [
            -73.9236746,
            40.8747971
          ],
          [
            -73.9235265,
            40.8750922
          ],
          [
            -73.9234929,
            40.8752652
          ],
          [
            -73.9236409,
            40.8753415
          ],
          [
            -73.923863,
            40.8752652
          ],
          [
            -73.9241137,
            40.8752667
          ],
          [
            -73.9241254,
            40.8754239
          ],
          [
            -73.924137,
            40.875581
          ],
          [
            -73.9240027,
            40.8757461
          ],
          [
            -73.9238004,
            40.8758164
          ],
          [
            -73.9235971,
            40.8758406
          ],
          [
            -73.9233915,
            40.8757515
          ],
          [
            -73.9233136,
            40.8757554
          ],
          [
            -73.9232851,
            40.8757568
          ],
          [
            -73.9231807,
            40.8758305
          ],
          [
            -73.9231091,
            40.8759198
          ],
          [
            -73.923106,
            40.8760515
          ],
          [
            -73.9231806,
            40.8762522
          ],
          [
            -73.9231731,
            40.8764487
          ],
          [
            -73.9231537,
            40.8765641
          ],
          [
            -73.9231852,
            40.8766473
          ],
          [
            -73.9233394,
            40.8767736
          ],
          [
            -73.9234209,
            40.8768891
          ],
          [
            -73.9230609,
            40.8767506
          ],
          [
            -73.9227724,
            40.8765844
          ],
          [
            -73.9226796,
            40.876483
          ],
          [
            -73.922648,
            40.8763771
          ],
          [
            -73.9226632,
            40.8761097
          ],
          [
            -73.9226529,
            40.8760302
          ],
          [
            -73.9225973,
            40.8759207
          ],
          [
            -73.9225908,
            40.8758337
          ],
          [
            -73.9226261,
            40.8757447
          ],
          [
            -73.9227265,
            40.8756066
          ],
          [
            -73.9228401,
            40.8753291
          ],
          [
            -73.922917,
            40.8751126
          ],
          [
            -73.9230577,
            40.8748976
          ],
          [
            -73.9232388,
            40.8747099
          ],
          [
            -73.9233431,
            40.874434
          ],
          [
            -73.9236002,
            40.8741865
          ],
          [
            -73.9238258,
            40.8739368
          ],
          [
            -73.9239203,
            40.8738239
          ],
          [
            -73.9239827,
            40.8736862
          ],
          [
            -73.9239447,
            40.8735372
          ],
          [
            -73.923818,
            40.8733934
          ],
          [
            -73.9236716,
            40.8733048
          ],
          [
            -73.9236524,
            40.8734819
          ],
          [
            -73.9235877,
            40.8736866
          ],
          [
            -73.9234746,
            40.8738914
          ],
          [
            -73.9233209,
            40.874027
          ],
          [
            -73.9231837,
            40.8740994
          ],
          [
            -73.9228873,
            40.8742374
          ],
          [
            -73.9227174,
            40.8742949
          ],
          [
            -73.9225688,
            40.8740909
          ],
          [
            -73.9224578,
            40.8739222
          ],
          [
            -73.9222936,
            40.8737132
          ],
          [
            -73.9221475,
            40.8735686
          ],
          [
            -73.9219607,
            40.8734158
          ],
          [
            -73.9217628,
            40.8732522
          ],
          [
            -73.9215383,
            40.873097
          ],
          [
            -73.9216728,
            40.8729304
          ],
          [
            -73.9216958,
            40.8729114
          ],
          [
            -73.9217013,
            40.8728262
          ],
          [
            -73.9216692,
            40.8727208
          ],
          [
            -73.9216262,
            40.8726559
          ],
          [
            -73.9214814,
            40.8725524
          ],
          [
            -73.9213795,
            40.8724875
          ],
          [
            -73.9212856,
            40.8724591
          ],
          [
            -73.9212427,
            40.8724551
          ],
          [
            -73.9211095,
            40.8724461
          ],
          [
            -73.9210323,
            40.8724731
          ],
          [
            -73.9207329,
            40.8724921
          ],
          [
            -73.9204744,
            40.872478
          ],
          [
            -73.9203549,
            40.8725058
          ],
          [
            -73.9201939,
            40.8725849
          ],
          [
            -73.9201182,
            40.8726453
          ],
          [
            -73.9199965,
            40.8728162
          ],
          [
            -73.9198377,
            40.8729415
          ],
          [
            -73.9197142,
            40.8730016
          ],
          [
            -73.9194873,
            40.8730461
          ],
          [
            -73.9191903,
            40.8730725
          ],
          [
            -73.9190298,
            40.8730665
          ],
          [
            -73.9187937,
            40.8730404
          ],
          [
            -73.9187359,
            40.8730486
          ],
          [
            -73.9186039,
            40.8730674
          ],
          [
            -73.9187787,
            40.873103
          ],
          [
            -73.9190998,
            40.8733137
          ],
          [
            -73.9193035,
            40.8735975
          ],
          [
            -73.9193593,
            40.8736753
          ],
          [
            -73.9193882,
            40.8737125
          ],
          [
            -73.9193558,
            40.8738402
          ],
          [
            -73.9194522,
            40.8740418
          ],
          [
            -73.9195368,
            40.8741182
          ],
          [
            -73.9196642,
            40.8742007
          ],
          [
            -73.9197998,
            40.8742703
          ],
          [
            -73.9200453,
            40.8743411
          ],
          [
            -73.9200243,
            40.8744177
          ],
          [
            -73.9200476,
            40.8745047
          ],
          [
            -73.920128,
            40.8745666
          ],
          [
            -73.9202536,
            40.8746078
          ],
          [
            -73.9203412,
            40.8745807
          ],
          [
            -73.9204046,
            40.8745438
          ]
        ]
      }
    },
    {
      "type": "Feature",
      "properties": {
        "scenario": "HARD - Inwood tip, tiny target",
        "shape": "round",
        "target_miles": 1.0,
        "distance_m": 1695.2664846565501,
        "candidate_index": 3
      },
      "geometry": {
        "type": "LineString",
        "coordinates": [
          [
            -73.9204046,
            40.8745438
          ],
          [
            -73.9203427,
            40.8744873
          ],
          [
            -73.9203611,
            40.8744641
          ],
          [
            -73.9203703,
            40.8744328
          ],
          [
            -73.9203671,
            40.8744073
          ],
          [
            -73.9203503,
            40.8743779
          ],
          [
            -73.9203211,
            40.8743546
          ],
          [
            -73.9203019,
            40.8743458
          ],
          [
            -73.9202612,
            40.8743369
          ],
          [
            -73.9202188,
            40.8743391
          ],
          [
            -73.9201388,
            40.8742555
          ],
          [
            -73.9200106,
            40.8741758
          ],
          [
            -73.9198094,
            40.8740587
          ],
          [
            -73.9196763,
            40.8739965
          ],
          [
            -73.9195287,
            40.8738768
          ],
          [
            -73.9193882,
            40.8737125
          ],
          [
            -73.9193593,
            40.8736753
          ],
          [
            -73.9193035,
            40.8735975
          ],
          [
            -73.9190998,
            40.8733137
          ],
          [
            -73.9187787,
            40.873103
          ],
          [
            -73.9186039,
            40.8730674
          ],
          [
            -73.918459,
            40.873022
          ],
          [
            -73.919458,
            40.872249
          ],
          [
            -73.9194149,
            40.8722119
          ],
          [
            -73.9193949,
            40.8721947
          ],
          [
            -73.9186461,
            40.8715498
          ],
          [
            -73.918564,
            40.871479
          ],
          [
            -73.9186173,
            40.8714402
          ],
          [
            -73.9185775,
            40.8713984
          ],
          [
            -73.9185556,
            40.8713796
          ],
          [
            -73.9180408,
            40.8709392
          ],
          [
            -73.9180209,
            40.8709219
          ],
          [
            -73.9179778,
            40.8708808
          ],
          [
            -73.9179494,
            40.8708534
          ],
          [
            -73.9179299,
            40.8708371
          ],
          [
            -73.9188207,
            40.870237
          ],
          [
            -73.9189936,
            40.8701432
          ],
          [
            -73.9190272,
            40.8701177
          ],
          [
            -73.9192847,
            40.8699169
          ],
          [
            -73.9191482,
            40.8698659
          ],
          [
            -73.9190524,
            40.8698053
          ],
          [
            -73.9189527,
            40.8697863
          ],
          [
            -73.9187736,
            40.8697467
          ],
          [
            -73.9186671,
            40.8697072
          ],
          [
            -73.9185709,
            40.8696572
          ],
          [
            -73.9184891,
            40.8696196
          ],
          [
            -73.9183727,
            40.8696604
          ],
          [
            -73.9183534,
            40.8696984
          ],
          [
            -73.9183091,
            40.8697382
          ],
          [
            -73.9182482,
            40.8697598
          ],
          [
            -73.9181881,
            40.8697655
          ],
          [
            -73.918125,
            40.8697587
          ],
          [
            -73.9180747,
            40.8697359
          ],
          [
            -73.9180424,
            40.8697121
          ],
          [
            -73.9180063,
            40.8697047
          ],
          [
            -73.917968,
            40.86972
          ],
          [
            -73.9176757,
            40.8698547
          ],
          [
            -73.9173993,
            40.8699848
          ],
          [
            -73.9171483,
            40.8701342
          ],
          [
            -73.917123,
            40.8701536
          ],
          [
            -73.9170993,
            40.8701719
          ],
          [
            -73.9170746,
            40.8701863
          ],
          [
            -73.9178707,
            40.8708833
          ],
          [
            -73.917916,
            40.870923
          ],
          [
            -73.917982,
            40.8709796
          ],
          [
            -73.9184963,
            40.8714209
          ],
          [
            -73.9185325,
            40.8713952
          ],
          [
            -73.9185556,
            40.8713796
          ],
          [
            -73.9192169,
            40.8709303
          ],
          [
            -73.9192331,
            40.8709484
          ],
          [
            -73.9192577,
            40.8709736
          ],
          [
            -73.9193315,
            40.8710454
          ],
          [
            -73.9193466,
            40.8710619
          ],
          [
            -73.9193528,
            40.8710687
          ],
          [
            -73.9193737,
            40.8711263
          ],
          [
            -73.9197096,
            40.87198
          ],
          [
            -73.9197401,
            40.8720715
          ],
          [
            -73.9197393,
            40.8721137
          ],
          [
            -73.9198331,
            40.8721096
          ],
          [
            -73.919927,
            40.872137
          ],
          [
            -73.9200102,
            40.8721735
          ],
          [
            -73.9200449,
            40.8721925
          ],
          [
            -73.9200947,
            40.8722993
          ],
          [
            -73.9201246,
            40.8723782
          ],
          [
            -73.920144,
            40.8724654
          ],
          [
            -73.9201364,
            40.872554
          ],
          [
            -73.9201182,
            40.8726453
          ],
          [
            -73.9200813,
            40.8727552
          ],
          [
            -73.9200947,
            40.8728546
          ],
          [
            -73.9201242,
            40.8729357
          ],
          [
            -73.9202217,
            40.8729967
          ],
          [
            -73.9200095,
            40.8731752
          ],
          [
            -73.9198874,
            40.8733016
          ],
          [
            -73.9197707,
            40.8734776
          ],
          [
            -73.9197679,
            40.8735955
          ],
          [
            -73.919766,
            40.8736734
          ],
          [
            -73.9197655,
            40.8738219
          ],
          [
            -73.9197515,
            40.8738749
          ],
          [
            -73.919886,
            40.8739777
          ],
          [
            -73.9198094,
            40.8740587
          ],
          [
            -73.9200106,
            40.8741758
          ],
          [
            -73.9201388,
            40.8742555
          ],
          [
            -73.9202188,
            40.8743391
          ],
          [
            -73.9202612,
            40.8743369
          ],
          [
            -73.9203019,
            40.8743458
          ],
          [
            -73.9203211,
            40.8743546
          ],
          [
            -73.9203503,
            40.8743779
          ],
          [
            -73.9203671,
            40.8744073
          ],
          [
            -73.9203703,
            40.8744328
          ],
          [
            -73.9203611,
            40.8744641
          ],
          [
            -73.9203427,
            40.8744873
          ],
          [
            -73.9204046,
            40.8745438
          ]
        ]
      }
    },
    {
      "type": "Feature",
      "properties": {
        "scenario": "HARD - Inwood tip, tiny target",
        "shape": "round",
        "target_miles": 1.0,
        "distance_m": 1873.2075626769479,
        "candidate_index": 4
      },
      "geometry": {
        "type": "LineString",
        "coordinates": [
          [
            -73.9204046,
            40.8745438
          ],
          [
            -73.9203427,
            40.8744873
          ],
          [
            -73.9203611,
            40.8744641
          ],
          [
            -73.9203703,
            40.8744328
          ],
          [
            -73.9203671,
            40.8744073
          ],
          [
            -73.9203503,
            40.8743779
          ],
          [
            -73.9203211,
            40.8743546
          ],
          [
            -73.9203019,
            40.8743458
          ],
          [
            -73.9202612,
            40.8743369
          ],
          [
            -73.9202188,
            40.8743391
          ],
          [
            -73.9201388,
            40.8742555
          ],
          [
            -73.9200106,
            40.8741758
          ],
          [
            -73.9198094,
            40.8740587
          ],
          [
            -73.9196763,
            40.8739965
          ],
          [
            -73.9195287,
            40.8738768
          ],
          [
            -73.9193882,
            40.8737125
          ],
          [
            -73.9193593,
            40.8736753
          ],
          [
            -73.9193035,
            40.8735975
          ],
          [
            -73.9190998,
            40.8733137
          ],
          [
            -73.9187787,
            40.873103
          ],
          [
            -73.9186039,
            40.8730674
          ],
          [
            -73.918459,
            40.873022
          ],
          [
            -73.9176909,
            40.8727089
          ],
          [
            -73.9173697,
            40.872578
          ],
          [
            -73.9172941,
            40.8725472
          ],
          [
            -73.917176,
            40.872499
          ],
          [
            -73.9171033,
            40.872468
          ],
          [
            -73.9171457,
            40.8724133
          ],
          [
            -73.9171606,
            40.8723941
          ],
          [
            -73.9164551,
            40.8721191
          ],
          [
            -73.9164439,
            40.8721095
          ],
          [
            -73.9164328,
            40.8720983
          ],
          [
            -73.9164239,
            40.8720892
          ],
          [
            -73.9163549,
            40.87206
          ],
          [
            -73.9163178,
            40.8720442
          ],
          [
            -73.9162984,
            40.872036
          ],
          [
            -73.9151958,
            40.8715672
          ],
          [
            -73.915181,
            40.8715601
          ],
          [
            -73.9151353,
            40.8715387
          ],
          [
            -73.9150808,
            40.8715131
          ],
          [
            -73.9150624,
            40.8715055
          ],
          [
            -73.914348,
            40.8712096
          ],
          [
            -73.9143294,
            40.8712019
          ],
          [
            -73.9142122,
            40.8711394
          ],
          [
            -73.9141537,
            40.8711082
          ],
          [
            -73.9141044,
            40.8710904
          ],
          [
            -73.914047,
            40.8710696
          ],
          [
            -73.9139744,
            40.8710433
          ],
          [
            -73.9139498,
            40.8710333
          ],
          [
            -73.9142494,
            40.8706241
          ],
          [
            -73.9145381,
            40.8702313
          ],
          [
            -73.9145458,
            40.8702209
          ],
          [
            -73.9145867,
            40.8701801
          ],
          [
            -73.9146116,
            40.8701553
          ],
          [
            -73.9146212,
            40.8701421
          ],
          [
            -73.9150068,
            40.8696138
          ],
          [
            -73.9150228,
            40.8696206
          ],
          [
            -73.9151092,
            40.8696527
          ],
          [
            -73.9152436,
            40.8697063
          ],
          [
            -73.9152665,
            40.8697162
          ],
          [
            -73.9156371,
            40.8698763
          ],
          [
            -73.9156685,
            40.8698902
          ],
          [
            -73.9157391,
            40.8699486
          ],
          [
            -73.9158253,
            40.8700197
          ],
          [
            -73.9158469,
            40.8700345
          ],
          [
            -73.9154671,
            40.8703269
          ],
          [
            -73.9149634,
            40.870715
          ],
          [
            -73.914348,
            40.8712096
          ],
          [
            -73.9143319,
            40.8712226
          ],
          [
            -73.9142504,
            40.8712707
          ],
          [
            -73.9141813,
            40.8713114
          ],
          [
            -73.9141567,
            40.8713312
          ],
          [
            -73.9147714,
            40.8715828
          ],
          [
            -73.915252,
            40.8717755
          ],
          [
            -73.9163599,
            40.8722514
          ],
          [
            -73.9170453,
            40.8725427
          ],
          [
            -73.9171868,
            40.8726028
          ],
          [
            -73.9172153,
            40.872615
          ],
          [
            -73.9173651,
            40.872679
          ],
          [
            -73.9176341,
            40.8727941
          ],
          [
            -73.917715,
            40.8728287
          ],
          [
            -73.9184178,
            40.8731145
          ],
          [
            -73.9184678,
            40.8731322
          ],
          [
            -73.9185055,
            40.8731413
          ],
          [
            -73.9185974,
            40.8731446
          ],
          [
            -73.9185987,
            40.8731304
          ],
          [
            -73.9186039,
            40.8730674
          ],
          [
            -73.9187359,
            40.8730486
          ],
          [
            -73.9187937,
            40.8730404
          ],
          [
            -73.9190298,
            40.8730665
          ],
          [
            -73.9191903,
            40.8730725
          ],
          [
            -73.9194152,
            40.8731331
          ],
          [
            -73.9195788,
            40.8732021
          ],
          [
            -73.9196754,
            40.8732954
          ],
          [
            -73.9197707,
            40.8734776
          ],
          [
            -73.9197679,
            40.8735955
          ],
          [
            -73.919766,
            40.8736734
          ],
          [
            -73.9197655,
            40.8738219
          ],
          [
            -73.9197515,
            40.8738749
          ],
          [
            -73.919886,
            40.8739777
          ],
          [
            -73.9198094,
            40.8740587
          ],
          [
            -73.9200106,
            40.8741758
          ],
          [
            -73.9201388,
            40.8742555
          ],
          [
            -73.9202188,
            40.8743391
          ],
          [
            -73.9202612,
            40.8743369
          ],
          [
            -73.9203019,
            40.8743458
          ],
          [
            -73.9203211,
            40.8743546
          ],
          [
            -73.9203503,
            40.8743779
          ],
          [
            -73.9203671,
            40.8744073
          ],
          [
            -73.9203703,
            40.8744328
          ],
          [
            -73.9203611,
            40.8744641
          ],
          [
            -73.9203427,
            40.8744873
          ],
          [
            -73.9204046,
            40.8745438
          ]
        ]
      }
    }
  ]
}
