{
  "type": "FeatureCollection",
  "features": [
    {
      "type": "Feature",
      "properties": {
        "scenario": "Inwood - Dyckman St | 2.5mi | out_and_back | moderate | amenity",
        "shape": "out_and_back",
        "target_miles": 2.5,
        "distance_m": 4023.328913189902,
        "candidate_index": 0
      },
      "geometry": {
        "type": "LineString",
        "coordinates": [
          [
            -73.9280238,
            40.8654429
          ],
          [
            -73.9279083,
            40.865329
          ],
          [
            -73.9281272,
            40.8652149
          ],
          [
            -73.9282884,
            40.8651302
          ],
          [
            -73.9287266,
            40.8648997
          ],
          [
            -73.9289299,
            40.8647849
          ],
          [
            -73.9290352,
            40.8647226
          ],
          [
            -73.9290243,
            40.8647087
          ],
          [
            -73.9289665,
            40.8646215
          ],
          [
            -73.9289166,
            40.8645463
          ],
          [
            -73.9288996,
            40.8645236
          ],
          [
            -73.9290762,
            40.8643694
          ],
          [
            -73.9293105,
            40.8641676
          ],
          [
            -73.9295992,
            40.8638737
          ],
          [
            -73.9297413,
            40.8636925
          ],
          [
            -73.9298366,
            40.863487
          ],
          [
            -73.9298469,
            40.8634625
          ],
          [
            -73.9298727,
            40.8634053
          ],
          [
            -73.9298941,
            40.8633579
          ],
          [
            -73.9298995,
            40.863334
          ],
          [
            -73.9298887,
            40.8631523
          ],
          [
            -73.9298751,
            40.8629806
          ],
          [
            -73.9298668,
            40.8628761
          ],
          [
            -73.9298396,
            40.8627084
          ],
          [
            -73.9297966,
            40.8625066
          ],
          [
            -73.9297507,
            40.8624605
          ],
          [
            -73.9297761,
            40.8624418
          ],
          [
            -73.9298048,
            40.8624191
          ],
          [
            -73.9298324,
            40.8623992
          ],
          [
            -73.9298356,
            40.8623788
          ],
          [
            -73.9298515,
            40.8622743
          ],
          [
            -73.9298558,
            40.8622464
          ],
          [
            -73.929857,
            40.8622239
          ],
          [
            -73.9298608,
            40.8621511
          ],
          [
            -73.9298629,
            40.8621119
          ],
          [
            -73.9298654,
            40.8620801
          ],
          [
            -73.9298733,
            40.8620246
          ],
          [
            -73.9298848,
            40.8619672
          ],
          [
            -73.9299069,
            40.8618983
          ],
          [
            -73.92994,
            40.8618022
          ],
          [
            -73.9301765,
            40.8613758
          ],
          [
            -73.9306046,
            40.8606676
          ],
          [
            -73.930615,
            40.8606505
          ],
          [
            -73.9306397,
            40.8606013
          ],
          [
            -73.9306524,
            40.860576
          ],
          [
            -73.9306637,
            40.8605568
          ],
          [
            -73.9307553,
            40.8604006
          ],
          [
            -73.9308487,
            40.860185
          ],
          [
            -73.9309759,
            40.8598873
          ],
          [
            -73.9310661,
            40.8596741
          ],
          [
            -73.9310771,
            40.8596027
          ],
          [
            -73.9311447,
            40.8594863
          ],
          [
            -73.9311741,
            40.8594122
          ],
          [
            -73.9311788,
            40.8593955
          ],
          [
            -73.9311946,
            40.8593214
          ],
          [
            -73.9312057,
            40.8592692
          ],
          [
            -73.9312161,
            40.8592396
          ],
          [
            -73.9312277,
            40.8591884
          ],
          [
            -73.9312315,
            40.8591582
          ],
          [
            -73.931236,
            40.8591233
          ],
          [
            -73.9312457,
            40.8590902
          ],
          [
            -73.9312485,
            40.8590849
          ],
          [
            -73.9316614,
            40.8582896
          ],
          [
            -73.9316699,
            40.8582739
          ],
          [
            -73.9316921,
            40.8582329
          ],
          [
            -73.9308883,
            40.8579899
          ],
          [
            -73.9314151,
            40.8569674
          ],
          [
            -73.931475,
            40.856851
          ],
          [
            -73.9307249,
            40.85722
          ],
          [
            -73.9304867,
            40.8573129
          ],
          [
            -73.9299339,
            40.8573725
          ],
          [
            -73.9299544,
            40.8573134
          ],
          [
            -73.9299616,
            40.8572927
          ],
          [
            -73.9300561,
            40.8572309
          ],
          [
            -73.9303655,
            40.8571129
          ],
          [
            -73.9306817,
            40.8569144
          ],
          [
            -73.9310057,
            40.8566377
          ],
          [
            -73.9315897,
            40.8558438
          ],
          [
            -73.9316158,
            40.8558081
          ],
          [
            -73.931655,
            40.855755
          ],
          [
            -73.9316905,
            40.8557034
          ],
          [
            -73.931705,
            40.8556818
          ],
          [
            -73.9317441,
            40.8556244
          ],
          [
            -73.932092,
            40.855157
          ],
          [
            -73.9317441,
            40.8556244
          ],
          [
            -73.931705,
            40.8556818
          ],
          [
            -73.9316905,
            40.8557034
          ],
          [
            -73.931655,
            40.855755
          ],
          [
            -73.9316158,
            40.8558081
          ],
          [
            -73.9315897,
            40.8558438
          ],
          [
            -73.9310057,
            40.8566377
          ],
          [
            -73.9306817,
            40.8569144
          ],
          [
            -73.9303655,
            40.8571129
          ],
          [
            -73.9300561,
            40.8572309
          ],
          [
            -73.9299616,
            40.8572927
          ],
          [
            -73.9299544,
            40.8573134
          ],
          [
            -73.9299339,
            40.8573725
          ],
          [
            -73.9304867,
            40.8573129
          ],
          [
            -73.9307249,
            40.85722
          ],
          [
            -73.931475,
            40.856851
          ],
          [
            -73.9314151,
            40.8569674
          ],
          [
            -73.9308883,
            40.8579899
          ],
          [
            -73.9316921,
            40.8582329
          ],
          [
            -73.9316699,
            40.8582739
          ],
          [
            -73.9316614,
            40.8582896
          ],
          [
            -73.9312485,
            40.8590849
          ],
          [
            -73.9312457,
            40.8590902
          ],
          [
            -73.931236,
            40.8591233
          ],
          [
            -73.9312315,
            40.8591582
          ],
          [
            -73.9312277,
            40.8591884
          ],
          [
            -73.9312161,
            40.8592396
          ],
          [
            -73.9312057,
            40.8592692
          ],
          [
            -73.9311946,
            40.8593214
          ],
          [
            -73.9311788,
            40.8593955
          ],
          [
            -73.9311741,
            40.8594122
          ],
          [
            -73.9311447,
            40.8594863
          ],
          [
            -73.9310771,
            40.8596027
          ],
          [
            -73.9310661,
            40.8596741
          ],
          [
            -73.9309759,
            40.8598873
          ],
          [
            -73.9308487,
            40.860185
          ],
          [
            -73.9307553,
            40.8604006
          ],
          [
            -73.9306637,
            40.8605568
          ],
          [
            -73.9306524,
            40.860576
          ],
          [
            -73.9306397,
            40.8606013
          ],
          [
            -73.930615,
            40.8606505
          ],
          [
            -73.9306046,
            40.8606676
          ],
          [
            -73.9301765,
            40.8613758
          ],
          [
            -73.92994,
            40.8618022
          ],
          [
            -73.9299069,
            40.8618983
          ],
          [
            -73.9298848,
            40.8619672
          ],
          [
            -73.9298733,
            40.8620246
          ],
          [
            -73.9298654,
            40.8620801
          ],
          [
            -73.9298629,
            40.8621119
          ],
          [
            -73.9298608,
            40.8621511
          ],
          [
            -73.929857,
            40.8622239
          ],
          [
            -73.9298558,
            40.8622464
          ],
          [
            -73.9298515,
            40.8622743
          ],
          [
            -73.9298356,
            40.8623788
          ],
          [
            -73.9298324,
            40.8623992
          ],
          [
            -73.9298048,
            40.8624191
          ],
          [
            -73.9297761,
            40.8624418
          ],
          [
            -73.9297507,
            40.8624605
          ],
          [
            -73.9297966,
            40.8625066
          ],
          [
            -73.9298396,
            40.8627084
          ],
          [
            -73.9298668,
            40.8628761
          ],
          [
            -73.9298751,
            40.8629806
          ],
          [
            -73.9298887,
            40.8631523
          ],
          [
            -73.9298995,
            40.863334
          ],
          [
            -73.9298941,
            40.8633579
          ],
          [
            -73.9298727,
            40.8634053
          ],
          [
            -73.9298469,
            40.8634625
          ],
          [
            -73.9298366,
            40.863487
          ],
          [
            -73.9297413,
            40.8636925
          ],
          [
            -73.9295992,
            40.8638737
          ],
          [
            -73.9293105,
            40.8641676
          ],
          [
            -73.9290762,
            40.8643694
          ],
          [
            -73.9288996,
            40.8645236
          ],
          [
            -73.9289166,
            40.8645463
          ],
          [
            -73.9289665,
            40.8646215
          ],
          [
            -73.9290243,
            40.8647087
          ],
          [
            -73.9290352,
            40.8647226
          ],
          [
            -73.9289299,
            40.8647849
          ],
          [
            -73.9287266,
            40.8648997
          ],
          [
            -73.9282884,
            40.8651302
          ],
          [
            -73.9281272,
            40.8652149
          ],
          [
            -73.9279083,
            40.865329
          ],
          [
            -73.9280238,
            40.8654429
          ],
          [
            -73.9279083,
            40.865329
          ],
          [
            -73.9278865,
            40.8653403
          ],
          [
            -73.9278578,
            40.8653587
          ],
          [
            -73.92782,
            40.8653796
          ],
          [
            -73.9278078,
            40.8653879
          ],
          [
            -73.9277915,
            40.865368
          ],
          [
            -73.9277762,
            40.8653645
          ],
          [
            -73.9277609,
            40.8653672
          ],
          [
            -73.9275983,
            40.8654515
          ],
          [
            -73.9275773,
            40.8654449
          ],
          [
            -73.9274931,
            40.8654184
          ],
          [
            -73.9273929,
            40.8653895
          ],
          [
            -73.927372,
            40.865372
          ],
          [
            -73.9268655,
            40.864648
          ],
          [
            -73.9268128,
            40.8645673
          ],
          [
            -73.9267176,
            40.8644215
          ],
          [
            -73.9262083,
            40.8636349
          ],
          [
            -73.9261921,
            40.8636074
          ],
          [
            -73.9261393,
            40.8635276
          ],
          [
            -73.9260979,
            40.863465
          ],
          [
            -73.9260808,
            40.8634369
          ],
          [
            -73.9255604,
            40.8626202
          ],
          [
            -73.9254704,
            40.8624798
          ],
          [
            -73.9255604,
            40.8626202
          ],
          [
            -73.9260808,
            40.8634369
          ],
          [
            -73.9260979,
            40.863465
          ],
          [
            -73.9261393,
            40.8635276
          ],
          [
            -73.9261921,
            40.8636074
          ],
          [
            -73.9262083,
            40.8636349
          ],
          [
            -73.9267176,
            40.8644215
          ],
          [
            -73.9268128,
            40.8645673
          ],
          [
            -73.9268655,
            40.864648
          ],
          [
            -73.927372,
            40.865372
          ],
          [
            -73.9273929,
            40.8653895
          ],
          [
            -73.9274931,
            40.8654184
          ],
          [
            -73.9275773,
            40.8654449
          ],
          [
            -73.9275983,
            40.8654515
          ],
          [
            -73.9277609,
            40.8653672
          ],
          [
            -73.9277762,
            40.8653645
          ],
          [
            -73.9277915,
            40.865368
          ],
          [
            -73.9278078,
            40.8653879
          ],
          [
            -73.92782,
            40.8653796
          ],
          [
            -73.9278578,
            40.8653587
          ],
          [
            -73.9278865,
            40.8653403
          ],
          [
            -73.9279083,
            40.865329
          ],
          [
            -73.9280238,
            40.8654429
          ]
        ]
      }
    },
    {
      "type": "Feature",
      "properties": {
        "scenario": "Inwood - Dyckman St | 2.5mi | out_and_back | moderate | amenity",
        "shape": "out_and_back",
        "target_miles": 2.5,
        "distance_m": 4023.3289131899014,
        "candidate_index": 1
      },
      "geometry": {
        "type": "LineString",
        "coordinates": [
          [
            -73.9280238,
            40.8654429
          ],
          [
            -73.9279083,
            40.865329
          ],
          [
            -73.9278865,
            40.8653403
          ],
          [
            -73.9278578,
            40.8653587
          ],
          [
            -73.92782,
            40.8653796
          ],
          [
            -73.9278078,
            40.8653879
          ],
          [
            -73.9277915,
            40.865368
          ],
          [
            -73.9277762,
            40.8653645
          ],
          [
            -73.9277609,
            40.8653672
          ],
          [
            -73.9275983,
            40.8654515
          ],
          [
            -73.9275773,
            40.8654449
          ],
          [
            -73.9274931,
            40.8654184
          ],
          [
            -73.9273929,
            40.8653895
          ],
          [
            -73.927372,
            40.865372
          ],
          [
            -73.9268655,
            40.864648
          ],
          [
            -73.9268128,
            40.8645673
          ],
          [
            -73.9267176,
            40.8644215
          ],
          [
            -73.9262083,
            40.8636349
          ],
          [
            -73.9261921,
            40.8636074
          ],
          [
            -73.9261393,
            40.8635276
          ],
          [
            -73.9260979,
            40.863465
          ],
          [
            -73.9260808,
            40.8634369
          ],
          [
            -73.9255604,
            40.8626202
          ],
          [
            -73.9254704,
            40.8624798
          ],
          [
            -73.9255604,
            40.8626202
          ],
          [
            -73.9260808,
            40.8634369
          ],
          [
            -73.9260979,
            40.863465
          ],
          [
            -73.9261393,
            40.8635276
          ],
          [
            -73.9261921,
            40.8636074
          ],
          [
            -73.9262083,
            40.8636349
          ],
          [
            -73.9267176,
            40.8644215
          ],
          [
            -73.9268128,
            40.8645673
          ],
          [
            -73.9268655,
            40.864648
          ],
          [
            -73.927372,
            40.865372
          ],
          [
            -73.9273929,
            40.8653895
          ],
          [
            -73.9274931,
            40.8654184
          ],
          [
            -73.9275773,
            40.8654449
          ],
          [
            -73.9275983,
            40.8654515
          ],
          [
            -73.9277609,
            40.8653672
          ],
          [
            -73.9277762,
            40.8653645
          ],
          [
            -73.9277915,
            40.865368
          ],
          [
            -73.9278078,
            40.8653879
          ],
          [
            -73.92782,
            40.8653796
          ],
          [
            -73.9278578,
            40.8653587
          ],
          [
            -73.9278865,
            40.8653403
          ],
          [
            -73.9279083,
            40.865329
          ],
          [
            -73.9280238,
            40.8654429
          ],
          [
            -73.9279083,
            40.865329
          ],
          [
            -73.9281272,
            40.8652149
          ],
          [
            -73.9282884,
            40.8651302
          ],
          [
            -73.9287266,
            40.8648997
          ],
          [
            -73.9289299,
            40.8647849
          ],
          [
            -73.9290352,
            40.8647226
          ],
          [
            -73.9290243,
            40.8647087
          ],
          [
            -73.9289665,
            40.8646215
          ],
          [
            -73.9289166,
            40.8645463
          ],
          [
            -73.9288996,
            40.8645236
          ],
          [
            -73.9290762,
            40.8643694
          ],
          [
            -73.9293105,
            40.8641676
          ],
          [
            -73.9295992,
            40.8638737
          ],
          [
            -73.9297413,
            40.8636925
          ],
          [
            -73.9298366,
            40.863487
          ],
          [
            -73.9298469,
            40.8634625
          ],
          [
            -73.9298727,
            40.8634053
          ],
          [
            -73.9298941,
            40.8633579
          ],
          [
            -73.9298995,
            40.863334
          ],
          [
            -73.9298887,
            40.8631523
          ],
          [
            -73.9298751,
            40.8629806
          ],
          [
            -73.9298668,
            40.8628761
          ],
          [
            -73.9298396,
            40.8627084
          ],
          [
            -73.9297966,
            40.8625066
          ],
          [
            -73.9297507,
            40.8624605
          ],
          [
            -73.9297761,
            40.8624418
          ],
          [
            -73.9298048,
            40.8624191
          ],
          [
            -73.9298324,
            40.8623992
          ],
          [
            -73.9298356,
            40.8623788
          ],
          [
            -73.9298515,
            40.8622743
          ],
          [
            -73.9298558,
            40.8622464
          ],
          [
            -73.929857,
            40.8622239
          ],
          [
            -73.9298608,
            40.8621511
          ],
          [
            -73.9298629,
            40.8621119
          ],
          [
            -73.9298654,
            40.8620801
          ],
          [
            -73.9298733,
            40.8620246
          ],
          [
            -73.9298848,
            40.8619672
          ],
          [
            -73.9299069,
            40.8618983
          ],
          [
            -73.92994,
            40.8618022
          ],
          [
            -73.9301765,
            40.8613758
          ],
          [
            -73.9306046,
            40.8606676
          ],
          [
            -73.930615,
            40.8606505
          ],
          [
            -73.9306397,
            40.8606013
          ],
          [
            -73.9306524,
            40.860576
          ],
          [
            -73.9306637,
            40.8605568
          ],
          [
            -73.9307553,
            40.8604006
          ],
          [
            -73.9308487,
            40.860185
          ],
          [
            -73.9309759,
            40.8598873
          ],
          [
            -73.9310661,
            40.8596741
          ],
          [
            -73.9310771,
            40.8596027
          ],
          [
            -73.9311447,
            40.8594863
          ],
          [
            -73.9311741,
            40.8594122
          ],
          [
            -73.9311788,
            40.8593955
          ],
          [
            -73.9311946,
            40.8593214
          ],
          [
            -73.9312057,
            40.8592692
          ],
          [
            -73.9312161,
            40.8592396
          ],
          [
            -73.9312277,
            40.8591884
          ],
          [
            -73.9312315,
            40.8591582
          ],
          [
            -73.931236,
            40.8591233
          ],
          [
            -73.9312457,
            40.8590902
          ],
          [
            -73.9312485,
            40.8590849
          ],
          [
            -73.9316614,
            40.8582896
          ],
          [
            -73.9316699,
            40.8582739
          ],
          [
            -73.9316921,
            40.8582329
          ],
          [
            -73.9308883,
            40.8579899
          ],
          [
            -73.9314151,
            40.8569674
          ],
          [
            -73.931475,
            40.856851
          ],
          [
            -73.9307249,
            40.85722
          ],
          [
            -73.9304867,
            40.8573129
          ],
          [
            -73.9299339,
            40.8573725
          ],
          [
            -73.9299544,
            40.8573134
          ],
          [
            -73.9299616,
            40.8572927
          ],
          [
            -73.9300561,
            40.8572309
          ],
          [
            -73.9303655,
            40.8571129
          ],
          [
            -73.9306817,
            40.8569144
          ],
          [
            -73.9310057,
            40.8566377
          ],
          [
            -73.9315897,
            40.8558438
          ],
          [
            -73.9316158,
            40.8558081
          ],
          [
            -73.931655,
            40.855755
          ],
          [
            -73.9316905,
            40.8557034
          ],
          [
            -73.931705,
            40.8556818
          ],
          [
            -73.9317441,
            40.8556244
          ],
          [
            -73.932092,
            40.855157
          ],
          [
            -73.9317441,
            40.8556244
          ],
          [
            -73.931705,
            40.8556818
          ],
          [
            -73.9316905,
            40.8557034
          ],
          [
            -73.931655,
            40.855755
          ],
          [
            -73.9316158,
            40.8558081
          ],
          [
            -73.9315897,
            40.8558438
          ],
          [
            -73.9310057,
            40.8566377
          ],
          [
            -73.9306817,
            40.8569144
          ],
          [
            -73.9303655,
            40.8571129
          ],
          [
            -73.9300561,
            40.8572309
          ],
          [
            -73.9299616,
            40.8572927
          ],
          [
            -73.9299544,
            40.8573134
          ],
          [
            -73.9299339,
            40.8573725
          ],
          [
            -73.9304867,
            40.8573129
          ],
          [
            -73.9307249,
            40.85722
          ],
          [
            -73.931475,
            40.856851
          ],
          [
            -73.9314151,
            40.8569674
          ],
          [
            -73.9308883,
            40.8579899
          ],
          [
            -73.9316921,
            40.8582329
          ],
          [
            -73.9316699,
            40.8582739
          ],
          [
            -73.9316614,
            40.8582896
          ],
          [
            -73.9312485,
            40.8590849
          ],
          [
            -73.9312457,
            40.8590902
          ],
          [
            -73.931236,
            40.8591233
          ],
          [
            -73.9312315,
            40.8591582
          ],
          [
            -73.9312277,
            40.8591884
          ],
          [
            -73.9312161,
            40.8592396
          ],
          [
            -73.9312057,
            40.8592692
          ],
          [
            -73.9311946,
            40.8593214
          ],
          [
            -73.9311788,
            40.8593955
          ],
          [
            -73.9311741,
            40.8594122
          ],
          [
            -73.9311447,
            40.8594863
          ],
          [
            -73.9310771,
            40.8596027
          ],
          [
            -73.9310661,
            40.8596741
          ],
          [
            -73.9309759,
            40.8598873
          ],
          [
            -73.9308487,
            40.860185
          ],
          [
            -73.9307553,
            40.8604006
          ],
          [
            -73.9306637,
            40.8605568
          ],
          [
            -73.9306524,
            40.860576
          ],
          [
            -73.9306397,
            40.8606013
          ],
          [
            -73.930615,
            40.8606505
          ],
          [
            -73.9306046,
            40.8606676
          ],
          [
            -73.9301765,
            40.8613758
          ],
          [
            -73.92994,
            40.8618022
          ],
          [
            -73.9299069,
            40.8618983
          ],
          [
            -73.9298848,
            40.8619672
          ],
          [
            -73.9298733,
            40.8620246
          ],
          [
            -73.9298654,
            40.8620801
          ],
          [
            -73.9298629,
            40.8621119
          ],
          [
            -73.9298608,
            40.8621511
          ],
          [
            -73.929857,
            40.8622239
          ],
          [
            -73.9298558,
            40.8622464
          ],
          [
            -73.9298515,
            40.8622743
          ],
          [
            -73.9298356,
            40.8623788
          ],
          [
            -73.9298324,
            40.8623992
          ],
          [
            -73.9298048,
            40.8624191
          ],
          [
            -73.9297761,
            40.8624418
          ],
          [
            -73.9297507,
            40.8624605
          ],
          [
            -73.9297966,
            40.8625066
          ],
          [
            -73.9298396,
            40.8627084
          ],
          [
            -73.9298668,
            40.8628761
          ],
          [
            -73.9298751,
            40.8629806
          ],
          [
            -73.9298887,
            40.8631523
          ],
          [
            -73.9298995,
            40.863334
          ],
          [
            -73.9298941,
            40.8633579
          ],
          [
            -73.9298727,
            40.8634053
          ],
          [
            -73.9298469,
            40.8634625
          ],
          [
            -73.9298366,
            40.863487
          ],
          [
            -73.9297413,
            40.8636925
          ],
          [
            -73.9295992,
            40.8638737
          ],
          [
            -73.9293105,
            40.8641676
          ],
          [
            -73.9290762,
            40.8643694
          ],
          [
            -73.9288996,
            40.8645236
          ],
          [
            -73.9289166,
            40.8645463
          ],
          [
            -73.9289665,
            40.8646215
          ],
          [
            -73.9290243,
            40.8647087
          ],
          [
            -73.9290352,
            40.8647226
          ],
          [
            -73.9289299,
            40.8647849
          ],
          [
            -73.9287266,
            40.8648997
          ],
          [
            -73.9282884,
            40.8651302
          ],
          [
            -73.9281272,
            40.8652149
          ],
          [
            -73.9279083,
            40.865329
          ],
          [
            -73.9280238,
            40.8654429
          ]
        ]
      }
    },
    {
      "type": "Feature",
      "properties": {
        "scenario": "Inwood - Dyckman St | 2.5mi | out_and_back | moderate | amenity",
        "shape": "out_and_back",
        "target_miles": 2.5,
        "distance_m": 4019.766046918334,
        "candidate_index": 2
      },
      "geometry": {
        "type": "LineString",
        "coordinates": [
          [
            -73.9280238,
            40.8654429
          ],
          [
            -73.9280888,
            40.8655071
          ],
          [
            -73.9283347,
            40.8655281
          ],
          [
            -73.9283284,
            40.8655583
          ],
          [
            -73.9283189,
            40.8655976
          ],
          [
            -73.9283069,
            40.86565
          ],
          [
            -73.9282952,
            40.8657181
          ],
          [
            -73.9282873,
            40.8657364
          ],
          [
            -73.9281772,
            40.8658909
          ],
          [
            -73.9280376,
            40.8660797
          ],
          [
            -73.9280512,
            40.866098
          ],
          [
            -73.9280871,
            40.8661158
          ],
          [
            -73.9280465,
            40.8661784
          ],
          [
            -73.9281331,
            40.8662486
          ],
          [
            -73.9281016,
            40.8663101
          ],
          [
            -73.9280768,
            40.86634
          ],
          [
            -73.9285919,
            40.8667608
          ],
          [
            -73.9286155,
            40.86678
          ],
          [
            -73.9286403,
            40.8668
          ],
          [
            -73.9286779,
            40.8668303
          ],
          [
            -73.9286975,
            40.8668466
          ],
          [
            -73.928511,
            40.8669853
          ],
          [
            -73.9279835,
            40.8673399
          ],
          [
            -73.9281653,
            40.867493
          ],
          [
            -73.9282357,
            40.8675172
          ],
          [
            -73.9285293,
            40.8675893
          ],
          [
            -73.9288144,
            40.8676872
          ],
          [
            -73.9288881,
            40.8677362
          ],
          [
            -73.9289185,
            40.8678257
          ],
          [
            -73.9289304,
            40.8679373
          ],
          [
            -73.9288652,
            40.868108
          ],
          [
            -73.9287855,
            40.8682494
          ],
          [
            -73.9289101,
            40.8683789
          ],
          [
            -73.9291151,
            40.8684731
          ],
          [
            -73.9293367,
            40.8685433
          ],
          [
            -73.92944,
            40.8686124
          ],
          [
            -73.9294856,
            40.8687526
          ],
          [
            -73.9294805,
            40.8689604
          ],
          [
            -73.9293794,
            40.8691246
          ],
          [
            -73.9293889,
            40.8696835
          ],
          [
            -73.9293763,
            40.8699011
          ],
          [
            -73.9293213,
            40.8702828
          ],
          [
            -73.9292564,
            40.8705996
          ],
          [
            -73.9291976,
            40.8706868
          ],
          [
            -73.9292531,
            40.8707792
          ],
          [
            -73.9293029,
            40.8708906
          ],
          [
            -73.9293434,
            40.8709444
          ],
          [
            -73.9293216,
            40.8710525
          ],
          [
            -73.9292767,
            40.8711243
          ],
          [
            -73.9292635,
            40.8711453
          ],
          [
            -73.9294347,
            40.8712121
          ],
          [
            -73.9293684,
            40.8714675
          ],
          [
            -73.9292644,
            40.8718959
          ],
          [
            -73.9291874,
            40.8721315
          ],
          [
            -73.9290232,
            40.8725309
          ],
          [
            -73.9286839,
            40.8730121
          ],
          [
            -73.9285077,
            40.873477
          ],
          [
            -73.9282281,
            40.873806
          ],
          [
            -73.9282064,
            40.8738274
          ],
          [
            -73.9281607,
            40.8738726
          ],
          [
            -73.9281541,
            40.8738791
          ],
          [
            -73.9281391,
            40.873894
          ],
          [
            -73.9282926,
            40.8739658
          ],
          [
            -73.9284077,
            40.8739897
          ],
          [
            -73.9284989,
            40.8739796
          ],
          [
            -73.9285546,
            40.873951
          ],
          [
            -73.9287391,
            40.8737997
          ],
          [
            -73.9288028,
            40.8737472
          ],
          [
            -73.928981,
            40.8737186
          ],
          [
            -73.9290236,
            40.8737324
          ],
          [
            -73.9290296,
            40.8737351
          ],
          [
            -73.9293489,
            40.8738475
          ],
          [
            -73.9293605,
            40.8738516
          ],
          [
            -73.9293749,
            40.8738566
          ],
          [
            -73.9293791,
            40.8738581
          ],
          [
            -73.9294131,
            40.8738006
          ],
          [
            -73.9294529,
            40.8738144
          ],
          [
            -73.9294192,
            40.87387
          ],
          [
            -73.929482,
            40.8738932
          ],
          [
            -73.929587,
            40.8737755
          ],
          [
            -73.9296719,
            40.8737114
          ],
          [
            -73.9297399,
            40.8736733
          ],
          [
            -73.9298122,
            40.8736406
          ],
          [
            -73.9298955,
            40.8736049
          ],
          [
            -73.9299259,
            40.8735975
          ],
          [
            -73.9299825,
            40.8735838
          ],
          [
            -73.9300708,
            40.8735721
          ],
          [
            -73.9301487,
            40.8735692
          ],
          [
            -73.9302272,
            40.8735698
          ],
          [
            -73.9303204,
            40.8735868
          ],
          [
            -73.9311199,
            40.8722652
          ],
          [
            -73.9311233,
            40.8722591
          ],
          [
            -73.9313632,
            40.8718348
          ],
          [
            -73.9314089,
            40.871754
          ],
          [
            -73.9314711,
            40.8716342
          ],
          [
            -73.9315342,
            40.8715234
          ],
          [
            -73.9315783,
            40.8714392
          ],
          [
            -73.931623,
            40.8713552
          ],
          [
            -73.9318306,
            40.8709353
          ],
          [
            -73.9318521,
            40.8708712
          ],
          [
            -73.9318636,
            40.8708298
          ],
          [
            -73.931864,
            40.8707994
          ],
          [
            -73.9318588,
            40.8707672
          ],
          [
            -73.9318463,
            40.8707233
          ],
          [
            -73.9318232,
            40.8706788
          ],
          [
            -73.9317817,
            40.8706148
          ],
          [
            -73.9317566,
            40.8705817
          ],
          [
            -73.9317817,
            40.8706148
          ],
          [
            -73.9318232,
            40.8706788
          ],
          [
            -73.9318463,
            40.8707233
          ],
          [
            -73.9318588,
            40.8707672
          ],
          [
            -73.931864,
            40.8707994
          ],
          [
            -73.9318636,
            40.8708298
          ],
          [
            -73.9318521,
            40.8708712
          ],
          [
            -73.9318306,
            40.8709353
          ],
          [
            -73.931623,
            40.8713552
          ],
          [
            -73.9315783,
            40.8714392
          ],
          [
            -73.9315342,
            40.8715234
          ],
          [
            -73.9314711,
            40.8716342
          ],
          [
            -73.9314089,
            40.871754
          ],
          [
            -73.9313632,
            40.8718348
          ],
          [
            -73.9311233,
            40.8722591
          ],
          [
            -73.9311199,
            40.8722652
          ],
          [
            -73.9303204,
            40.8735868
          ],
          [
            -73.9302272,
            40.8735698
          ],
          [
            -73.9301487,
            40.8735692
          ],
          [
            -73.9300708,
            40.8735721
          ],
          [
            -73.9299825,
            40.8735838
          ],
          [
            -73.9299259,
            40.8735975
          ],
          [
            -73.9298955,
            40.8736049
          ],
          [
            -73.9298122,
            40.8736406
          ],
          [
            -73.9297399,
            40.8736733
          ],
          [
            -73.9296719,
            40.8737114
          ],
          [
            -73.929587,
            40.8737755
          ],
          [
            -73.929482,
            40.8738932
          ],
          [
            -73.9294192,
            40.87387
          ],
          [
            -73.9294529,
            40.8738144
          ],
          [
            -73.9294131,
            40.8738006
          ],
          [
            -73.9293791,
            40.8738581
          ],
          [
            -73.9293749,
            40.8738566
          ],
          [
            -73.9293605,
            40.8738516
          ],
          [
            -73.9293489,
            40.8738475
          ],
          [
            -73.9290296,
            40.8737351
          ],
          [
            -73.9290236,
            40.8737324
          ],
          [
            -73.928981,
            40.8737186
          ],
          [
            -73.9288028,
            40.8737472
          ],
          [
            -73.9287391,
            40.8737997
          ],
          [
            -73.9285546,
            40.873951
          ],
          [
            -73.9284989,
            40.8739796
          ],
          [
            -73.9284077,
            40.8739897
          ],
          [
            -73.9282926,
            40.8739658
          ],
          [
            -73.9281391,
            40.873894
          ],
          [
            -73.9281541,
            40.8738791
          ],
          [
            -73.9281607,
            40.8738726
          ],
          [
            -73.9282064,
            40.8738274
          ],
          [
            -73.9282281,
            40.873806
          ],
          [
            -73.9285077,
            40.873477
          ],
          [
            -73.9286839,
            40.8730121
          ],
          [
            -73.9290232,
            40.8725309
          ],
          [
            -73.9291874,
            40.8721315
          ],
          [
            -73.9292644,
            40.8718959
          ],
          [
            -73.9293684,
            40.8714675
          ],
          [
            -73.9294347,
            40.8712121
          ],
          [
            -73.9292635,
            40.8711453
          ],
          [
            -73.9292767,
            40.8711243
          ],
          [
            -73.9293216,
            40.8710525
          ],
          [
            -73.9293434,
            40.8709444
          ],
          [
            -73.9293029,
            40.8708906
          ],
          [
            -73.9292531,
            40.8707792
          ],
          [
            -73.9291976,
            40.8706868
          ],
          [
            -73.9292564,
            40.8705996
          ],
          [
            -73.9293213,
            40.8702828
          ],
          [
            -73.9293763,
            40.8699011
          ],
          [
            -73.9293889,
            40.8696835
          ],
          [
            -73.9293794,
            40.8691246
          ],
          [
            -73.9294805,
            40.8689604
          ],
          [
            -73.9294856,
            40.8687526
          ],
          [
            -73.92944,
            40.8686124
          ],
          [
            -73.9293367,
            40.8685433
          ],
          [
            -73.9291151,
            40.8684731
          ],
          [
            -73.9289101,
            40.8683789
          ],
          [
            -73.9287855,
            40.8682494
          ],
          [
            -73.9288652,
            40.868108
          ],
          [
            -73.9289304,
            40.8679373
          ],
          [
            -73.9289185,
            40.8678257
          ],
          [
            -73.9288881,
            40.8677362
          ],
          [
            -73.9288144,
            40.8676872
          ],
          [
            -73.9285293,
            40.8675893
          ],
          [
            -73.9282357,
            40.8675172
          ],
          [
            -73.9281653,
            40.867493
          ],
          [
            -73.9279835,
            40.8673399
          ],
          [
            -73.928511,
            40.8669853
          ],
          [
            -73.9286975,
            40.8668466
          ],
          [
            -73.9286779,
            40.8668303
          ],
          [
            -73.9286403,
            40.8668
          ],
          [
            -73.9286155,
            40.86678
          ],
          [
            -73.9285919,
            40.8667608
          ],
          [
            -73.9280768,
            40.86634
          ],
          [
            -73.9281016,
            40.8663101
          ],
          [
            -73.9281331,
            40.8662486
          ],
          [
            -73.9280465,
            40.8661784
          ],
          [
            -73.9280871,
            40.8661158
          ],
          [
            -73.9280512,
            40.866098
          ],
          [
            -73.9280376,
            40.8660797
          ],
          [
            -73.9281772,
            40.8658909
          ],
          [
            -73.9282873,
            40.8657364
          ],
          [
            -73.9282952,
            40.8657181
          ],
          [
            -73.9283069,
            40.86565
          ],
          [
            -73.9283189,
            40.8655976
          ],
          [
            -73.9283284,
            40.8655583
          ],
          [
            -73.9283347,
            40.8655281
          ],
          [
            -73.9280888,
            40.8655071
          ],
          [
            -73.9280238,
            40.8654429
          ],
          [
            -73.9279083,
            40.865329
          ],
          [
            -73.9278865,
            40.8653403
          ],
          [
            -73.9278578,
            40.8653587
          ],
          [
            -73.92782,
            40.8653796
          ],
          [
            -73.9278078,
            40.8653879
          ],
          [
            -73.9277915,
            40.865368
          ],
          [
            -73.9277762,
            40.8653645
          ],
          [
            -73.9277609,
            40.8653672
          ],
          [
            -73.9275983,
            40.8654515
          ],
          [
            -73.9275773,
            40.8654449
          ],
          [
            -73.9274931,
            40.8654184
          ],
          [
            -73.9272948,
            40.8655188
          ],
          [
            -73.9272714,
            40.8655306
          ],
          [
            -73.9272475,
            40.865539
          ],
          [
            -73.9271619,
            40.8655693
          ],
          [
            -73.9265267,
            40.8657937
          ],
          [
            -73.9263199,
            40.8658667
          ],
          [
            -73.925967,
            40.8659914
          ],
          [
            -73.925872,
            40.866025
          ],
          [
            -73.9257983,
            40.8660514
          ],
          [
            -73.9251166,
            40.8662959
          ],
          [
            -73.9257983,
            40.8660514
          ],
          [
            -73.925872,
            40.866025
          ],
          [
            -73.925967,
            40.8659914
          ],
          [
            -73.9263199,
            40.8658667
          ],
          [
            -73.9265267,
            40.8657937
          ],
          [
            -73.9271619,
            40.8655693
          ],
          [
            -73.9272475,
            40.865539
          ],
          [
            -73.9272714,
            40.8655306
          ],
          [
            -73.9272948,
            40.8655188
          ],
          [
            -73.9274931,
            40.8654184
          ],
          [
            -73.9275773,
            40.8654449
          ],
          [
            -73.9275983,
            40.8654515
          ],
          [
            -73.9277609,
            40.8653672
          ],
          [
            -73.9277762,
            40.8653645
          ],
          [
            -73.9277915,
            40.865368
          ],
          [
            -73.9278078,
            40.8653879
          ],
          [
            -73.92782,
            40.8653796
          ],
          [
            -73.9278578,
            40.8653587
          ],
          [
            -73.9278865,
            40.8653403
          ],
          [
            -73.9279083,
            40.865329
          ],
          [
            -73.9280238,
            40.8654429
          ]
        ]
      }
    },
    {
      "type": "Feature",
      "properties": {
        "scenario": "Inwood - Dyckman St | 2.5mi | out_and_back | moderate | amenity",
        "shape": "out_and_back",
        "target_miles": 2.5,
        "distance_m": 4019.7660469183315,
        "candidate_index": 3
      },
      "geometry": {
        "type": "LineString",
        "coordinates": [
          [
            -73.9280238,
            40.8654429
          ],
          [
            -73.9279083,
            40.865329
          ],
          [
            -73.9278865,
            40.8653403
          ],
          [
            -73.9278578,
            40.8653587
          ],
          [
            -73.92782,
            40.8653796
          ],
          [
            -73.9278078,
            40.8653879
          ],
          [
            -73.9277915,
            40.865368
          ],
          [
            -73.9277762,
            40.8653645
          ],
          [
            -73.9277609,
            40.8653672
          ],
          [
            -73.9275983,
            40.8654515
          ],
          [
            -73.9275773,
            40.8654449
          ],
          [
            -73.9274931,
            40.8654184
          ],
          [
            -73.9272948,
            40.8655188
          ],
          [
            -73.9272714,
            40.8655306
          ],
          [
            -73.9272475,
            40.865539
          ],
          [
            -73.9271619,
            40.8655693
          ],
          [
            -73.9265267,
            40.8657937
          ],
          [
            -73.9263199,
            40.8658667
          ],
          [
            -73.925967,
            40.8659914
          ],
          [
            -73.925872,
            40.866025
          ],
          [
            -73.9257983,
            40.8660514
          ],
          [
            -73.9251166,
            40.8662959
          ],
          [
            -73.9257983,
            40.8660514
          ],
          [
            -73.925872,
            40.866025
          ],
          [
            -73.925967,
            40.8659914
          ],
          [
            -73.9263199,
            40.8658667
          ],
          [
            -73.9265267,
            40.8657937
          ],
          [
            -73.9271619,
            40.8655693
          ],
          [
            -73.9272475,
            40.865539
          ],
          [
            -73.9272714,
            40.8655306
          ],
          [
            -73.9272948,
            40.8655188
          ],
          [
            -73.9274931,
            40.8654184
          ],
          [
            -73.9275773,
            40.8654449
          ],
          [
            -73.9275983,
            40.8654515
          ],
          [
            -73.9277609,
            40.8653672
          ],
          [
            -73.9277762,
            40.8653645
          ],
          [
            -73.9277915,
            40.865368
          ],
          [
            -73.9278078,
            40.8653879
          ],
          [
            -73.92782,
            40.8653796
          ],
          [
            -73.9278578,
            40.8653587
          ],
          [
            -73.9278865,
            40.8653403
          ],
          [
            -73.9279083,
            40.865329
          ],
          [
            -73.9280238,
            40.8654429
          ],
          [
            -73.9280888,
            40.8655071
          ],
          [
            -73.9283347,
            40.8655281
          ],
          [
            -73.9283284,
            40.8655583
          ],
          [
            -73.9283189,
            40.8655976
          ],
          [
            -73.9283069,
            40.86565
          ],
          [
            -73.9282952,
            40.8657181
          ],
          [
            -73.9282873,
            40.8657364
          ],
          [
            -73.9281772,
            40.8658909
          ],
          [
            -73.9280376,
            40.8660797
          ],
          [
            -73.9280512,
            40.866098
          ],
          [
            -73.9280871,
            40.8661158
          ],
          [
            -73.9280465,
            40.8661784
          ],
          [
            -73.9281331,
            40.8662486
          ],
          [
            -73.9281016,
            40.8663101
          ],
          [
            -73.9280768,
            40.86634
          ],
          [
            -73.9285919,
            40.8667608
          ],
          [
            -73.9286155,
            40.86678
          ],
          [
            -73.9286403,
            40.8668
          ],
          [
            -73.9286779,
            40.8668303
          ],
          [
            -73.9286975,
            40.8668466
          ],
          [
            -73.928511,
            40.8669853
          ],
          [
            -73.9279835,
            40.8673399
          ],
          [
            -73.9281653,
            40.867493
          ],
          [
            -73.9282357,
            40.8675172
          ],
          [
            -73.9285293,
            40.8675893
          ],
          [
            -73.9288144,
            40.8676872
          ],
          [
            -73.9288881,
            40.8677362
          ],
          [
            -73.9289185,
            40.8678257
          ],
          [
            -73.9289304,
            40.8679373
          ],
          [
            -73.9288652,
            40.868108
          ],
          [
            -73.9287855,
            40.8682494
          ],
          [
            -73.9289101,
            40.8683789
          ],
          [
            -73.9291151,
            40.8684731
          ],
          [
            -73.9293367,
            40.8685433
          ],
          [
            -73.92944,
            40.8686124
          ],
          [
            -73.9294856,
            40.8687526
          ],
          [
            -73.9294805,
            40.8689604
          ],
          [
            -73.9293794,
            40.8691246
          ],
          [
            -73.9293889,
            40.8696835
          ],
          [
            -73.9293763,
            40.8699011
          ],
          [
            -73.9293213,
            40.8702828
          ],
          [
            -73.9292564,
            40.8705996
          ],
          [
            -73.9291976,
            40.8706868
          ],
          [
            -73.9292531,
            40.8707792
          ],
          [
            -73.9293029,
            40.8708906
          ],
          [
            -73.9293434,
            40.8709444
          ],
          [
            -73.9293216,
            40.8710525
          ],
          [
            -73.9292767,
            40.8711243
          ],
          [
            -73.9292635,
            40.8711453
          ],
          [
            -73.9294347,
            40.8712121
          ],
          [
            -73.9293684,
            40.8714675
          ],
          [
            -73.9292644,
            40.8718959
          ],
          [
            -73.9291874,
            40.8721315
          ],
          [
            -73.9290232,
            40.8725309
          ],
          [
            -73.9286839,
            40.8730121
          ],
          [
            -73.9285077,
            40.873477
          ],
          [
            -73.9282281,
            40.873806
          ],
          [
            -73.9282064,
            40.8738274
          ],
          [
            -73.9281607,
            40.8738726
          ],
          [
            -73.9281541,
            40.8738791
          ],
          [
            -73.9281391,
            40.873894
          ],
          [
            -73.9282926,
            40.8739658
          ],
          [
            -73.9284077,
            40.8739897
          ],
          [
            -73.9284989,
            40.8739796
          ],
          [
            -73.9285546,
            40.873951
          ],
          [
            -73.9287391,
            40.8737997
          ],
          [
            -73.9288028,
            40.8737472
          ],
          [
            -73.928981,
            40.8737186
          ],
          [
            -73.9290236,
            40.8737324
          ],
          [
            -73.9290296,
            40.8737351
          ],
          [
            -73.9293489,
            40.8738475
          ],
          [
            -73.9293605,
            40.8738516
          ],
          [
            -73.9293749,
            40.8738566
          ],
          [
            -73.9293791,
            40.8738581
          ],
          [
            -73.9294131,
            40.8738006
          ],
          [
            -73.9294529,
            40.8738144
          ],
          [
            -73.9294192,
            40.87387
          ],
          [
            -73.929482,
            40.8738932
          ],
          [
            -73.929587,
            40.8737755
          ],
          [
            -73.9296719,
            40.8737114
          ],
          [
            -73.9297399,
            40.8736733
          ],
          [
            -73.9298122,
            40.8736406
          ],
          [
            -73.9298955,
            40.8736049
          ],
          [
            -73.9299259,
            40.8735975
          ],
          [
            -73.9299825,
            40.8735838
          ],
          [
            -73.9300708,
            40.8735721
          ],
          [
            -73.9301487,
            40.8735692
          ],
          [
            -73.9302272,
            40.8735698
          ],
          [
            -73.9303204,
            40.8735868
          ],
          [
            -73.9311199,
            40.8722652
          ],
          [
            -73.9311233,
            40.8722591
          ],
          [
            -73.9313632,
            40.8718348
          ],
          [
            -73.9314089,
            40.871754
          ],
          [
            -73.9314711,
            40.8716342
          ],
          [
            -73.9315342,
            40.8715234
          ],
          [
            -73.9315783,
            40.8714392
          ],
          [
            -73.931623,
            40.8713552
          ],
          [
            -73.9318306,
            40.8709353
          ],
          [
            -73.9318521,
            40.8708712
          ],
          [
            -73.9318636,
            40.8708298
          ],
          [
            -73.931864,
            40.8707994
          ],
          [
            -73.9318588,
            40.8707672
          ],
          [
            -73.9318463,
            40.8707233
          ],
          [
            -73.9318232,
            40.8706788
          ],
          [
            -73.9317817,
            40.8706148
          ],
          [
            -73.9317566,
            40.8705817
          ],
          [
            -73.9317817,
            40.8706148
          ],
          [
            -73.9318232,
            40.8706788
          ],
          [
            -73.9318463,
            40.8707233
          ],
          [
            -73.9318588,
            40.8707672
          ],
          [
            -73.931864,
            40.8707994
          ],
          [
            -73.9318636,
            40.8708298
          ],
          [
            -73.9318521,
            40.8708712
          ],
          [
            -73.9318306,
            40.8709353
          ],
          [
            -73.931623,
            40.8713552
          ],
          [
            -73.9315783,
            40.8714392
          ],
          [
            -73.9315342,
            40.8715234
          ],
          [
            -73.9314711,
            40.8716342
          ],
          [
            -73.9314089,
            40.871754
          ],
          [
            -73.9313632,
            40.8718348
          ],
          [
            -73.9311233,
            40.8722591
          ],
          [
            -73.9311199,
            40.8722652
          ],
          [
            -73.9303204,
            40.8735868
          ],
          [
            -73.9302272,
            40.8735698
          ],
          [
            -73.9301487,
            40.8735692
          ],
          [
            -73.9300708,
            40.8735721
          ],
          [
            -73.9299825,
            40.8735838
          ],
          [
            -73.9299259,
            40.8735975
          ],
          [
            -73.9298955,
            40.8736049
          ],
          [
            -73.9298122,
            40.8736406
          ],
          [
            -73.9297399,
            40.8736733
          ],
          [
            -73.9296719,
            40.8737114
          ],
          [
            -73.929587,
            40.8737755
          ],
          [
            -73.929482,
            40.8738932
          ],
          [
            -73.9294192,
            40.87387
          ],
          [
            -73.9294529,
            40.8738144
          ],
          [
            -73.9294131,
            40.8738006
          ],
          [
            -73.9293791,
            40.8738581
          ],
          [
            -73.9293749,
            40.8738566
          ],
          [
            -73.9293605,
            40.8738516
          ],
          [
            -73.9293489,
            40.8738475
          ],
          [
            -73.9290296,
            40.8737351
          ],
          [
            -73.9290236,
            40.8737324
          ],
          [
            -73.928981,
            40.8737186
          ],
          [
            -73.9288028,
            40.8737472
          ],
          [
            -73.9287391,
            40.8737997
          ],
          [
            -73.9285546,
            40.873951
          ],
          [
            -73.9284989,
            40.8739796
          ],
          [
            -73.9284077,
            40.8739897
          ],
          [
            -73.9282926,
            40.8739658
          ],
          [
            -73.9281391,
            40.873894
          ],
          [
            -73.9281541,
            40.8738791
          ],
          [
            -73.9281607,
            40.8738726
          ],
          [
            -73.9282064,
            40.8738274
          ],
          [
            -73.9282281,
            40.873806
          ],
          [
            -73.9285077,
            40.873477
          ],
          [
            -73.9286839,
            40.8730121
          ],
          [
            -73.9290232,
            40.8725309
          ],
          [
            -73.9291874,
            40.8721315
          ],
          [
            -73.9292644,
            40.8718959
          ],
          [
            -73.9293684,
            40.8714675
          ],
          [
            -73.9294347,
            40.8712121
          ],
          [
            -73.9292635,
            40.8711453
          ],
          [
            -73.9292767,
            40.8711243
          ],
          [
            -73.9293216,
            40.8710525
          ],
          [
            -73.9293434,
            40.8709444
          ],
          [
            -73.9293029,
            40.8708906
          ],
          [
            -73.9292531,
            40.8707792
          ],
          [
            -73.9291976,
            40.8706868
          ],
          [
            -73.9292564,
            40.8705996
          ],
          [
            -73.9293213,
            40.8702828
          ],
          [
            -73.9293763,
            40.8699011
          ],
          [
            -73.9293889,
            40.8696835
          ],
          [
            -73.9293794,
            40.8691246
          ],
          [
            -73.9294805,
            40.8689604
          ],
          [
            -73.9294856,
            40.8687526
          ],
          [
            -73.92944,
            40.8686124
          ],
          [
            -73.9293367,
            40.8685433
          ],
          [
            -73.9291151,
            40.8684731
          ],
          [
            -73.9289101,
            40.8683789
          ],
          [
            -73.9287855,
            40.8682494
          ],
          [
            -73.9288652,
            40.868108
          ],
          [
            -73.9289304,
            40.8679373
          ],
          [
            -73.9289185,
            40.8678257
          ],
          [
            -73.9288881,
            40.8677362
          ],
          [
            -73.9288144,
            40.8676872
          ],
          [
            -73.9285293,
            40.8675893
          ],
          [
            -73.9282357,
            40.8675172
          ],
          [
            -73.9281653,
            40.867493
          ],
          [
            -73.9279835,
            40.8673399
          ],
          [
            -73.928511,
            40.8669853
          ],
          [
            -73.9286975,
            40.8668466
          ],
          [
            -73.9286779,
            40.8668303
          ],
          [
            -73.9286403,
            40.8668
          ],
          [
            -73.9286155,
            40.86678
          ],
          [
            -73.9285919,
            40.8667608
          ],
          [
            -73.9280768,
            40.86634
          ],
          [
            -73.9281016,
            40.8663101
          ],
          [
            -73.9281331,
            40.8662486
          ],
          [
            -73.9280465,
            40.8661784
          ],
          [
            -73.9280871,
            40.8661158
          ],
          [
            -73.9280512,
            40.866098
          ],
          [
            -73.9280376,
            40.8660797
          ],
          [
            -73.9281772,
            40.8658909
          ],
          [
            -73.9282873,
            40.8657364
          ],
          [
            -73.9282952,
            40.8657181
          ],
          [
            -73.9283069,
            40.86565
          ],
          [
            -73.9283189,
            40.8655976
          ],
          [
            -73.9283284,
            40.8655583
          ],
          [
            -73.9283347,
            40.8655281
          ],
          [
            -73.9280888,
            40.8655071
          ],
          [
            -73.9280238,
            40.8654429
          ]
        ]
      }
    },
    {
      "type": "Feature",
      "properties": {
        "scenario": "Inwood - Dyckman St | 2.5mi | out_and_back | moderate | amenity",
        "shape": "out_and_back",
        "target_miles": 2.5,
        "distance_m": 4032.3932288425463,
        "candidate_index": 4
      },
      "geometry": {
        "type": "LineString",
        "coordinates": [
          [
            -73.9280238,
            40.8654429
          ],
          [
            -73.9280888,
            40.8655071
          ],
          [
            -73.9283347,
            40.8655281
          ],
          [
            -73.9283284,
            40.8655583
          ],
          [
            -73.9283189,
            40.8655976
          ],
          [
            -73.9284054,
            40.865631
          ],
          [
            -73.9285317,
            40.8656428
          ],
          [
            -73.928961,
            40.8656828
          ],
          [
            -73.9291682,
            40.8657141
          ],
          [
            -73.9293567,
            40.8657506
          ],
          [
            -73.9296337,
            40.8658411
          ],
          [
            -73.929749,
            40.8658934
          ],
          [
            -73.9297622,
            40.8659003
          ],
          [
            -73.9298529,
            40.8659478
          ],
          [
            -73.9299347,
            40.8660054
          ],
          [
            -73.9300109,
            40.8660591
          ],
          [
            -73.9304693,
            40.866438
          ],
          [
            -73.9300109,
            40.8660591
          ],
          [
            -73.9299347,
            40.8660054
          ],
          [
            -73.9298529,
            40.8659478
          ],
          [
            -73.9297622,
            40.8659003
          ],
          [
            -73.929749,
            40.8658934
          ],
          [
            -73.9296337,
            40.8658411
          ],
          [
            -73.9293567,
            40.8657506
          ],
          [
            -73.9291682,
            40.8657141
          ],
          [
            -73.928961,
            40.8656828
          ],
          [
            -73.9285317,
            40.8656428
          ],
          [
            -73.9284054,
            40.865631
          ],
          [
            -73.9283189,
            40.8655976
          ],
          [
            -73.9283284,
            40.8655583
          ],
          [
            -73.9283347,
            40.8655281
          ],
          [
            -73.9280888,
            40.8655071
          ],
          [
            -73.9280238,
            40.8654429
          ],
          [
            -73.9279083,
            40.865329
          ],
          [
            -73.9281272,
            40.8652149
          ],
          [
            -73.9282884,
            40.8651302
          ],
          [
            -73.9287266,
            40.8648997
          ],
          [
            -73.9289299,
            40.8647849
          ],
          [
            -73.9290352,
            40.8647226
          ],
          [
            -73.9291886,
            40.8646031
          ],
          [
            -73.929233,
            40.864569
          ],
          [
            -73.9294606,
            40.8643815
          ],
          [
            -73.9296576,
            40.8641904
          ],
          [
            -73.9299818,
            40.8637992
          ],
          [
            -73.9301114,
            40.8635412
          ],
          [
            -73.9301802,
            40.8633541
          ],
          [
            -73.930185,
            40.8633245
          ],
          [
            -73.9301892,
            40.8632989
          ],
          [
            -73.930163,
            40.863064
          ],
          [
            -73.9301101,
            40.8626789
          ],
          [
            -73.9300902,
            40.8625349
          ],
          [
            -73.9301141,
            40.8622388
          ],
          [
            -73.9301695,
            40.8620422
          ],
          [
            -73.9302856,
            40.8617399
          ],
          [
            -73.9304272,
            40.8617899
          ],
          [
            -73.9304969,
            40.8616702
          ],
          [
            -73.9305479,
            40.861657
          ],
          [
            -73.9306109,
            40.8616296
          ],
          [
            -73.9306807,
            40.861587
          ],
          [
            -73.930745,
            40.8615546
          ],
          [
            -73.9309757,
            40.8613361
          ],
          [
            -73.931022,
            40.8612941
          ],
          [
            -73.9310669,
            40.8612979
          ],
          [
            -73.9311192,
            40.8611113
          ],
          [
            -73.9311916,
            40.8611404
          ],
          [
            -73.9312277,
            40.8611389
          ],
          [
            -73.9312615,
            40.8611268
          ],
          [
            -73.9313209,
            40.8610861
          ],
          [
            -73.9313879,
            40.8610364
          ],
          [
            -73.9314625,
            40.8609567
          ],
          [
            -73.9315158,
            40.860893
          ],
          [
            -73.9315679,
            40.860842
          ],
          [
            -73.9316336,
            40.8607806
          ],
          [
            -73.9316773,
            40.8607201
          ],
          [
            -73.9317938,
            40.8604939
          ],
          [
            -73.9318477,
            40.8604341
          ],
          [
            -73.931925,
            40.8603737
          ],
          [
            -73.931975,
            40.8603346
          ],
          [
            -73.9320048,
            40.8602957
          ],
          [
            -73.932022,
            40.8602448
          ],
          [
            -73.9320977,
            40.8601656
          ],
          [
            -73.9321411,
            40.8601067
          ],
          [
            -73.9321842,
            40.8600624
          ],
          [
            -73.9321972,
            40.8600555
          ],
          [
            -73.9322572,
            40.8600429
          ],
          [
            -73.9323025,
            40.8600268
          ],
          [
            -73.9323314,
            40.8599963
          ],
          [
            -73.93235,
            40.8599522
          ],
          [
            -73.9323646,
            40.8599217
          ],
          [
            -73.932371,
            40.8599105
          ],
          [
            -73.932374,
            40.8599054
          ],
          [
            -73.9323912,
            40.8598859
          ],
          [
            -73.9324135,
            40.8598675
          ],
          [
            -73.9324475,
            40.8598469
          ],
          [
            -73.9324564,
            40.8598401
          ],
          [
            -73.9325508,
            40.8597571
          ],
          [
            -73.932653,
            40.8597011
          ],
          [
            -73.932755,
            40.8596746
          ],
          [
            -73.932803,
            40.8596676
          ],
          [
            -73.9328878,
            40.8596265
          ],
          [
            -73.9329585,
            40.8595941
          ],
          [
            -73.9330317,
            40.8595723
          ],
          [
            -73.9331805,
            40.8595503
          ],
          [
            -73.9332758,
            40.8595364
          ],
          [
            -73.9333104,
            40.859527
          ],
          [
            -73.9333441,
            40.8595138
          ],
          [
            -73.9334594,
            40.859453
          ],
          [
            -73.9335874,
            40.8593918
          ],
          [
            -73.9336276,
            40.8593716
          ],
          [
            -73.9336561,
            40.8593088
          ],
          [
            -73.9337298,
            40.8593309
          ],
          [
            -73.9338154,
            40.8591451
          ],
          [
            -73.9338196,
            40.8591396
          ],
          [
            -73.9338244,
            40.859136
          ],
          [
            -73.9338303,
            40.859133
          ],
          [
            -73.9338402,
            40.8591295
          ],
          [
            -73.9338502,
            40.8591271
          ],
          [
            -73.9338613,
            40.8591255
          ],
          [
            -73.933871,
            40.859125
          ],
          [
            -73.9338776,
            40.8591255
          ],
          [
            -73.9338859,
            40.8591269
          ],
          [
            -73.9340432,
            40.8591658
          ],
          [
            -73.9340607,
            40.8591682
          ],
          [
            -73.9340666,
            40.8591659
          ],
          [
            -73.9340721,
            40.8591628
          ],
          [
            -73.9340757,
            40.85916
          ],
          [
            -73.9340789,
            40.8591567
          ],
          [
            -73.9342364,
            40.8589024
          ],
          [
            -73.93433,
            40.8587308
          ],
          [
            -73.9343982,
            40.8585855
          ],
          [
            -73.9345621,
            40.8583496
          ],
          [
            -73.9346771,
            40.858184
          ],
          [
            -73.9346947,
            40.8581606
          ],
          [
            -73.9348878,
            40.8579039
          ],
          [
            -73.9351187,
            40.8575923
          ],
          [
            -73.9352429,
            40.8574248
          ],
          [
            -73.9354512,
            40.8571484
          ],
          [
            -73.9354645,
            40.8571308
          ],
          [
            -73.9355001,
            40.857085
          ],
          [
            -73.9355311,
            40.857045
          ],
          [
            -73.9355427,
            40.8570294
          ],
          [
            -73.9360736,
            40.8563154
          ],
          [
            -73.9361933,
            40.85616
          ],
          [
            -73.9363291,
            40.8559775
          ],
          [
            -73.9365006,
            40.8557599
          ],
          [
            -73.9365953,
            40.8556153
          ],
          [
            -73.9366972,
            40.8553842
          ],
          [
            -73.9367707,
            40.8551572
          ],
          [
            -73.9367841,
            40.8551134
          ],
          [
            -73.9368105,
            40.855029
          ],
          [
            -73.9373065,
            40.8534236
          ],
          [
            -73.9373457,
            40.8532967
          ],
          [
            -73.9374686,
            40.8528974
          ],
          [
            -73.9375016,
            40.8528995
          ],
          [
            -73.9375886,
            40.8529028
          ],
          [
            -73.9376551,
            40.8529057
          ],
          [
            -73.9376848,
            40.8529074
          ],
          [
            -73.9377005,
            40.8529079
          ],
          [
            -73.9377797,
            40.8529229
          ],
          [
            -73.9378274,
            40.852931
          ],
          [
            -73.9377797,
            40.8529229
          ],
          [
            -73.9377005,
            40.8529079
          ],
          [
            -73.9376848,
            40.8529074
          ],
          [
            -73.9376551,
            40.8529057
          ],
          [
            -73.9375886,
            40.8529028
          ],
          [
            -73.9375016,
            40.8528995
          ],
          [
            -73.9374686,
            40.8528974
          ],
          [
            -73.9373457,
            40.8532967
          ],
          [
            -73.9373065,
            40.8534236
          ],
          [
            -73.9368105,
            40.855029
          ],
          [
            -73.9367841,
            40.8551134
          ],
          [
            -73.9367707,
            40.8551572
          ],
          [
            -73.9366972,
            40.8553842
          ],
          [
            -73.9365953,
            40.8556153
          ],
          [
            -73.9365006,
            40.8557599
          ],
          [
            -73.9363291,
            40.8559775
          ],
          [
            -73.9361933,
            40.85616
          ],
          [
            -73.9360736,
            40.8563154
          ],
          [
            -73.9355427,
            40.8570294
          ],
          [
            -73.9355311,
            40.857045
          ],
          [
            -73.9355001,
            40.857085
          ],
          [
            -73.9354645,
            40.8571308
          ],
          [
            -73.9354512,
            40.8571484
          ],
          [
            -73.9352429,
            40.8574248
          ],
          [
            -73.9351187,
            40.8575923
          ],
          [
            -73.9348878,
            40.8579039
          ],
          [
            -73.9346947,
            40.8581606
          ],
          [
            -73.9346771,
            40.858184
          ],
          [
            -73.9345621,
            40.8583496
          ],
          [
            -73.9343982,
            40.8585855
          ],
          [
            -73.93433,
            40.8587308
          ],
          [
            -73.9342364,
            40.8589024
          ],
          [
            -73.9340789,
            40.8591567
          ],
          [
            -73.9340757,
            40.85916
          ],
          [
            -73.9340721,
            40.8591628
          ],
          [
            -73.9340666,
            40.8591659
          ],
          [
            -73.9340607,
            40.8591682
          ],
          [
            -73.9340432,
            40.8591658
          ],
          [
            -73.9338859,
            40.8591269
          ],
          [
            -73.9338776,
            40.8591255
          ],
          [
            -73.933871,
            40.859125
          ],
          [
            -73.9338613,
            40.8591255
          ],
          [
            -73.9338502,
            40.8591271
          ],
          [
            -73.9338402,
            40.8591295
          ],
          [
            -73.9338303,
            40.859133
          ],
          [
            -73.9338244,
            40.859136
          ],
          [
            -73.9338196,
            40.8591396
          ],
          [
            -73.9338154,
            40.8591451
          ],
          [
            -73.9337298,
            40.8593309
          ],
          [
            -73.9336561,
            40.8593088
          ],
          [
            -73.9336276,
            40.8593716
          ],
          [
            -73.9335874,
            40.8593918
          ],
          [
            -73.9334594,
            40.859453
          ],
          [
            -73.9333441,
            40.8595138
          ],
          [
            -73.9333104,
            40.859527
          ],
          [
            -73.9332758,
            40.8595364
          ],
          [
            -73.9331805,
            40.8595503
          ],
          [
            -73.9330317,
            40.8595723
          ],
          [
            -73.9329585,
            40.8595941
          ],
          [
            -73.9328878,
            40.8596265
          ],
          [
            -73.932803,
            40.8596676
          ],
          [
            -73.932755,
            40.8596746
          ],
          [
            -73.932653,
            40.8597011
          ],
          [
            -73.9325508,
            40.8597571
          ],
          [
            -73.9324564,
            40.8598401
          ],
          [
            -73.9324475,
            40.8598469
          ],
          [
            -73.9324135,
            40.8598675
          ],
          [
            -73.9323912,
            40.8598859
          ],
          [
            -73.932374,
            40.8599054
          ],
          [
            -73.932371,
            40.8599105
          ],
          [
            -73.9323646,
            40.8599217
          ],
          [
            -73.93235,
            40.8599522
          ],
          [
            -73.9323314,
            40.8599963
          ],
          [
            -73.9323025,
            40.8600268
          ],
          [
            -73.9322572,
            40.8600429
          ],
          [
            -73.9321972,
            40.8600555
          ],
          [
            -73.9321842,
            40.8600624
          ],
          [
            -73.9321411,
            40.8601067
          ],
          [
            -73.9320977,
            40.8601656
          ],
          [
            -73.932022,
            40.8602448
          ],
          [
            -73.9320048,
            40.8602957
          ],
          [
            -73.931975,
            40.8603346
          ],
          [
            -73.931925,
            40.8603737
          ],
          [
            -73.9318477,
            40.8604341
          ],
          [
            -73.9317938,
            40.8604939
          ],
          [
            -73.9316773,
            40.8607201
          ],
          [
            -73.9316336,
            40.8607806
          ],
          [
            -73.9315679,
            40.860842
          ],
          [
            -73.9315158,
            40.860893
          ],
          [
            -73.9314625,
            40.8609567
          ],
          [
            -73.9313879,
            40.8610364
          ],
          [
            -73.9313209,
            40.8610861
          ],
          [
            -73.9312615,
            40.8611268
          ],
          [
            -73.9312277,
            40.8611389
          ],
          [
            -73.9311916,
            40.8611404
          ],
          [
            -73.9311192,
            40.8611113
          ],
          [
            -73.9310669,
            40.8612979
          ],
          [
            -73.931022,
            40.8612941
          ],
          [
            -73.9309757,
            40.8613361
          ],
          [
            -73.930745,
            40.8615546
          ],
          [
            -73.9306807,
            40.861587
          ],
          [
            -73.9306109,
            40.8616296
          ],
          [
            -73.9305479,
            40.861657
          ],
          [
            -73.9304969,
            40.8616702
          ],
          [
            -73.9304272,
            40.8617899
          ],
          [
            -73.9302856,
            40.8617399
          ],
          [
            -73.9301695,
            40.8620422
          ],
          [
            -73.9301141,
            40.8622388
          ],
          [
            -73.9300902,
            40.8625349
          ],
          [
            -73.9301101,
            40.8626789
          ],
          [
            -73.930163,
            40.863064
          ],
          [
            -73.9301892,
            40.8632989
          ],
          [
            -73.930185,
            40.8633245
          ],
          [
            -73.9301802,
            40.8633541
          ],
          [
            -73.9301114,
            40.8635412
          ],
          [
            -73.9299818,
            40.8637992
          ],
          [
            -73.9296576,
            40.8641904
          ],
          [
            -73.9294606,
            40.8643815
          ],
          [
            -73.929233,
            40.864569
          ],
          [
            -73.9291886,
            40.8646031
          ],
          [
            -73.9290352,
            40.8647226
          ],
          [
            -73.9289299,
            40.8647849
          ],
          [
            -73.9287266,
            40.8648997
          ],
          [
            -73.9282884,
            40.8651302
          ],
          [
            -73.9281272,
            40.8652149
          ],
          [
            -73.9279083,
            40.865329
          ],
          [
            -73.9280238,
            40.8654429
          ]
        ]
      }
    }
  ]
}
